postalCode,Commune,Sous_Commune,Commune_Principale,Province,Region
0612,Saint-Nicolas,,Saint-Nicolas,,
1000,Bruxelles,Non,BRUXELLES,BRUXELLES,BRUXELLES
1005,Assemblée Réunie de la Commission Communautaire,,Assemblée Réunie de la Commission Communautaire,,
1006,Raad van de Vlaamse Gemeenschapscommissie ,,Raad van de Vlaamse Gemeenschapscommissie ,,
1007,Assemblée de la Commission Communautaire Française,,Assemblée de la Commission Communautaire Française,,
1008,Chambre des Représentants,,Chambre des Représentants,,
1009,Senat de Belgique,,Senat de Belgique,,
1011,Vlaams parlement,,Vlaams parlement,,
1012,Parlement de la Communauté française,,Parlement de la Communauté française,,
1020,Laeken,Oui,BRUXELLES,BRUXELLES,BRUXELLES
1030,Schaerbeek,Non,SCHAERBEEK,BRUXELLES,BRUXELLES
1031,Organisations Sociales Chrétiennes,,Organisations Sociales Chrétiennes,,
1033,RTL-TVI,,RTL-TVI,,
1035,Ministère de la Région de Bruxelles Capitale,,Ministère de la Région de Bruxelles Capitale,,
1040,Etterbeek,Non,ETTERBEEK,BRUXELLES,BRUXELLES
1041,International Press Center,,International Press Center,,
1043,VRT,,VRT,,
1044,RTBF,,RTBF,,
1046,European External Action Service,,European External Action Service,,
1047,Parlement Européen,,Parlement Européen,,
1048,Union Européenne - Conseil,,Union Européenne - Conseil,,
1049,Union Européenne - Commission,,Union Européenne - Commission,,
1050,Ixelles,Non,IXELLES,BRUXELLES,BRUXELLES
1060,Saint-Gilles,Non,SAINT-GILLES,BRUXELLES,BRUXELLES
1070,Anderlecht,Non,ANDERLECHT,BRUXELLES,BRUXELLES
1080,Molenbeek-Saint-Jean,Non,MOLENBEEK-SAINT-JEAN,BRUXELLES,BRUXELLES
1081,Koekelberg,Non,KOEKELBERG,BRUXELLES,BRUXELLES
1082,Berchem-Sainte-Agathe,Non,BERCHEM-SAINTE-AGATHE,BRUXELLES,BRUXELLES
1083,Ganshoren,Non,GANSHOREN,BRUXELLES,BRUXELLES
1090,Jette,Non,JETTE,BRUXELLES,BRUXELLES
1099,Bruxelles X,,Bruxelles X,,
1100,Postcheque,,Postcheque,,
1101,Scanning,,Scanning,,
1105,ACTISOC,,ACTISOC,,
1110,OTAN,,OTAN,,
1120,Neder-Over-Heembeek,Oui,BRUXELLES,BRUXELLES,BRUXELLES
1130,Haren,Oui,BRUXELLES,BRUXELLES,BRUXELLES
1140,Evere,Non,EVERE,BRUXELLES,BRUXELLES
1150,Woluwe-Saint-Pierre,Non,WOLUWE-SAINT-PIERRE,BRUXELLES,BRUXELLES
1160,Auderghem,Non,AUDERGHEM,BRUXELLES,BRUXELLES
1170,Watermael-Boitsfort,Non,WATERMAEL-BOITSFORT,BRUXELLES,BRUXELLES
1180,Uccle,Non,UCCLE,BRUXELLES,BRUXELLES
1190,Forest,Non,FOREST,BRUXELLES,BRUXELLES
1200,Woluwe-Saint-Lambert,Non,WOLUWE-SAINT-LAMBERT,BRUXELLES,BRUXELLES
1210,Saint-Josse-ten-Noode,Non,SAINT-JOSSE-TEN-NOODE,BRUXELLES,BRUXELLES
1212,SPF Mobilité,,SPF Mobilité,,
1300,Limal,Oui,WAVRE,BRABANT WALLON,WALLONIE
1300,Wavre,Non,WAVRE,BRABANT WALLON,WALLONIE
1301,Bierges,Oui,WAVRE,BRABANT WALLON,WALLONIE
1310,La Hulpe,Non,LA HULPE,BRABANT WALLON,WALLONIE
1315,Glimes,Oui,INCOURT,BRABANT WALLON,WALLONIE
1315,Incourt,Non,INCOURT,BRABANT WALLON,WALLONIE
1315,Opprebais,Oui,INCOURT,BRABANT WALLON,WALLONIE
1315,Piétrebais,Oui,INCOURT,BRABANT WALLON,WALLONIE
1315,Roux-Miroir,Oui,INCOURT,BRABANT WALLON,WALLONIE
1320,Beauvechain,Non,BEAUVECHAIN,BRABANT WALLON,WALLONIE
1320,Hamme-Mille,Oui,BEAUVECHAIN,BRABANT WALLON,WALLONIE
1320,L'Ecluse,Oui,BEAUVECHAIN,BRABANT WALLON,WALLONIE
1320,Nodebais,Oui,BEAUVECHAIN,BRABANT WALLON,WALLONIE
1320,Tourinnes-La-Grosse,Oui,BEAUVECHAIN,BRABANT WALLON,WALLONIE
1325,Bonlez,Oui,CHAUMONT-GISTOUX,BRABANT WALLON,WALLONIE
1325,Chaumont-Gistoux,Non,CHAUMONT-GISTOUX,BRABANT WALLON,WALLONIE
1325,Corroy-Le-Grand,Oui,CHAUMONT-GISTOUX,BRABANT WALLON,WALLONIE
1325,Dion-Valmont,Oui,CHAUMONT-GISTOUX,BRABANT WALLON,WALLONIE
1325,Longueville,Oui,CHAUMONT-GISTOUX,BRABANT WALLON,WALLONIE
1330,Rixensart,Non,RIXENSART,BRABANT WALLON,WALLONIE
1331,Rosières,Oui,RIXENSART,BRABANT WALLON,WALLONIE
1332,Genval,Oui,RIXENSART,BRABANT WALLON,WALLONIE
1340,Ottignies,Oui,OTTIGNIES-LOUVAIN-LA-NEUVE,BRABANT WALLON,WALLONIE
1341,Céroux-Mousty,Oui,OTTIGNIES-LOUVAIN-LA-NEUVE,BRABANT WALLON,WALLONIE
1342,Limelette,Oui,OTTIGNIES-LOUVAIN-LA-NEUVE,BRABANT WALLON,WALLONIE
1348,Louvain-La-Neuve,Oui,OTTIGNIES-LOUVAIN-LA-NEUVE,BRABANT WALLON,WALLONIE
1350,Enines,Oui,ORP-JAUCHE,BRABANT WALLON,WALLONIE
1350,Folx-Les-Caves,Oui,ORP-JAUCHE,BRABANT WALLON,WALLONIE
1350,Jandrain-Jandrenouille,Oui,ORP-JAUCHE,BRABANT WALLON,WALLONIE
1350,Jauche,Oui,ORP-JAUCHE,BRABANT WALLON,WALLONIE
1350,Marilles,Oui,ORP-JAUCHE,BRABANT WALLON,WALLONIE
1350,Noduwez,Oui,ORP-JAUCHE,BRABANT WALLON,WALLONIE
1350,Orp-Le-Grand,Oui,ORP-JAUCHE,BRABANT WALLON,WALLONIE
1357,Linsmeau,Oui,HÉLÉCINE,BRABANT WALLON,WALLONIE
1357,Neerheylissem,Oui,HÉLÉCINE,BRABANT WALLON,WALLONIE
1357,Opheylissem,Oui,HÉLÉCINE,BRABANT WALLON,WALLONIE
1360,Malèves-Sainte-Marie-Wastinnes,Oui,PERWEZ,BRABANT WALLON,WALLONIE
1360,Orbais,Oui,PERWEZ,BRABANT WALLON,WALLONIE
1360,Perwez,Non,PERWEZ,BRABANT WALLON,WALLONIE
1360,Thorembais-Les-Béguines,Oui,PERWEZ,BRABANT WALLON,WALLONIE
1360,Thorembais-Saint-Trond,Oui,PERWEZ,BRABANT WALLON,WALLONIE
1367,Autre-Eglise,Oui,RAMILLIES,BRABANT WALLON,WALLONIE
1367,Bomal,Oui,RAMILLIES,BRABANT WALLON,WALLONIE
1367,Geest-Gérompont-Petit-Rosière,Oui,RAMILLIES,BRABANT WALLON,WALLONIE
1367,Gérompont,Oui,RAMILLIES,BRABANT WALLON,WALLONIE
1367,Grand-Rosière-Hottomont,Oui,RAMILLIES,BRABANT WALLON,WALLONIE
1367,Huppaye,Oui,RAMILLIES,BRABANT WALLON,WALLONIE
1367,Mont-Saint-André,Oui,RAMILLIES,BRABANT WALLON,WALLONIE
1367,Ramillies,Non,RAMILLIES,BRABANT WALLON,WALLONIE
1370,Dongelberg,Oui,JODOIGNE,BRABANT WALLON,WALLONIE
1370,Jauchelette,Oui,JODOIGNE,BRABANT WALLON,WALLONIE
1370,Jodoigne,Non,JODOIGNE,BRABANT WALLON,WALLONIE
1370,Jodoigne-Souveraine,Oui,JODOIGNE,BRABANT WALLON,WALLONIE
1370,Lathuy,Oui,JODOIGNE,BRABANT WALLON,WALLONIE
1370,Mélin,Oui,JODOIGNE,BRABANT WALLON,WALLONIE
1370,Piétrain,Oui,JODOIGNE,BRABANT WALLON,WALLONIE
1370,Saint-Jean-Geest,Oui,JODOIGNE,BRABANT WALLON,WALLONIE
1370,Saint-Remy-Geest,Oui,JODOIGNE,BRABANT WALLON,WALLONIE
1370,Zétrud-Lumay,Oui,JODOIGNE,BRABANT WALLON,WALLONIE
1380,Couture-Saint-Germain,Oui,LASNE,BRABANT WALLON,WALLONIE
1380,Lasne-Chapelle-Saint-Lambert,Oui,LASNE,BRABANT WALLON,WALLONIE
1380,Maransart,Oui,LASNE,BRABANT WALLON,WALLONIE
1380,Ohain,Oui,LASNE,BRABANT WALLON,WALLONIE
1380,Plancenoit,Oui,LASNE,BRABANT WALLON,WALLONIE
1390,Archennes,Oui,GREZ-DOICEAU,BRABANT WALLON,WALLONIE
1390,Biez,Oui,GREZ-DOICEAU,BRABANT WALLON,WALLONIE
1390,Bossut-Gottechain,Oui,GREZ-DOICEAU,BRABANT WALLON,WALLONIE
1390,Grez-Doiceau,Non,GREZ-DOICEAU,BRABANT WALLON,WALLONIE
1390,Nethen,Oui,GREZ-DOICEAU,BRABANT WALLON,WALLONIE
1400,Monstreux,Oui,NIVELLES,BRABANT WALLON,WALLONIE
1400,Nivelles,Non,NIVELLES,BRABANT WALLON,WALLONIE
1401,Baulers,Oui,NIVELLES,BRABANT WALLON,WALLONIE
1402,Thines,Oui,NIVELLES,BRABANT WALLON,WALLONIE
1404,Bornival,Oui,NIVELLES,BRABANT WALLON,WALLONIE
1410,Waterloo,Non,WATERLOO,BRABANT WALLON,WALLONIE
1420,Braine-L'Alleud,Non,BRAINE-L'ALLEUD,BRABANT WALLON,WALLONIE
1421,Ophain-Bois-Seigneur-Isaac,Oui,BRAINE-L'ALLEUD,BRABANT WALLON,WALLONIE
1428,Lillois-Witterzée,Oui,BRAINE-L'ALLEUD,BRABANT WALLON,WALLONIE
1430,Bierghes,Oui,REBECQ,BRABANT WALLON,WALLONIE
1430,Quenast,Oui,REBECQ,BRABANT WALLON,WALLONIE
1430,Rebecq-Rognon,Oui,REBECQ,BRABANT WALLON,WALLONIE
1435,Corbais,Oui,MONT-SAINT-GUIBERT,BRABANT WALLON,WALLONIE
1435,Hévillers,Oui,MONT-SAINT-GUIBERT,BRABANT WALLON,WALLONIE
1435,Mont-Saint-Guibert,Non,MONT-SAINT-GUIBERT,BRABANT WALLON,WALLONIE
1440,Braine-Le-Château,Non,BRAINE-LE-CHÂTEAU,BRABANT WALLON,WALLONIE
1440,Wauthier-Braine,Oui,BRAINE-LE-CHÂTEAU,BRABANT WALLON,WALLONIE
1450,Chastre-Villeroux-Blanmont,Oui,CHASTRE,BRABANT WALLON,WALLONIE
1450,Cortil-Noirmont,Oui,CHASTRE,BRABANT WALLON,WALLONIE
1450,Gentinnes,Oui,CHASTRE,BRABANT WALLON,WALLONIE
1450,Saint-Géry,Oui,CHASTRE,BRABANT WALLON,WALLONIE
1457,Nil-Saint-Vincent-Saint-Martin,Oui,WALHAIN,BRABANT WALLON,WALLONIE
1457,Tourinnes-Saint-Lambert,Oui,WALHAIN,BRABANT WALLON,WALLONIE
1457,Walhain-Saint-Paul,Oui,WALHAIN,BRABANT WALLON,WALLONIE
1460,Ittre,Non,ITTRE,BRABANT WALLON,WALLONIE
1460,Virginal-Samme,Oui,ITTRE,BRABANT WALLON,WALLONIE
1461,Haut-Ittre,Oui,ITTRE,BRABANT WALLON,WALLONIE
1470,Baisy-Thy,Oui,GENAPPE,BRABANT WALLON,WALLONIE
1470,Bousval,Oui,GENAPPE,BRABANT WALLON,WALLONIE
1470,Genappe,Non,GENAPPE,BRABANT WALLON,WALLONIE
1471,Loupoigne,Oui,GENAPPE,BRABANT WALLON,WALLONIE
1472,Vieux-Genappe,Oui,GENAPPE,BRABANT WALLON,WALLONIE
1473,Glabais,Oui,GENAPPE,BRABANT WALLON,WALLONIE
1474,Ways,Oui,GENAPPE,BRABANT WALLON,WALLONIE
1476,Houtain-Le-Val,Oui,GENAPPE,BRABANT WALLON,WALLONIE
1480,Clabecq,Oui,TUBIZE,BRABANT WALLON,WALLONIE
1480,Oisquercq,Oui,TUBIZE,BRABANT WALLON,WALLONIE
1480,Saintes,Oui,TUBIZE,BRABANT WALLON,WALLONIE
1480,Tubize,Non,TUBIZE,BRABANT WALLON,WALLONIE
1490,Court-Saint-Etienne,Non,COURT-SAINT-ETIENNE,BRABANT WALLON,WALLONIE
1495,Marbais,Oui,VILLERS-LA-VILLE,BRABANT WALLON,WALLONIE
1495,Mellery,Oui,VILLERS-LA-VILLE,BRABANT WALLON,WALLONIE
1495,Sart-Dames-Avelines,Oui,VILLERS-LA-VILLE,BRABANT WALLON,WALLONIE
1495,Tilly,Oui,VILLERS-LA-VILLE,BRABANT WALLON,WALLONIE
1495,Villers-La-Ville,Non,VILLERS-LA-VILLE,BRABANT WALLON,WALLONIE
1500,Halle,Non,HALLE,BRABANT FLAMAND,VLAANDEREN
1501,Buizingen,Oui,HALLE,BRABANT FLAMAND,VLAANDEREN
1502,Lembeek,Oui,HALLE,BRABANT FLAMAND,VLAANDEREN
1540,Herfelingen,Oui,HERNE,BRABANT FLAMAND,VLAANDEREN
1540,Herne,Non,HERNE,BRABANT FLAMAND,VLAANDEREN
1541,Sint-Pieters-Kapelle,Oui,HERNE,BRABANT FLAMAND,VLAANDEREN
1547,Biévène,Non,BIÉVÈNE,BRABANT FLAMAND,VLAANDEREN
1560,Hoeilaart,Non,HOEILAART,BRABANT FLAMAND,VLAANDEREN
1570,Galmaarden,Non,GALMAARDEN,BRABANT FLAMAND,VLAANDEREN
1570,Tollembeek,Oui,GALMAARDEN,BRABANT FLAMAND,VLAANDEREN
1570,Vollezele,Oui,GALMAARDEN,BRABANT FLAMAND,VLAANDEREN
1600,Oudenaken,Oui,SINT-PIETERS-LEEUW,BRABANT FLAMAND,VLAANDEREN
1600,Sint-Laureins-Berchem,Oui,SINT-PIETERS-LEEUW,BRABANT FLAMAND,VLAANDEREN
1600,Sint-Pieters-Leeuw,Non,SINT-PIETERS-LEEUW,BRABANT FLAMAND,VLAANDEREN
1601,Ruisbroek,Oui,SINT-PIETERS-LEEUW,BRABANT FLAMAND,VLAANDEREN
1602,Vlezenbeek,Oui,SINT-PIETERS-LEEUW,BRABANT FLAMAND,VLAANDEREN
1620,Drogenbos,Non,DROGENBOS,BRABANT FLAMAND,VLAANDEREN
1630,Linkebeek,Non,LINKEBEEK,BRABANT FLAMAND,VLAANDEREN
1640,Rhode-Saint-Genèse,Non,RHODE-SAINT-GENÈSE,BRABANT FLAMAND,VLAANDEREN
1650,Beersel,Non,BEERSEL,BRABANT FLAMAND,VLAANDEREN
1651,Lot,Oui,BEERSEL,BRABANT FLAMAND,VLAANDEREN
1652,Alsemberg,Oui,BEERSEL,BRABANT FLAMAND,VLAANDEREN
1653,Dworp,Oui,BEERSEL,BRABANT FLAMAND,VLAANDEREN
1654,Huizingen,Oui,BEERSEL,BRABANT FLAMAND,VLAANDEREN
1670,Bogaarden,Oui,PEPINGEN,BRABANT FLAMAND,VLAANDEREN
1670,Heikruis,Oui,PEPINGEN,BRABANT FLAMAND,VLAANDEREN
1670,Pepingen,Non,PEPINGEN,BRABANT FLAMAND,VLAANDEREN
1671,Elingen,Oui,PEPINGEN,BRABANT FLAMAND,VLAANDEREN
1673,Beert,Oui,PEPINGEN,BRABANT FLAMAND,VLAANDEREN
1674,Bellingen,Oui,PEPINGEN,BRABANT FLAMAND,VLAANDEREN
1700,Dilbeek,Non,DILBEEK,BRABANT FLAMAND,VLAANDEREN
1700,Sint-Martens-Bodegem,Oui,DILBEEK,BRABANT FLAMAND,VLAANDEREN
1700,Sint-Ulriks-Kapelle,Oui,DILBEEK,BRABANT FLAMAND,VLAANDEREN
1701,Itterbeek,Oui,DILBEEK,BRABANT FLAMAND,VLAANDEREN
1702,Groot-Bijgaarden,Oui,DILBEEK,BRABANT FLAMAND,VLAANDEREN
1703,Schepdaal,Oui,DILBEEK,BRABANT FLAMAND,VLAANDEREN
1730,Asse,Non,ASSE,BRABANT FLAMAND,VLAANDEREN
1730,Bekkerzeel,Oui,ASSE,BRABANT FLAMAND,VLAANDEREN
1730,Kobbegem,Oui,ASSE,BRABANT FLAMAND,VLAANDEREN
1730,Mollem,Oui,ASSE,BRABANT FLAMAND,VLAANDEREN
1731,Relegem,Oui,ASSE,BRABANT FLAMAND,VLAANDEREN
1731,Zellik,Oui,ASSE,BRABANT FLAMAND,VLAANDEREN
1733,HighCo DATA,,HighCo DATA,,
1740,Ternat,Non,TERNAT,BRABANT FLAMAND,VLAANDEREN
1741,Wambeek,Oui,TERNAT,BRABANT FLAMAND,VLAANDEREN
1742,Sint-Katherina-Lombeek,Oui,TERNAT,BRABANT FLAMAND,VLAANDEREN
1745,Mazenzele,Oui,OPWIJK,BRABANT FLAMAND,VLAANDEREN
1745,Opwijk,Non,OPWIJK,BRABANT FLAMAND,VLAANDEREN
1750,Gaasbeek,Oui,LENNIK,BRABANT FLAMAND,VLAANDEREN
1750,Sint-Kwintens-Lennik,Oui,LENNIK,BRABANT FLAMAND,VLAANDEREN
1750,Sint-Martens-Lennik,Oui,LENNIK,BRABANT FLAMAND,VLAANDEREN
1755,Gooik,Non,GOOIK,BRABANT FLAMAND,VLAANDEREN
1755,Kester,Oui,GOOIK,BRABANT FLAMAND,VLAANDEREN
1755,Leerbeek,Oui,GOOIK,BRABANT FLAMAND,VLAANDEREN
1755,Oetingen,Oui,GOOIK,BRABANT FLAMAND,VLAANDEREN
1760,Onze-Lieve-Vrouw-Lombeek,Oui,ROOSDAAL,BRABANT FLAMAND,VLAANDEREN
1760,Pamel,Oui,ROOSDAAL,BRABANT FLAMAND,VLAANDEREN
1760,Roosdaal,Non,ROOSDAAL,BRABANT FLAMAND,VLAANDEREN
1760,Strijtem,Oui,ROOSDAAL,BRABANT FLAMAND,VLAANDEREN
1761,Borchtlombeek,Oui,ROOSDAAL,BRABANT FLAMAND,VLAANDEREN
1770,Liedekerke,Non,LIEDEKERKE,BRABANT FLAMAND,VLAANDEREN
1780,Wemmel,Non,WEMMEL,BRABANT FLAMAND,VLAANDEREN
1785,Brussegem,Oui,MERCHTEM,BRABANT FLAMAND,VLAANDEREN
1785,Hamme,Oui,MERCHTEM,BRABANT FLAMAND,VLAANDEREN
1785,Merchtem,Non,MERCHTEM,BRABANT FLAMAND,VLAANDEREN
1790,Affligem,Non,AFFLIGEM,BRABANT FLAMAND,VLAANDEREN
1790,Essene,Oui,AFFLIGEM,BRABANT FLAMAND,VLAANDEREN
1790,Hekelgem,Oui,AFFLIGEM,BRABANT FLAMAND,VLAANDEREN
1790,Teralfene,Oui,AFFLIGEM,BRABANT FLAMAND,VLAANDEREN
1800,Peutie,Oui,VILVOORDE,BRABANT FLAMAND,VLAANDEREN
1800,Vilvoorde,Non,VILVOORDE,BRABANT FLAMAND,VLAANDEREN
1804,Cargovil,,Cargovil,,
1818,VTM,,VTM,,
1820,Melsbroek,Oui,STEENOKKERZEEL,BRABANT FLAMAND,VLAANDEREN
1820,Perk,Oui,STEENOKKERZEEL,BRABANT FLAMAND,VLAANDEREN
1820,Steenokkerzeel,Non,STEENOKKERZEEL,BRABANT FLAMAND,VLAANDEREN
1830,Machelen,Non,MACHELEN,BRABANT FLAMAND,VLAANDEREN
1831,Diegem,Oui,MACHELEN,BRABANT FLAMAND,VLAANDEREN
1840,Londerzeel,Non,LONDERZEEL,BRABANT FLAMAND,VLAANDEREN
1840,Malderen,Oui,LONDERZEEL,BRABANT FLAMAND,VLAANDEREN
1840,Steenhuffel,Oui,LONDERZEEL,BRABANT FLAMAND,VLAANDEREN
1850,Grimbergen,Non,GRIMBERGEN,BRABANT FLAMAND,VLAANDEREN
1851,Humbeek,Oui,GRIMBERGEN,BRABANT FLAMAND,VLAANDEREN
1852,Beigem,Oui,GRIMBERGEN,BRABANT FLAMAND,VLAANDEREN
1853,Strombeek-Bever,Oui,GRIMBERGEN,BRABANT FLAMAND,VLAANDEREN
1860,Meise,Non,MEISE,BRABANT FLAMAND,VLAANDEREN
1861,Wolvertem,Oui,MEISE,BRABANT FLAMAND,VLAANDEREN
1880,Kapelle-Op-Den-Bos,Non,KAPELLE-OP-DEN-BOS,BRABANT FLAMAND,VLAANDEREN
1880,Nieuwenrode,Oui,KAPELLE-OP-DEN-BOS,BRABANT FLAMAND,VLAANDEREN
1880,Ramsdonk,Oui,KAPELLE-OP-DEN-BOS,BRABANT FLAMAND,VLAANDEREN
1910,Berg,Oui,KAMPENHOUT,BRABANT FLAMAND,VLAANDEREN
1910,Buken,Oui,KAMPENHOUT,BRABANT FLAMAND,VLAANDEREN
1910,Kampenhout,Non,KAMPENHOUT,BRABANT FLAMAND,VLAANDEREN
1910,Nederokkerzeel,Oui,KAMPENHOUT,BRABANT FLAMAND,VLAANDEREN
1930,Nossegem,Oui,ZAVENTEM,BRABANT FLAMAND,VLAANDEREN
1930,Zaventem,Non,ZAVENTEM,BRABANT FLAMAND,VLAANDEREN
1931,Brucargo,,Brucargo,,
1932,Sint-Stevens-Woluwe,Oui,ZAVENTEM,BRABANT FLAMAND,VLAANDEREN
1933,Sterrebeek,Oui,ZAVENTEM,BRABANT FLAMAND,VLAANDEREN
1934,Office Exchange Brussels Airport Remailing,,Office Exchange Brussels Airport Remailing,,
1935,Corporate Village,,Corporate Village,,
1950,Kraainem,Non,KRAAINEM,BRABANT FLAMAND,VLAANDEREN
1970,Wezembeek-Oppem,Non,WEZEMBEEK-OPPEM,BRABANT FLAMAND,VLAANDEREN
1980,Eppegem,Oui,ZEMST,BRABANT FLAMAND,VLAANDEREN
1980,Zemst,Non,ZEMST,BRABANT FLAMAND,VLAANDEREN
1981,Hofstade,Oui,ZEMST,BRABANT FLAMAND,VLAANDEREN
1982,Elewijt,Oui,ZEMST,BRABANT FLAMAND,VLAANDEREN
1982,Weerde,Oui,ZEMST,BRABANT FLAMAND,VLAANDEREN
2000,Antwerpen,Non,ANTWERPEN,ANVERS,VLAANDEREN
2018,Antwerpen,Non,ANTWERPEN,ANVERS,VLAANDEREN
2020,Antwerpen,Non,ANTWERPEN,ANVERS,VLAANDEREN
2030,Antwerpen,Non,ANTWERPEN,ANVERS,VLAANDEREN
2040,Antwerpen,Non,ANTWERPEN,ANVERS,VLAANDEREN
2040,Berendrecht,Oui,ANTWERPEN,ANVERS,VLAANDEREN
2040,Lillo,Oui,ANTWERPEN,ANVERS,VLAANDEREN
2040,Zandvliet,Oui,ANTWERPEN,ANVERS,VLAANDEREN
2050,Antwerpen,Non,ANTWERPEN,ANVERS,VLAANDEREN
2060,Antwerpen,Non,ANTWERPEN,ANVERS,VLAANDEREN
2070,Burcht,Oui,ZWIJNDRECHT,ANVERS,VLAANDEREN
2070,Zwijndrecht,Non,ZWIJNDRECHT,ANVERS,VLAANDEREN
2099,Antwerpen x,,Antwerpen x,,
2100,Deurne,Oui,ANTWERPEN,ANVERS,VLAANDEREN
2110,Wijnegem,Non,WIJNEGEM,ANVERS,VLAANDEREN
2140,Borgerhout,Oui,ANTWERPEN,ANVERS,VLAANDEREN
2150,Borsbeek,Non,BORSBEEK,ANVERS,VLAANDEREN
2160,Wommelgem,Non,WOMMELGEM,ANVERS,VLAANDEREN
2170,Merksem,Oui,ANTWERPEN,ANVERS,VLAANDEREN
2180,Ekeren,Oui,ANTWERPEN,ANVERS,VLAANDEREN
2200,Herentals,Non,HERENTALS,ANVERS,VLAANDEREN
2200,Morkhoven,Oui,HERENTALS,ANVERS,VLAANDEREN
2200,Noorderwijk,Oui,HERENTALS,ANVERS,VLAANDEREN
2220,Hallaar,Oui,HEIST-OP-DEN-BERG,ANVERS,VLAANDEREN
2220,Heist-Op-Den-Berg,Non,HEIST-OP-DEN-BERG,ANVERS,VLAANDEREN
2221,Booischot,Oui,HEIST-OP-DEN-BERG,ANVERS,VLAANDEREN
2222,Itegem,Oui,HEIST-OP-DEN-BERG,ANVERS,VLAANDEREN
2222,Wiekevorst,Oui,HEIST-OP-DEN-BERG,ANVERS,VLAANDEREN
2223,Schriek,Oui,HEIST-OP-DEN-BERG,ANVERS,VLAANDEREN
2230,Herselt,Non,HERSELT,ANVERS,VLAANDEREN
2230,Ramsel,Oui,HERSELT,ANVERS,VLAANDEREN
2235,Houtvenne,Oui,HULSHOUT,ANVERS,VLAANDEREN
2235,Hulshout,Non,HULSHOUT,ANVERS,VLAANDEREN
2235,Westmeerbeek,Oui,HULSHOUT,ANVERS,VLAANDEREN
2240,Massenhoven,Oui,ZANDHOVEN,ANVERS,VLAANDEREN
2240,Viersel,Oui,ZANDHOVEN,ANVERS,VLAANDEREN
2240,Zandhoven,Non,ZANDHOVEN,ANVERS,VLAANDEREN
2242,Pulderbos,Oui,ZANDHOVEN,ANVERS,VLAANDEREN
2243,Pulle,Oui,ZANDHOVEN,ANVERS,VLAANDEREN
2250,Olen,Non,OLEN,ANVERS,VLAANDEREN
2260,Oevel,Oui,WESTERLO,ANVERS,VLAANDEREN
2260,Tongerlo,Oui,WESTERLO,ANVERS,VLAANDEREN
2260,Westerlo,Non,WESTERLO,ANVERS,VLAANDEREN
2260,Zoerle-Parwijs,Oui,WESTERLO,ANVERS,VLAANDEREN
2270,Herenthout,Non,HERENTHOUT,ANVERS,VLAANDEREN
2275,Gierle,Oui,LILLE,ANVERS,VLAANDEREN
2275,Lille,Non,LILLE,ANVERS,VLAANDEREN
2275,Poederlee,Oui,LILLE,ANVERS,VLAANDEREN
2275,Wechelderzande,Oui,LILLE,ANVERS,VLAANDEREN
2280,Grobbendonk,Non,GROBBENDONK,ANVERS,VLAANDEREN
2288,Bouwel,Oui,GROBBENDONK,ANVERS,VLAANDEREN
2290,Vorselaar,Non,VORSELAAR,ANVERS,VLAANDEREN
2300,Turnhout,Non,TURNHOUT,ANVERS,VLAANDEREN
2310,Rijkevorsel,Non,RIJKEVORSEL,ANVERS,VLAANDEREN
2320,Hoogstraten,Non,HOOGSTRATEN,ANVERS,VLAANDEREN
2321,Meer,Oui,HOOGSTRATEN,ANVERS,VLAANDEREN
2322,Minderhout,Oui,HOOGSTRATEN,ANVERS,VLAANDEREN
2323,Wortel,Oui,HOOGSTRATEN,ANVERS,VLAANDEREN
2328,Meerle,Oui,HOOGSTRATEN,ANVERS,VLAANDEREN
2330,Merksplas,Non,MERKSPLAS,ANVERS,VLAANDEREN
2340,Beerse,Non,BEERSE,ANVERS,VLAANDEREN
2340,Vlimmeren,Oui,BEERSE,ANVERS,VLAANDEREN
2350,Vosselaar,Non,VOSSELAAR,ANVERS,VLAANDEREN
2360,Oud-Turnhout,Non,OUD-TURNHOUT,ANVERS,VLAANDEREN
2370,Arendonk,Non,ARENDONK,ANVERS,VLAANDEREN
2380,Ravels,Non,RAVELS,ANVERS,VLAANDEREN
2381,Weelde,Oui,RAVELS,ANVERS,VLAANDEREN
2382,Poppel,Oui,RAVELS,ANVERS,VLAANDEREN
2387,Baarle-Hertog,Non,BAARLE-HERTOG,ANVERS,VLAANDEREN
2390,Malle,Non,MALLE,ANVERS,VLAANDEREN
2390,Oostmalle,Oui,MALLE,ANVERS,VLAANDEREN
2390,Westmalle,Oui,MALLE,ANVERS,VLAANDEREN
2400,Mol,Non,MOL,ANVERS,VLAANDEREN
2430,Eindhout,Oui,LAAKDAL,ANVERS,VLAANDEREN
2430,Vorst,Oui,LAAKDAL,ANVERS,VLAANDEREN
2431,Varendonk,Oui,LAAKDAL,ANVERS,VLAANDEREN
2431,Veerle,Oui,LAAKDAL,ANVERS,VLAANDEREN
2440,Geel,Non,GEEL,ANVERS,VLAANDEREN
2450,Meerhout,Non,MEERHOUT,ANVERS,VLAANDEREN
2460,Kasterlee,Non,KASTERLEE,ANVERS,VLAANDEREN
2460,Lichtaart,Oui,KASTERLEE,ANVERS,VLAANDEREN
2460,Tielen,Oui,KASTERLEE,ANVERS,VLAANDEREN
2470,Retie,Non,RETIE,ANVERS,VLAANDEREN
2480,Dessel,Non,DESSEL,ANVERS,VLAANDEREN
2490,Balen,Non,BALEN,ANVERS,VLAANDEREN
2491,Olmen,Oui,BALEN,ANVERS,VLAANDEREN
2500,Koningshooikt,Oui,LIER,ANVERS,VLAANDEREN
2500,Lier,Non,LIER,ANVERS,VLAANDEREN
2520,Broechem,Oui,RANST,ANVERS,VLAANDEREN
2520,Emblem,Oui,RANST,ANVERS,VLAANDEREN
2520,Oelegem,Oui,RANST,ANVERS,VLAANDEREN
2520,Ranst,Non,RANST,ANVERS,VLAANDEREN
2530,Boechout,Non,BOECHOUT,ANVERS,VLAANDEREN
2531,Vremde,Oui,BOECHOUT,ANVERS,VLAANDEREN
2540,Hove,Non,HOVE,ANVERS,VLAANDEREN
2547,Lint,Non,LINT,ANVERS,VLAANDEREN
2550,Kontich,Non,KONTICH,ANVERS,VLAANDEREN
2550,Waarloos,Oui,KONTICH,ANVERS,VLAANDEREN
2560,Bevel,Oui,NIJLEN,ANVERS,VLAANDEREN
2560,Kessel,Oui,NIJLEN,ANVERS,VLAANDEREN
2560,Nijlen,Non,NIJLEN,ANVERS,VLAANDEREN
2570,Duffel,Non,DUFFEL,ANVERS,VLAANDEREN
2580,Beerzel,Oui,PUTTE,ANVERS,VLAANDEREN
2580,Putte,Non,PUTTE,ANVERS,VLAANDEREN
2590,Berlaar,Non,BERLAAR,ANVERS,VLAANDEREN
2590,Gestel,Oui,BERLAAR,ANVERS,VLAANDEREN
2600,Berchem,Oui,ANTWERPEN,ANVERS,VLAANDEREN
2610,Wilrijk,Oui,ANTWERPEN,ANVERS,VLAANDEREN
2620,Hemiksem,Non,HEMIKSEM,ANVERS,VLAANDEREN
2627,Schelle,Non,SCHELLE,ANVERS,VLAANDEREN
2630,Aartselaar,Non,AARTSELAAR,ANVERS,VLAANDEREN
2640,Mortsel,Non,MORTSEL,ANVERS,VLAANDEREN
2650,Edegem,Non,EDEGEM,ANVERS,VLAANDEREN
2660,Hoboken,Oui,ANTWERPEN,ANVERS,VLAANDEREN
2800,Mechelen,Non,MECHELEN,ANVERS,VLAANDEREN
2800,Walem,Oui,MECHELEN,ANVERS,VLAANDEREN
2801,Heffen,Oui,MECHELEN,ANVERS,VLAANDEREN
2811,Hombeek,Oui,MECHELEN,ANVERS,VLAANDEREN
2811,Leest,Oui,MECHELEN,ANVERS,VLAANDEREN
2812,Muizen,Oui,MECHELEN,ANVERS,VLAANDEREN
2820,Bonheiden,Non,BONHEIDEN,ANVERS,VLAANDEREN
2820,Rijmenam,Oui,BONHEIDEN,ANVERS,VLAANDEREN
2830,Blaasveld,Oui,WILLEBROEK,ANVERS,VLAANDEREN
2830,Heindonk,Oui,WILLEBROEK,ANVERS,VLAANDEREN
2830,Tisselt,Oui,WILLEBROEK,ANVERS,VLAANDEREN
2830,Willebroek,Non,WILLEBROEK,ANVERS,VLAANDEREN
2840,Reet,Oui,RUMST,ANVERS,VLAANDEREN
2840,Rumst,Non,RUMST,ANVERS,VLAANDEREN
2840,Terhagen,Oui,RUMST,ANVERS,VLAANDEREN
2845,Niel,Non,NIEL,ANVERS,VLAANDEREN
2850,Boom,Non,BOOM,ANVERS,VLAANDEREN
2860,Sint-Katelijne-Waver,Non,SINT-KATELIJNE-WAVER,ANVERS,VLAANDEREN
2861,Onze-Lieve-Vrouw-Waver,Oui,SINT-KATELIJNE-WAVER,ANVERS,VLAANDEREN
2870,Breendonk,Oui,PUURS-SINT-AMANDS,ANVERS,VLAANDEREN
2870,Liezele,Oui,PUURS-SINT-AMANDS,ANVERS,VLAANDEREN
2870,Puurs,Oui,PUURS-SINT-AMANDS,ANVERS,VLAANDEREN
2870,Ruisbroek,Oui,PUURS-SINT-AMANDS,ANVERS,VLAANDEREN
2880,Bornem,Non,BORNEM,ANVERS,VLAANDEREN
2880,Hingene,Oui,BORNEM,ANVERS,VLAANDEREN
2880,Mariekerke,Oui,BORNEM,ANVERS,VLAANDEREN
2880,Weert,Oui,BORNEM,ANVERS,VLAANDEREN
2890,Lippelo,Oui,PUURS-SINT-AMANDS,ANVERS,VLAANDEREN
2890,Oppuurs,Oui,PUURS-SINT-AMANDS,ANVERS,VLAANDEREN
2890,Sint-Amands,Oui,PUURS-SINT-AMANDS,ANVERS,VLAANDEREN
2900,Schoten,Non,SCHOTEN,ANVERS,VLAANDEREN
2910,Essen,Non,ESSEN,ANVERS,VLAANDEREN
2920,Kalmthout,Non,KALMTHOUT,ANVERS,VLAANDEREN
2930,Brasschaat,Non,BRASSCHAAT,ANVERS,VLAANDEREN
2940,Hoevenen,Oui,STABROEK,ANVERS,VLAANDEREN
2940,Stabroek,Non,STABROEK,ANVERS,VLAANDEREN
2950,Kapellen,Non,KAPELLEN,ANVERS,VLAANDEREN
2960,Brecht,Non,BRECHT,ANVERS,VLAANDEREN
2960,Sint-Job-In-'T-Goor,Oui,BRECHT,ANVERS,VLAANDEREN
2960,Sint-Lenaarts,Oui,BRECHT,ANVERS,VLAANDEREN
2970,'S Gravenwezel,Oui,SCHILDE,ANVERS,VLAANDEREN
2970,Schilde,Non,SCHILDE,ANVERS,VLAANDEREN
2980,Halle,Oui,ZOERSEL,ANVERS,VLAANDEREN
2980,Zoersel,Non,ZOERSEL,ANVERS,VLAANDEREN
2990,Loenhout,Oui,WUUSTWEZEL,ANVERS,VLAANDEREN
2990,Wuustwezel,Non,WUUSTWEZEL,ANVERS,VLAANDEREN
3000,Leuven,Non,LEUVEN,BRABANT FLAMAND,VLAANDEREN
3001,Heverlee,Oui,LEUVEN,BRABANT FLAMAND,VLAANDEREN
3010,Kessel Lo,Oui,LEUVEN,BRABANT FLAMAND,VLAANDEREN
3012,Wilsele,Oui,LEUVEN,BRABANT FLAMAND,VLAANDEREN
3018,Wijgmaal,Oui,LEUVEN,BRABANT FLAMAND,VLAANDEREN
3020,Herent,Non,HERENT,BRABANT FLAMAND,VLAANDEREN
3020,Veltem-Beisem,Oui,HERENT,BRABANT FLAMAND,VLAANDEREN
3020,Winksele,Oui,HERENT,BRABANT FLAMAND,VLAANDEREN
3040,Huldenberg,Non,HULDENBERG,BRABANT FLAMAND,VLAANDEREN
3040,Loonbeek,Oui,HULDENBERG,BRABANT FLAMAND,VLAANDEREN
3040,Neerijse,Oui,HULDENBERG,BRABANT FLAMAND,VLAANDEREN
3040,Ottenburg,Oui,HULDENBERG,BRABANT FLAMAND,VLAANDEREN
3040,Sint-Agatha-Rode,Oui,HULDENBERG,BRABANT FLAMAND,VLAANDEREN
3050,Oud-Heverlee,Non,OUD-HEVERLEE,BRABANT FLAMAND,VLAANDEREN
3051,Sint-Joris-Weert,Oui,OUD-HEVERLEE,BRABANT FLAMAND,VLAANDEREN
3052,Blanden,Oui,OUD-HEVERLEE,BRABANT FLAMAND,VLAANDEREN
3053,Haasrode,Oui,OUD-HEVERLEE,BRABANT FLAMAND,VLAANDEREN
3054,Vaalbeek,Oui,OUD-HEVERLEE,BRABANT FLAMAND,VLAANDEREN
3060,Bertem,Non,BERTEM,BRABANT FLAMAND,VLAANDEREN
3060,Korbeek-Dijle,Oui,BERTEM,BRABANT FLAMAND,VLAANDEREN
3061,Leefdaal,Oui,BERTEM,BRABANT FLAMAND,VLAANDEREN
3070,Kortenberg,Non,KORTENBERG,BRABANT FLAMAND,VLAANDEREN
3071,Erps-Kwerps,Oui,KORTENBERG,BRABANT FLAMAND,VLAANDEREN
3078,Everberg,Oui,KORTENBERG,BRABANT FLAMAND,VLAANDEREN
3078,Meerbeek,Oui,KORTENBERG,BRABANT FLAMAND,VLAANDEREN
3080,Duisburg,Oui,TERVUREN,BRABANT FLAMAND,VLAANDEREN
3080,Tervuren,Non,TERVUREN,BRABANT FLAMAND,VLAANDEREN
3080,Vossem,Oui,TERVUREN,BRABANT FLAMAND,VLAANDEREN
3090,Overijse,Non,OVERIJSE,BRABANT FLAMAND,VLAANDEREN
3110,Rotselaar,Non,ROTSELAAR,BRABANT FLAMAND,VLAANDEREN
3111,Wezemaal,Oui,ROTSELAAR,BRABANT FLAMAND,VLAANDEREN
3118,Werchter,Oui,ROTSELAAR,BRABANT FLAMAND,VLAANDEREN
3120,Tremelo,Non,TREMELO,BRABANT FLAMAND,VLAANDEREN
3128,Baal,Oui,TREMELO,BRABANT FLAMAND,VLAANDEREN
3130,Begijnendijk,Non,BEGIJNENDIJK,BRABANT FLAMAND,VLAANDEREN
3130,Betekom,Oui,BEGIJNENDIJK,BRABANT FLAMAND,VLAANDEREN
3140,Keerbergen,Non,KEERBERGEN,BRABANT FLAMAND,VLAANDEREN
3150,Haacht,Non,HAACHT,BRABANT FLAMAND,VLAANDEREN
3150,Tildonk,Oui,HAACHT,BRABANT FLAMAND,VLAANDEREN
3150,Wespelaar,Oui,HAACHT,BRABANT FLAMAND,VLAANDEREN
3190,Boortmeerbeek,Non,BOORTMEERBEEK,BRABANT FLAMAND,VLAANDEREN
3191,Hever,Oui,BOORTMEERBEEK,BRABANT FLAMAND,VLAANDEREN
3200,Aarschot,Non,AARSCHOT,BRABANT FLAMAND,VLAANDEREN
3200,Gelrode,Oui,AARSCHOT,BRABANT FLAMAND,VLAANDEREN
3201,Langdorp,Oui,AARSCHOT,BRABANT FLAMAND,VLAANDEREN
3202,Rillaar,Oui,AARSCHOT,BRABANT FLAMAND,VLAANDEREN
3210,Linden,Oui,LUBBEEK,BRABANT FLAMAND,VLAANDEREN
3210,Lubbeek,Non,LUBBEEK,BRABANT FLAMAND,VLAANDEREN
3211,Binkom,Oui,LUBBEEK,BRABANT FLAMAND,VLAANDEREN
3212,Pellenberg,Oui,LUBBEEK,BRABANT FLAMAND,VLAANDEREN
3220,Holsbeek,Non,HOLSBEEK,BRABANT FLAMAND,VLAANDEREN
3220,Kortrijk-Dutsel,Oui,HOLSBEEK,BRABANT FLAMAND,VLAANDEREN
3220,Sint-Pieters-Rode,Oui,HOLSBEEK,BRABANT FLAMAND,VLAANDEREN
3221,Nieuwrode,Oui,HOLSBEEK,BRABANT FLAMAND,VLAANDEREN
3270,Scherpenheuvel,Oui,SCHERPENHEUVEL-ZICHEM,BRABANT FLAMAND,VLAANDEREN
3271,Averbode,Oui,SCHERPENHEUVEL-ZICHEM,BRABANT FLAMAND,VLAANDEREN
3271,Zichem,Oui,SCHERPENHEUVEL-ZICHEM,BRABANT FLAMAND,VLAANDEREN
3272,Messelbroek,Oui,SCHERPENHEUVEL-ZICHEM,BRABANT FLAMAND,VLAANDEREN
3272,Testelt,Oui,SCHERPENHEUVEL-ZICHEM,BRABANT FLAMAND,VLAANDEREN
3290,Deurne,Oui,DIEST,BRABANT FLAMAND,VLAANDEREN
3290,Diest,Non,DIEST,BRABANT FLAMAND,VLAANDEREN
3290,Schaffen,Oui,DIEST,BRABANT FLAMAND,VLAANDEREN
3290,Webbekom,Oui,DIEST,BRABANT FLAMAND,VLAANDEREN
3293,Kaggevinne,Oui,DIEST,BRABANT FLAMAND,VLAANDEREN
3294,Molenstede,Oui,DIEST,BRABANT FLAMAND,VLAANDEREN
3300,Bost,Oui,TIENEN,BRABANT FLAMAND,VLAANDEREN
3300,Goetsenhoven,Oui,TIENEN,BRABANT FLAMAND,VLAANDEREN
3300,Hakendover,Oui,TIENEN,BRABANT FLAMAND,VLAANDEREN
3300,Kumtich,Oui,TIENEN,BRABANT FLAMAND,VLAANDEREN
3300,Oorbeek,Oui,TIENEN,BRABANT FLAMAND,VLAANDEREN
3300,Oplinter,Oui,TIENEN,BRABANT FLAMAND,VLAANDEREN
3300,Sint-Margriete-Houtem,Oui,TIENEN,BRABANT FLAMAND,VLAANDEREN
3300,Tienen,Non,TIENEN,BRABANT FLAMAND,VLAANDEREN
3300,Vissenaken,Oui,TIENEN,BRABANT FLAMAND,VLAANDEREN
3320,Hoegaarden,Non,HOEGAARDEN,BRABANT FLAMAND,VLAANDEREN
3320,Meldert,Oui,HOEGAARDEN,BRABANT FLAMAND,VLAANDEREN
3321,Outgaarden,Oui,HOEGAARDEN,BRABANT FLAMAND,VLAANDEREN
3350,Drieslinter,Oui,LINTER,BRABANT FLAMAND,VLAANDEREN
3350,Linter,Non,LINTER,BRABANT FLAMAND,VLAANDEREN
3350,Melkwezer,Oui,LINTER,BRABANT FLAMAND,VLAANDEREN
3350,Neerhespen,Oui,LINTER,BRABANT FLAMAND,VLAANDEREN
3350,Neerlinter,Oui,LINTER,BRABANT FLAMAND,VLAANDEREN
3350,Orsmaal-Gussenhoven,Oui,LINTER,BRABANT FLAMAND,VLAANDEREN
3350,Overhespen,Oui,LINTER,BRABANT FLAMAND,VLAANDEREN
3350,Wommersom,Oui,LINTER,BRABANT FLAMAND,VLAANDEREN
3360,Bierbeek,Non,BIERBEEK,BRABANT FLAMAND,VLAANDEREN
3360,Korbeek-Lo,Oui,BIERBEEK,BRABANT FLAMAND,VLAANDEREN
3360,Lovenjoel,Oui,BIERBEEK,BRABANT FLAMAND,VLAANDEREN
3360,Opvelp,Oui,BIERBEEK,BRABANT FLAMAND,VLAANDEREN
3370,Boutersem,Non,BOUTERSEM,BRABANT FLAMAND,VLAANDEREN
3370,Kerkom,Oui,BOUTERSEM,BRABANT FLAMAND,VLAANDEREN
3370,Neervelp,Oui,BOUTERSEM,BRABANT FLAMAND,VLAANDEREN
3370,Roosbeek,Oui,BOUTERSEM,BRABANT FLAMAND,VLAANDEREN
3370,Vertrijk,Oui,BOUTERSEM,BRABANT FLAMAND,VLAANDEREN
3370,Willebringen,Oui,BOUTERSEM,BRABANT FLAMAND,VLAANDEREN
3380,Bunsbeek,Oui,GLABBEEK,BRABANT FLAMAND,VLAANDEREN
3380,Glabbeek,Non,GLABBEEK,BRABANT FLAMAND,VLAANDEREN
3381,Kapellen,Oui,GLABBEEK,BRABANT FLAMAND,VLAANDEREN
3384,Attenrode,Oui,GLABBEEK,BRABANT FLAMAND,VLAANDEREN
3390,Houwaart,Oui,TIELT-WINGE,BRABANT FLAMAND,VLAANDEREN
3390,Sint-Joris-Winge,Oui,TIELT-WINGE,BRABANT FLAMAND,VLAANDEREN
3390,Tielt,Oui,TIELT-WINGE,BRABANT FLAMAND,VLAANDEREN
3391,Meensel-Kiezegem,Oui,TIELT-WINGE,BRABANT FLAMAND,VLAANDEREN
3400,Eliksem,Oui,LANDEN,BRABANT FLAMAND,VLAANDEREN
3400,Ezemaal,Oui,LANDEN,BRABANT FLAMAND,VLAANDEREN
3400,Laar,Oui,LANDEN,BRABANT FLAMAND,VLAANDEREN
3400,Landen,Non,LANDEN,BRABANT FLAMAND,VLAANDEREN
3400,Neerwinden,Oui,LANDEN,BRABANT FLAMAND,VLAANDEREN
3400,Overwinden,Oui,LANDEN,BRABANT FLAMAND,VLAANDEREN
3400,Rumsdorp,Oui,LANDEN,BRABANT FLAMAND,VLAANDEREN
3400,Wange,Oui,LANDEN,BRABANT FLAMAND,VLAANDEREN
3401,Waasmont,Oui,LANDEN,BRABANT FLAMAND,VLAANDEREN
3401,Walsbets,Oui,LANDEN,BRABANT FLAMAND,VLAANDEREN
3401,Walshoutem,Oui,LANDEN,BRABANT FLAMAND,VLAANDEREN
3401,Wezeren,Oui,LANDEN,BRABANT FLAMAND,VLAANDEREN
3404,Attenhoven,Oui,LANDEN,BRABANT FLAMAND,VLAANDEREN
3404,Neerlanden,Oui,LANDEN,BRABANT FLAMAND,VLAANDEREN
3440,Budingen,Oui,ZOUTLEEUW,BRABANT FLAMAND,VLAANDEREN
3440,Dormaal,Oui,ZOUTLEEUW,BRABANT FLAMAND,VLAANDEREN
3440,Halle-Booienhoven,Oui,ZOUTLEEUW,BRABANT FLAMAND,VLAANDEREN
3440,Helen-Bos,Oui,ZOUTLEEUW,BRABANT FLAMAND,VLAANDEREN
3440,Zoutleeuw,Non,ZOUTLEEUW,BRABANT FLAMAND,VLAANDEREN
3450,Geetbets,Non,GEETBETS,BRABANT FLAMAND,VLAANDEREN
3450,Grazen,Oui,GEETBETS,BRABANT FLAMAND,VLAANDEREN
3454,Rummen,Oui,GEETBETS,BRABANT FLAMAND,VLAANDEREN
3460,Assent,Oui,BEKKEVOORT,BRABANT FLAMAND,VLAANDEREN
3460,Bekkevoort,Non,BEKKEVOORT,BRABANT FLAMAND,VLAANDEREN
3461,Molenbeek-Wersbeek,Oui,BEKKEVOORT,BRABANT FLAMAND,VLAANDEREN
3470,Kortenaken,Non,KORTENAKEN,BRABANT FLAMAND,VLAANDEREN
3470,Ransberg,Oui,KORTENAKEN,BRABANT FLAMAND,VLAANDEREN
3470,Sint-Margriete-Houtem,Oui,KORTENAKEN,BRABANT FLAMAND,VLAANDEREN
3471,Hoeleden,Oui,KORTENAKEN,BRABANT FLAMAND,VLAANDEREN
3472,Kersbeek-Miskom,Oui,KORTENAKEN,BRABANT FLAMAND,VLAANDEREN
3473,Waanrode,Oui,KORTENAKEN,BRABANT FLAMAND,VLAANDEREN
3500,Hasselt,Non,HASSELT,LIMBOURG,VLAANDEREN
3500,Sint-Lambrechts-Herk,Oui,HASSELT,LIMBOURG,VLAANDEREN
3501,Wimmertingen,Oui,HASSELT,LIMBOURG,VLAANDEREN
3510,Kermt,Oui,HASSELT,LIMBOURG,VLAANDEREN
3510,Spalbeek,Oui,HASSELT,LIMBOURG,VLAANDEREN
3511,Kuringen,Oui,HASSELT,LIMBOURG,VLAANDEREN
3511,Stokrooie,Oui,HASSELT,LIMBOURG,VLAANDEREN
3512,Stevoort,Oui,HASSELT,LIMBOURG,VLAANDEREN
3520,Zonhoven,Non,ZONHOVEN,LIMBOURG,VLAANDEREN
3530,Helchteren,Oui,HOUTHALEN-HELCHTEREN,LIMBOURG,VLAANDEREN
3530,Houthalen,Oui,HOUTHALEN-HELCHTEREN,LIMBOURG,VLAANDEREN
3540,Berbroek,Oui,HERK-DE-STAD,LIMBOURG,VLAANDEREN
3540,Donk,Oui,HERK-DE-STAD,LIMBOURG,VLAANDEREN
3540,Herk-De-Stad,Non,HERK-DE-STAD,LIMBOURG,VLAANDEREN
3540,Schulen,Oui,HERK-DE-STAD,LIMBOURG,VLAANDEREN
3545,Halen,Non,HALEN,LIMBOURG,VLAANDEREN
3545,Loksbergen,Oui,HALEN,LIMBOURG,VLAANDEREN
3545,Zelem,Oui,HALEN,LIMBOURG,VLAANDEREN
3550,Heusden,Oui,HEUSDEN-ZOLDER,LIMBOURG,VLAANDEREN
3550,Heusden-Zolder,Non,HEUSDEN-ZOLDER,LIMBOURG,VLAANDEREN
3550,Zolder,Oui,HEUSDEN-ZOLDER,LIMBOURG,VLAANDEREN
3560,Linkhout,Oui,LUMMEN,LIMBOURG,VLAANDEREN
3560,Lummen,Non,LUMMEN,LIMBOURG,VLAANDEREN
3560,Meldert,Oui,LUMMEN,LIMBOURG,VLAANDEREN
3570,Alken,Non,ALKEN,LIMBOURG,VLAANDEREN
3580,Beringen,Non,BERINGEN,LIMBOURG,VLAANDEREN
3581,Beverlo,Oui,BERINGEN,LIMBOURG,VLAANDEREN
3582,Koersel,Oui,BERINGEN,LIMBOURG,VLAANDEREN
3583,Paal,Oui,BERINGEN,LIMBOURG,VLAANDEREN
3590,Diepenbeek,Non,DIEPENBEEK,LIMBOURG,VLAANDEREN
3600,Genk,Non,GENK,LIMBOURG,VLAANDEREN
3620,Gellik,Oui,LANAKEN,LIMBOURG,VLAANDEREN
3620,Lanaken,Non,LANAKEN,LIMBOURG,VLAANDEREN
3620,Neerharen,Oui,LANAKEN,LIMBOURG,VLAANDEREN
3620,Veldwezelt,Oui,LANAKEN,LIMBOURG,VLAANDEREN
3621,Rekem,Oui,LANAKEN,LIMBOURG,VLAANDEREN
3630,Eisden,Oui,MAASMECHELEN,LIMBOURG,VLAANDEREN
3630,Leut,Oui,MAASMECHELEN,LIMBOURG,VLAANDEREN
3630,Maasmechelen,Non,MAASMECHELEN,LIMBOURG,VLAANDEREN
3630,Mechelen-Aan-De-Maas,Oui,MAASMECHELEN,LIMBOURG,VLAANDEREN
3630,Meeswijk,Oui,MAASMECHELEN,LIMBOURG,VLAANDEREN
3630,Opgrimbie,Oui,MAASMECHELEN,LIMBOURG,VLAANDEREN
3630,Vucht,Oui,MAASMECHELEN,LIMBOURG,VLAANDEREN
3631,Boorsem,Oui,MAASMECHELEN,LIMBOURG,VLAANDEREN
3631,Uikhoven,Oui,MAASMECHELEN,LIMBOURG,VLAANDEREN
3640,Kessenich,Oui,KINROOI,LIMBOURG,VLAANDEREN
3640,Kinrooi,Non,KINROOI,LIMBOURG,VLAANDEREN
3640,Molenbeersel,Oui,KINROOI,LIMBOURG,VLAANDEREN
3640,Ophoven,Oui,KINROOI,LIMBOURG,VLAANDEREN
3650,Dilsen,Oui,DILSEN-STOKKEM,LIMBOURG,VLAANDEREN
3650,Dilsen-Stokkem,Non,DILSEN-STOKKEM,LIMBOURG,VLAANDEREN
3650,Elen,Oui,DILSEN-STOKKEM,LIMBOURG,VLAANDEREN
3650,Lanklaar,Oui,DILSEN-STOKKEM,LIMBOURG,VLAANDEREN
3650,Rotem,Oui,DILSEN-STOKKEM,LIMBOURG,VLAANDEREN
3650,Stokkem,Oui,DILSEN-STOKKEM,LIMBOURG,VLAANDEREN
3660,Opglabbeek,Oui,OUDSBERGEN,LIMBOURG,VLAANDEREN
3665,As,Non,AS,LIMBOURG,VLAANDEREN
3668,Niel-Bij-As,Oui,AS,LIMBOURG,VLAANDEREN
3670,Ellikom,Oui,OUDSBERGEN,LIMBOURG,VLAANDEREN
3670,Gruitrode,Oui,OUDSBERGEN,LIMBOURG,VLAANDEREN
3670,Meeuwen,Oui,OUDSBERGEN,LIMBOURG,VLAANDEREN
3670,Neerglabbeek,Oui,OUDSBERGEN,LIMBOURG,VLAANDEREN
3670,Wijshagen,Oui,OUDSBERGEN,LIMBOURG,VLAANDEREN
3680,Maaseik,Non,MAASEIK,LIMBOURG,VLAANDEREN
3680,Neeroeteren,Oui,MAASEIK,LIMBOURG,VLAANDEREN
3680,Opoeteren,Oui,MAASEIK,LIMBOURG,VLAANDEREN
3690,Zutendaal,Non,ZUTENDAAL,LIMBOURG,VLAANDEREN
3700,'S Herenelderen,Oui,TONGEREN,LIMBOURG,VLAANDEREN
3700,Berg,Oui,TONGEREN,LIMBOURG,VLAANDEREN
3700,Diets-Heur,Oui,TONGEREN,LIMBOURG,VLAANDEREN
3700,Haren,Oui,TONGEREN,LIMBOURG,VLAANDEREN
3700,Henis,Oui,TONGEREN,LIMBOURG,VLAANDEREN
3700,Kolmont,Oui,TONGEREN,LIMBOURG,VLAANDEREN
3700,Koninksem,Oui,TONGEREN,LIMBOURG,VLAANDEREN
3700,Lauw,Oui,TONGEREN,LIMBOURG,VLAANDEREN
3700,Mal,Oui,TONGEREN,LIMBOURG,VLAANDEREN
3700,Neerrepen,Oui,TONGEREN,LIMBOURG,VLAANDEREN
3700,Nerem,Oui,TONGEREN,LIMBOURG,VLAANDEREN
3700,Overrepen,Oui,TONGEREN,LIMBOURG,VLAANDEREN
3700,Piringen,Oui,TONGEREN,LIMBOURG,VLAANDEREN
3700,Riksingen,Oui,TONGEREN,LIMBOURG,VLAANDEREN
3700,Rutten,Oui,TONGEREN,LIMBOURG,VLAANDEREN
3700,Sluizen,Oui,TONGEREN,LIMBOURG,VLAANDEREN
3700,Tongeren,Non,TONGEREN,LIMBOURG,VLAANDEREN
3700,Vreren,Oui,TONGEREN,LIMBOURG,VLAANDEREN
3700,Widooie,Oui,TONGEREN,LIMBOURG,VLAANDEREN
3717,Herstappe,Non,HERSTAPPE,LIMBOURG,VLAANDEREN
3720,Kortessem,Non,KORTESSEM,LIMBOURG,VLAANDEREN
3721,Vliermaalroot,Oui,KORTESSEM,LIMBOURG,VLAANDEREN
3722,Wintershoven,Oui,KORTESSEM,LIMBOURG,VLAANDEREN
3723,Guigoven,Oui,KORTESSEM,LIMBOURG,VLAANDEREN
3724,Vliermaal,Oui,KORTESSEM,LIMBOURG,VLAANDEREN
3730,Hoeselt,Non,HOESELT,LIMBOURG,VLAANDEREN
3730,Romershoven,Oui,HOESELT,LIMBOURG,VLAANDEREN
3730,Sint-Huibrechts-Hern,Oui,HOESELT,LIMBOURG,VLAANDEREN
3730,Werm,Oui,HOESELT,LIMBOURG,VLAANDEREN
3732,Schalkhoven,Oui,HOESELT,LIMBOURG,VLAANDEREN
3740,Beverst,Oui,BILZEN,LIMBOURG,VLAANDEREN
3740,Bilzen,Non,BILZEN,LIMBOURG,VLAANDEREN
3740,Eigenbilzen,Oui,BILZEN,LIMBOURG,VLAANDEREN
3740,Grote-Spouwen,Oui,BILZEN,LIMBOURG,VLAANDEREN
3740,Hees,Oui,BILZEN,LIMBOURG,VLAANDEREN
3740,Kleine-Spouwen,Oui,BILZEN,LIMBOURG,VLAANDEREN
3740,Mopertingen,Oui,BILZEN,LIMBOURG,VLAANDEREN
3740,Munsterbilzen,Oui,BILZEN,LIMBOURG,VLAANDEREN
3740,Rijkhoven,Oui,BILZEN,LIMBOURG,VLAANDEREN
3740,Rosmeer,Oui,BILZEN,LIMBOURG,VLAANDEREN
3740,Waltwilder,Oui,BILZEN,LIMBOURG,VLAANDEREN
3742,Martenslinde,Oui,BILZEN,LIMBOURG,VLAANDEREN
3746,Hoelbeek,Oui,BILZEN,LIMBOURG,VLAANDEREN
3770,Genoelselderen,Oui,RIEMST,LIMBOURG,VLAANDEREN
3770,Herderen,Oui,RIEMST,LIMBOURG,VLAANDEREN
3770,Kanne,Oui,RIEMST,LIMBOURG,VLAANDEREN
3770,Membruggen,Oui,RIEMST,LIMBOURG,VLAANDEREN
3770,Millen,Oui,RIEMST,LIMBOURG,VLAANDEREN
3770,Riemst,Non,RIEMST,LIMBOURG,VLAANDEREN
3770,Val-Meer,Oui,RIEMST,LIMBOURG,VLAANDEREN
3770,Vlijtingen,Oui,RIEMST,LIMBOURG,VLAANDEREN
3770,Vroenhoven,Oui,RIEMST,LIMBOURG,VLAANDEREN
3770,Zichen-Zussen-Bolder,Oui,RIEMST,LIMBOURG,VLAANDEREN
3790,Fouron-Saint-Martin,Oui,FOURONS,LIMBOURG,VLAANDEREN
3790,Mouland,Oui,FOURONS,LIMBOURG,VLAANDEREN
3791,Remersdaal,Oui,FOURONS,LIMBOURG,VLAANDEREN
3792,Fouron-Saint-Pierre,Oui,FOURONS,LIMBOURG,VLAANDEREN
3793,Teuven,Oui,FOURONS,LIMBOURG,VLAANDEREN
3798,Fouron-Le-Comte,Oui,FOURONS,LIMBOURG,VLAANDEREN
3800,Aalst,Oui,SINT-TRUIDEN,LIMBOURG,VLAANDEREN
3800,Brustem,Oui,SINT-TRUIDEN,LIMBOURG,VLAANDEREN
3800,Engelmanshoven,Oui,SINT-TRUIDEN,LIMBOURG,VLAANDEREN
3800,Gelinden,Oui,SINT-TRUIDEN,LIMBOURG,VLAANDEREN
3800,Groot-Gelmen,Oui,SINT-TRUIDEN,LIMBOURG,VLAANDEREN
3800,Halmaal,Oui,SINT-TRUIDEN,LIMBOURG,VLAANDEREN
3800,Kerkom-Bij-Sint-Truiden,Oui,SINT-TRUIDEN,LIMBOURG,VLAANDEREN
3800,Ordingen,Oui,SINT-TRUIDEN,LIMBOURG,VLAANDEREN
3800,Sint-Truiden,Non,SINT-TRUIDEN,LIMBOURG,VLAANDEREN
3800,Zepperen,Oui,SINT-TRUIDEN,LIMBOURG,VLAANDEREN
3803,Duras,Oui,SINT-TRUIDEN,LIMBOURG,VLAANDEREN
3803,Gorsem,Oui,SINT-TRUIDEN,LIMBOURG,VLAANDEREN
3803,Runkelen,Oui,SINT-TRUIDEN,LIMBOURG,VLAANDEREN
3803,Wilderen,Oui,SINT-TRUIDEN,LIMBOURG,VLAANDEREN
3806,Velm,Oui,SINT-TRUIDEN,LIMBOURG,VLAANDEREN
3830,Berlingen,Oui,WELLEN,LIMBOURG,VLAANDEREN
3830,Wellen,Non,WELLEN,LIMBOURG,VLAANDEREN
3831,Herten,Oui,WELLEN,LIMBOURG,VLAANDEREN
3832,Ulbeek,Oui,WELLEN,LIMBOURG,VLAANDEREN
3840,Bommershoven,Oui,BORGLOON,LIMBOURG,VLAANDEREN
3840,Borgloon,Non,BORGLOON,LIMBOURG,VLAANDEREN
3840,Broekom,Oui,BORGLOON,LIMBOURG,VLAANDEREN
3840,Gors-Opleeuw,Oui,BORGLOON,LIMBOURG,VLAANDEREN
3840,Gotem,Oui,BORGLOON,LIMBOURG,VLAANDEREN
3840,Groot-Loon,Oui,BORGLOON,LIMBOURG,VLAANDEREN
3840,Haren,Oui,BORGLOON,LIMBOURG,VLAANDEREN
3840,Hendrieken,Oui,BORGLOON,LIMBOURG,VLAANDEREN
3840,Hoepertingen,Oui,BORGLOON,LIMBOURG,VLAANDEREN
3840,Jesseren,Oui,BORGLOON,LIMBOURG,VLAANDEREN
3840,Kerniel,Oui,BORGLOON,LIMBOURG,VLAANDEREN
3840,Kolmont,Oui,BORGLOON,LIMBOURG,VLAANDEREN
3840,Kuttekoven,Oui,BORGLOON,LIMBOURG,VLAANDEREN
3840,Rijkel,Oui,BORGLOON,LIMBOURG,VLAANDEREN
3840,Voort,Oui,BORGLOON,LIMBOURG,VLAANDEREN
3850,Binderveld,Oui,NIEUWERKERKEN,LIMBOURG,VLAANDEREN
3850,Kozen,Oui,NIEUWERKERKEN,LIMBOURG,VLAANDEREN
3850,Nieuwerkerken,Non,NIEUWERKERKEN,LIMBOURG,VLAANDEREN
3850,Wijer,Oui,NIEUWERKERKEN,LIMBOURG,VLAANDEREN
3870,Batsheers,Oui,HEERS,LIMBOURG,VLAANDEREN
3870,Bovelingen,Oui,HEERS,LIMBOURG,VLAANDEREN
3870,Gutshoven,Oui,HEERS,LIMBOURG,VLAANDEREN
3870,Heers,Non,HEERS,LIMBOURG,VLAANDEREN
3870,Heks,Oui,HEERS,LIMBOURG,VLAANDEREN
3870,Horpmaal,Oui,HEERS,LIMBOURG,VLAANDEREN
3870,Klein-Gelmen,Oui,HEERS,LIMBOURG,VLAANDEREN
3870,Mechelen-Bovelingen,Oui,HEERS,LIMBOURG,VLAANDEREN
3870,Mettekoven,Oui,HEERS,LIMBOURG,VLAANDEREN
3870,Opheers,Oui,HEERS,LIMBOURG,VLAANDEREN
3870,Rukkelingen-Loon,Oui,HEERS,LIMBOURG,VLAANDEREN
3870,Vechmaal,Oui,HEERS,LIMBOURG,VLAANDEREN
3870,Veulen,Oui,HEERS,LIMBOURG,VLAANDEREN
3890,Boekhout,Oui,GINGELOM,LIMBOURG,VLAANDEREN
3890,Gingelom,Non,GINGELOM,LIMBOURG,VLAANDEREN
3890,Jeuk,Oui,GINGELOM,LIMBOURG,VLAANDEREN
3890,Kortijs,Oui,GINGELOM,LIMBOURG,VLAANDEREN
3890,Montenaken,Oui,GINGELOM,LIMBOURG,VLAANDEREN
3890,Niel-Bij-Sint-Truiden,Oui,GINGELOM,LIMBOURG,VLAANDEREN
3890,Vorsen,Oui,GINGELOM,LIMBOURG,VLAANDEREN
3891,Borlo,Oui,GINGELOM,LIMBOURG,VLAANDEREN
3891,Buvingen,Oui,GINGELOM,LIMBOURG,VLAANDEREN
3891,Mielen-Boven-Aalst,Oui,GINGELOM,LIMBOURG,VLAANDEREN
3891,Muizen,Oui,GINGELOM,LIMBOURG,VLAANDEREN
3900,Overpelt,Oui,PELT,LIMBOURG,VLAANDEREN
3910,Neerpelt,Oui,PELT,LIMBOURG,VLAANDEREN
3910,Sint-Huibrechts-Lille,Oui,PELT,LIMBOURG,VLAANDEREN
3920,Lommel,Non,LOMMEL,LIMBOURG,VLAANDEREN
3930,Achel,Oui,HAMONT-ACHEL,LIMBOURG,VLAANDEREN
3930,Hamont,Oui,HAMONT-ACHEL,LIMBOURG,VLAANDEREN
3940,Hechtel,Oui,HECHTEL-EKSEL,LIMBOURG,VLAANDEREN
3941,Eksel,Oui,HECHTEL-EKSEL,LIMBOURG,VLAANDEREN
3945,Kwaadmechelen,Oui,HAM,LIMBOURG,VLAANDEREN
3945,Oostham,Oui,HAM,LIMBOURG,VLAANDEREN
3950,Bocholt,Non,BOCHOLT,LIMBOURG,VLAANDEREN
3950,Kaulille,Oui,BOCHOLT,LIMBOURG,VLAANDEREN
3950,Reppel,Oui,BOCHOLT,LIMBOURG,VLAANDEREN
3960,Beek,Oui,BREE,LIMBOURG,VLAANDEREN
3960,Bree,Non,BREE,LIMBOURG,VLAANDEREN
3960,Gerdingen,Oui,BREE,LIMBOURG,VLAANDEREN
3960,Opitter,Oui,BREE,LIMBOURG,VLAANDEREN
3960,Tongerlo,Oui,BREE,LIMBOURG,VLAANDEREN
3970,Leopoldsburg,Non,LEOPOLDSBURG,LIMBOURG,VLAANDEREN
3971,Heppen,Oui,LEOPOLDSBURG,LIMBOURG,VLAANDEREN
3980,Tessenderlo,Non,TESSENDERLO,LIMBOURG,VLAANDEREN
3990,Grote-Brogel,Oui,PEER,LIMBOURG,VLAANDEREN
3990,Kleine-Brogel,Oui,PEER,LIMBOURG,VLAANDEREN
3990,Peer,Non,PEER,LIMBOURG,VLAANDEREN
3990,Wijchmaal,Oui,PEER,LIMBOURG,VLAANDEREN
4000,Glain,Oui,LIÈGE,LIEGE,WALLONIE
4000,Liège,Non,LIÈGE,LIEGE,WALLONIE
4000,Rocourt,Oui,LIÈGE,LIEGE,WALLONIE
4020,Bressoux,Oui,LIÈGE,LIEGE,WALLONIE
4020,Jupille-Sur-Meuse,Oui,LIÈGE,LIEGE,WALLONIE
4020,Liège,Non,LIÈGE,LIEGE,WALLONIE
4020,Wandre,Oui,LIÈGE,LIEGE,WALLONIE
4030,Grivegnée,Oui,LIÈGE,LIEGE,WALLONIE
4031,Angleur,Oui,LIÈGE,LIEGE,WALLONIE
4032,Chênée,Oui,LIÈGE,LIEGE,WALLONIE
4040,Herstal,Non,HERSTAL,LIEGE,WALLONIE
4041,Milmort,Oui,HERSTAL,LIEGE,WALLONIE
4041,Vottem,Oui,HERSTAL,LIEGE,WALLONIE
4042,Liers,Oui,HERSTAL,LIEGE,WALLONIE
4050,Chaudfontaine,Non,CHAUDFONTAINE,LIEGE,WALLONIE
4051,Vaux-Sous-Chèvremont,Oui,CHAUDFONTAINE,LIEGE,WALLONIE
4052,Beaufays,Oui,CHAUDFONTAINE,LIEGE,WALLONIE
4053,Embourg,Oui,CHAUDFONTAINE,LIEGE,WALLONIE
4099,Liège X,,Liège X,,
4100,Boncelles,Oui,SERAING,LIEGE,WALLONIE
4100,Seraing,Non,SERAING,LIEGE,WALLONIE
4101,Jemeppe-Sur-Meuse,Oui,SERAING,LIEGE,WALLONIE
4102,Ougrée,Oui,SERAING,LIEGE,WALLONIE
4120,Ehein,Oui,NEUPRÉ,LIEGE,WALLONIE
4120,Rotheux-Rimière,Oui,NEUPRÉ,LIEGE,WALLONIE
4121,Neuville-En-Condroz,Oui,NEUPRÉ,LIEGE,WALLONIE
4122,Plainevaux,Oui,NEUPRÉ,LIEGE,WALLONIE
4130,Esneux,Non,ESNEUX,LIEGE,WALLONIE
4130,Tilff,Oui,ESNEUX,LIEGE,WALLONIE
4140,Dolembreux,Oui,SPRIMONT,LIEGE,WALLONIE
4140,Gomzé-Andoumont,Oui,SPRIMONT,LIEGE,WALLONIE
4140,Rouvreux,Oui,SPRIMONT,LIEGE,WALLONIE
4140,Sprimont,Non,SPRIMONT,LIEGE,WALLONIE
4141,Louveigné,Oui,SPRIMONT,LIEGE,WALLONIE
4160,Anthisnes,Non,ANTHISNES,LIEGE,WALLONIE
4161,Villers-Aux-Tours,Oui,ANTHISNES,LIEGE,WALLONIE
4162,Hody,Oui,ANTHISNES,LIEGE,WALLONIE
4163,Tavier,Oui,ANTHISNES,LIEGE,WALLONIE
4170,Comblain-Au-Pont,Non,COMBLAIN-AU-PONT,LIEGE,WALLONIE
4171,Poulseur,Oui,COMBLAIN-AU-PONT,LIEGE,WALLONIE
4180,Comblain-Fairon,Oui,HAMOIR,LIEGE,WALLONIE
4180,Comblain-La-Tour,Oui,HAMOIR,LIEGE,WALLONIE
4180,Hamoir,Non,HAMOIR,LIEGE,WALLONIE
4181,Filot,Oui,HAMOIR,LIEGE,WALLONIE
4190,Ferrières,Non,FERRIÈRES,LIEGE,WALLONIE
4190,My,Oui,FERRIÈRES,LIEGE,WALLONIE
4190,Vieuxville,Oui,FERRIÈRES,LIEGE,WALLONIE
4190,Werbomont,Oui,FERRIÈRES,LIEGE,WALLONIE
4190,Xhoris,Oui,FERRIÈRES,LIEGE,WALLONIE
4210,Burdinne,Non,BURDINNE,LIEGE,WALLONIE
4210,Hannêche,Oui,BURDINNE,LIEGE,WALLONIE
4210,Lamontzée,Oui,BURDINNE,LIEGE,WALLONIE
4210,Marneffe,Oui,BURDINNE,LIEGE,WALLONIE
4210,Oteppe,Oui,BURDINNE,LIEGE,WALLONIE
4217,Héron,Non,HÉRON,LIEGE,WALLONIE
4217,Lavoir,Oui,HÉRON,LIEGE,WALLONIE
4217,Waret-L'Evêque,Oui,HÉRON,LIEGE,WALLONIE
4218,Couthuin,Oui,HÉRON,LIEGE,WALLONIE
4219,Acosse,Oui,WASSEIGES,LIEGE,WALLONIE
4219,Ambresin,Oui,WASSEIGES,LIEGE,WALLONIE
4219,Meeffe,Oui,WASSEIGES,LIEGE,WALLONIE
4219,Wasseiges,Non,WASSEIGES,LIEGE,WALLONIE
4250,Boëlhe,Oui,GEER,LIEGE,WALLONIE
4250,Geer,Non,GEER,LIEGE,WALLONIE
4250,Hollogne-Sur-Geer,Oui,GEER,LIEGE,WALLONIE
4250,Lens-Saint-Servais,Oui,GEER,LIEGE,WALLONIE
4252,Omal,Oui,GEER,LIEGE,WALLONIE
4253,Darion,Oui,GEER,LIEGE,WALLONIE
4254,Ligney,Oui,GEER,LIEGE,WALLONIE
4257,Berloz,Non,BERLOZ,LIEGE,WALLONIE
4257,Corswarem,Oui,BERLOZ,LIEGE,WALLONIE
4257,Rosoux-Crenwick,Oui,BERLOZ,LIEGE,WALLONIE
4260,Avennes,Oui,BRAIVES,LIEGE,WALLONIE
4260,Braives,Non,BRAIVES,LIEGE,WALLONIE
4260,Ciplet,Oui,BRAIVES,LIEGE,WALLONIE
4260,Fallais,Oui,BRAIVES,LIEGE,WALLONIE
4260,Fumal,Oui,BRAIVES,LIEGE,WALLONIE
4260,Ville-En-Hesbaye,Oui,BRAIVES,LIEGE,WALLONIE
4261,Latinne,Oui,BRAIVES,LIEGE,WALLONIE
4263,Tourinne,Oui,BRAIVES,LIEGE,WALLONIE
4280,Abolens,Oui,HANNUT,LIEGE,WALLONIE
4280,Avernas-Le-Bauduin,Oui,HANNUT,LIEGE,WALLONIE
4280,Avin,Oui,HANNUT,LIEGE,WALLONIE
4280,Bertrée,Oui,HANNUT,LIEGE,WALLONIE
4280,Blehen,Oui,HANNUT,LIEGE,WALLONIE
4280,Cras-Avernas,Oui,HANNUT,LIEGE,WALLONIE
4280,Crehen,Oui,HANNUT,LIEGE,WALLONIE
4280,Grand-Hallet,Oui,HANNUT,LIEGE,WALLONIE
4280,Hannut,Non,HANNUT,LIEGE,WALLONIE
4280,Lens-Saint-Remy,Oui,HANNUT,LIEGE,WALLONIE
4280,Merdorp,Oui,HANNUT,LIEGE,WALLONIE
4280,Moxhe,Oui,HANNUT,LIEGE,WALLONIE
4280,Petit-Hallet,Oui,HANNUT,LIEGE,WALLONIE
4280,Poucet,Oui,HANNUT,LIEGE,WALLONIE
4280,Thisnes,Oui,HANNUT,LIEGE,WALLONIE
4280,Trognée,Oui,HANNUT,LIEGE,WALLONIE
4280,Villers-Le-Peuplier,Oui,HANNUT,LIEGE,WALLONIE
4280,Wansin,Oui,HANNUT,LIEGE,WALLONIE
4287,Lincent,Non,LINCENT,LIEGE,WALLONIE
4287,Pellaines,Oui,LINCENT,LIEGE,WALLONIE
4287,Racour,Oui,LINCENT,LIEGE,WALLONIE
4300,Bettincourt,Oui,WAREMME,LIEGE,WALLONIE
4300,Bleret,Oui,WAREMME,LIEGE,WALLONIE
4300,Bovenistier,Oui,WAREMME,LIEGE,WALLONIE
4300,Grand-Axhe,Oui,WAREMME,LIEGE,WALLONIE
4300,Lantremange,Oui,WAREMME,LIEGE,WALLONIE
4300,Oleye,Oui,WAREMME,LIEGE,WALLONIE
4300,Waremme,Non,WAREMME,LIEGE,WALLONIE
4317,Aineffe,Oui,FAIMES,LIEGE,WALLONIE
4317,Borlez,Oui,FAIMES,LIEGE,WALLONIE
4317,Celles,Oui,FAIMES,LIEGE,WALLONIE
4317,Faimes,Non,FAIMES,LIEGE,WALLONIE
4317,Les Waleffes,Oui,FAIMES,LIEGE,WALLONIE
4317,Viemme,Oui,FAIMES,LIEGE,WALLONIE
4340,Awans,Non,AWANS,LIEGE,WALLONIE
4340,Fooz,Oui,AWANS,LIEGE,WALLONIE
4340,Othée,Oui,AWANS,LIEGE,WALLONIE
4340,Villers-L'Evêque,Oui,AWANS,LIEGE,WALLONIE
4342,Hognoul,Oui,AWANS,LIEGE,WALLONIE
4347,Fexhe-Le-Haut-Clocher,Non,FEXHE-LE-HAUT-CLOCHER,LIEGE,WALLONIE
4347,Freloux,Oui,FEXHE-LE-HAUT-CLOCHER,LIEGE,WALLONIE
4347,Noville,Oui,FEXHE-LE-HAUT-CLOCHER,LIEGE,WALLONIE
4347,Roloux,Oui,FEXHE-LE-HAUT-CLOCHER,LIEGE,WALLONIE
4347,Voroux-Goreux,Oui,FEXHE-LE-HAUT-CLOCHER,LIEGE,WALLONIE
4350,Lamine,Oui,REMICOURT,LIEGE,WALLONIE
4350,Momalle,Oui,REMICOURT,LIEGE,WALLONIE
4350,Pousset,Oui,REMICOURT,LIEGE,WALLONIE
4350,Remicourt,Non,REMICOURT,LIEGE,WALLONIE
4351,Hodeige,Oui,REMICOURT,LIEGE,WALLONIE
4357,Donceel,Non,DONCEEL,LIEGE,WALLONIE
4357,Haneffe,Oui,DONCEEL,LIEGE,WALLONIE
4357,Jeneffe,Oui,DONCEEL,LIEGE,WALLONIE
4357,Limont,Oui,DONCEEL,LIEGE,WALLONIE
4360,Bergilers,Oui,OREYE,LIEGE,WALLONIE
4360,Grandville,Oui,OREYE,LIEGE,WALLONIE
4360,Lens-Sur-Geer,Oui,OREYE,LIEGE,WALLONIE
4360,Oreye,Non,OREYE,LIEGE,WALLONIE
4360,Otrange,Oui,OREYE,LIEGE,WALLONIE
4367,Crisnée,Non,CRISNÉE,LIEGE,WALLONIE
4367,Fize-Le-Marsal,Oui,CRISNÉE,LIEGE,WALLONIE
4367,Kemexhe,Oui,CRISNÉE,LIEGE,WALLONIE
4367,Odeur,Oui,CRISNÉE,LIEGE,WALLONIE
4367,Thys,Oui,CRISNÉE,LIEGE,WALLONIE
4400,Awirs,Oui,FLÉMALLE,LIEGE,WALLONIE
4400,Chokier,Oui,FLÉMALLE,LIEGE,WALLONIE
4400,Flémalle-Grande,Oui,FLÉMALLE,LIEGE,WALLONIE
4400,Flémalle-Haute,Oui,FLÉMALLE,LIEGE,WALLONIE
4400,Gleixhe,Oui,FLÉMALLE,LIEGE,WALLONIE
4400,Ivoz-Ramet,Oui,FLÉMALLE,LIEGE,WALLONIE
4400,Mons-Lez-Liège,Oui,FLÉMALLE,LIEGE,WALLONIE
4420,Montegnée,Oui,SAINT-NICOLAS,LIEGE,WALLONIE
4420,Saint-Nicolas,Non,SAINT-NICOLAS,LIEGE,WALLONIE
4420,Tilleur,Oui,SAINT-NICOLAS,LIEGE,WALLONIE
4430,Ans,Non,ANS,LIEGE,WALLONIE
4431,Loncin,Oui,ANS,LIEGE,WALLONIE
4432,Alleur,Oui,ANS,LIEGE,WALLONIE
4432,Xhendremael,Oui,ANS,LIEGE,WALLONIE
4450,Juprelle,Non,JUPRELLE,LIEGE,WALLONIE
4450,Lantin,Oui,JUPRELLE,LIEGE,WALLONIE
4450,Slins,Oui,JUPRELLE,LIEGE,WALLONIE
4451,Voroux-Lez-Liers,Oui,JUPRELLE,LIEGE,WALLONIE
4452,Paifve,Oui,JUPRELLE,LIEGE,WALLONIE
4452,Wihogne,Oui,JUPRELLE,LIEGE,WALLONIE
4453,Villers-Saint-Siméon,Oui,JUPRELLE,LIEGE,WALLONIE
4458,Fexhe-Slins,Oui,JUPRELLE,LIEGE,WALLONIE
4460,Bierset,Oui,GRÂCE-HOLLOGNE,LIEGE,WALLONIE
4460,Grâce-Berleur,Oui,GRÂCE-HOLLOGNE,LIEGE,WALLONIE
4460,Grâce-Hollogne,Non,GRÂCE-HOLLOGNE,LIEGE,WALLONIE
4460,Hollogne-Aux-Pierres,Oui,GRÂCE-HOLLOGNE,LIEGE,WALLONIE
4460,Horion-Hozémont,Oui,GRÂCE-HOLLOGNE,LIEGE,WALLONIE
4460,Velroux,Oui,GRÂCE-HOLLOGNE,LIEGE,WALLONIE
4470,Saint-Georges-Sur-Meuse,Non,SAINT-GEORGES-SUR-MEUSE,LIEGE,WALLONIE
4480,Clermont-Sous-Huy,Oui,ENGIS,LIEGE,WALLONIE
4480,Ehein,Oui,ENGIS,LIEGE,WALLONIE
4480,Engis,Non,ENGIS,LIEGE,WALLONIE
4480,Hermalle-Sous-Huy,Oui,ENGIS,LIEGE,WALLONIE
4500,Ben-Ahin,Oui,HUY,LIEGE,WALLONIE
4500,Huy,Non,HUY,LIEGE,WALLONIE
4500,Tihange,Oui,HUY,LIEGE,WALLONIE
4520,Antheit,Oui,WANZE,LIEGE,WALLONIE
4520,Bas-Oha,Oui,WANZE,LIEGE,WALLONIE
4520,Huccorgne,Oui,WANZE,LIEGE,WALLONIE
4520,Moha,Oui,WANZE,LIEGE,WALLONIE
4520,Vinalmont,Oui,WANZE,LIEGE,WALLONIE
4520,Wanze,Non,WANZE,LIEGE,WALLONIE
4530,Fize-Fontaine,Oui,VILLERS-LE-BOUILLET,LIEGE,WALLONIE
4530,Vaux-Et-Borset,Oui,VILLERS-LE-BOUILLET,LIEGE,WALLONIE
4530,Vieux-Waleffe,Oui,VILLERS-LE-BOUILLET,LIEGE,WALLONIE
4530,Villers-Le-Bouillet,Non,VILLERS-LE-BOUILLET,LIEGE,WALLONIE
4530,Warnant-Dreye,Oui,VILLERS-LE-BOUILLET,LIEGE,WALLONIE
4537,Bodegnée,Oui,VERLAINE,LIEGE,WALLONIE
4537,Chapon-Seraing,Oui,VERLAINE,LIEGE,WALLONIE
4537,Seraing-Le-Château,Oui,VERLAINE,LIEGE,WALLONIE
4537,Verlaine,Non,VERLAINE,LIEGE,WALLONIE
4540,Amay,Non,AMAY,LIEGE,WALLONIE
4540,Ampsin,Oui,AMAY,LIEGE,WALLONIE
4540,Flône,Oui,AMAY,LIEGE,WALLONIE
4540,Jehay,Oui,AMAY,LIEGE,WALLONIE
4540,Ombret,Oui,AMAY,LIEGE,WALLONIE
4550,Nandrin,Non,NANDRIN,LIEGE,WALLONIE
4550,Saint-Séverin,Oui,NANDRIN,LIEGE,WALLONIE
4550,Villers-Le-Temple,Oui,NANDRIN,LIEGE,WALLONIE
4550,Yernée-Fraineux,Oui,NANDRIN,LIEGE,WALLONIE
4557,Abée,Oui,TINLOT,LIEGE,WALLONIE
4557,Fraiture,Oui,TINLOT,LIEGE,WALLONIE
4557,Ramelot,Oui,TINLOT,LIEGE,WALLONIE
4557,Seny,Oui,TINLOT,LIEGE,WALLONIE
4557,Soheit-Tinlot,Oui,TINLOT,LIEGE,WALLONIE
4557,Tinlot,Non,TINLOT,LIEGE,WALLONIE
4560,Bois-Et-Borsu,Oui,CLAVIER,LIEGE,WALLONIE
4560,Clavier,Non,CLAVIER,LIEGE,WALLONIE
4560,Les Avins,Oui,CLAVIER,LIEGE,WALLONIE
4560,Ocquier,Oui,CLAVIER,LIEGE,WALLONIE
4560,Pailhe,Oui,CLAVIER,LIEGE,WALLONIE
4560,Terwagne,Oui,CLAVIER,LIEGE,WALLONIE
4570,Marchin,Non,MARCHIN,LIEGE,WALLONIE
4570,Vyle-Et-Tharoul,Oui,MARCHIN,LIEGE,WALLONIE
4577,Modave,Non,MODAVE,LIEGE,WALLONIE
4577,Outrelouxhe,Oui,MODAVE,LIEGE,WALLONIE
4577,Strée-Lez-Huy,Oui,MODAVE,LIEGE,WALLONIE
4577,Vierset-Barse,Oui,MODAVE,LIEGE,WALLONIE
4590,Ellemelle,Oui,OUFFET,LIEGE,WALLONIE
4590,Ouffet,Non,OUFFET,LIEGE,WALLONIE
4590,Warzée,Oui,OUFFET,LIEGE,WALLONIE
4600,Lanaye,Oui,VISÉ,LIEGE,WALLONIE
4600,Lixhe,Oui,VISÉ,LIEGE,WALLONIE
4600,Richelle,Oui,VISÉ,LIEGE,WALLONIE
4600,Visé,Non,VISÉ,LIEGE,WALLONIE
4601,Argenteau,Oui,VISÉ,LIEGE,WALLONIE
4602,Cheratte,Oui,VISÉ,LIEGE,WALLONIE
4606,Saint-André,Oui,DALHEM,LIEGE,WALLONIE
4607,Berneau,Oui,DALHEM,LIEGE,WALLONIE
4607,Bombaye,Oui,DALHEM,LIEGE,WALLONIE
4607,Dalhem,Non,DALHEM,LIEGE,WALLONIE
4607,Feneur,Oui,DALHEM,LIEGE,WALLONIE
4607,Mortroux,Oui,DALHEM,LIEGE,WALLONIE
4608,Neufchâteau,Oui,DALHEM,LIEGE,WALLONIE
4608,Warsage,Oui,DALHEM,LIEGE,WALLONIE
4610,Bellaire,Oui,BEYNE-HEUSAY,LIEGE,WALLONIE
4610,Beyne-Heusay,Non,BEYNE-HEUSAY,LIEGE,WALLONIE
4610,Queue-Du-Bois,Oui,BEYNE-HEUSAY,LIEGE,WALLONIE
4620,Fléron,Non,FLÉRON,LIEGE,WALLONIE
4621,Retinne,Oui,FLÉRON,LIEGE,WALLONIE
4623,Magnée,Oui,FLÉRON,LIEGE,WALLONIE
4624,Romsée,Oui,FLÉRON,LIEGE,WALLONIE
4630,Ayeneux,Oui,SOUMAGNE,LIEGE,WALLONIE
4630,Micheroux,Oui,SOUMAGNE,LIEGE,WALLONIE
4630,Soumagne,Non,SOUMAGNE,LIEGE,WALLONIE
4630,Tignée,Oui,SOUMAGNE,LIEGE,WALLONIE
4631,Evegnée,Oui,SOUMAGNE,LIEGE,WALLONIE
4632,Cérexhe-Heuseux,Oui,SOUMAGNE,LIEGE,WALLONIE
4633,Melen,Oui,SOUMAGNE,LIEGE,WALLONIE
4650,Chaineux,Oui,HERVE,LIEGE,WALLONIE
4650,Grand-Rechain,Oui,HERVE,LIEGE,WALLONIE
4650,Herve,Non,HERVE,LIEGE,WALLONIE
4650,Julémont,Oui,HERVE,LIEGE,WALLONIE
4651,Battice,Oui,HERVE,LIEGE,WALLONIE
4652,Xhendelesse,Oui,HERVE,LIEGE,WALLONIE
4653,Bolland,Oui,HERVE,LIEGE,WALLONIE
4654,Charneux,Oui,HERVE,LIEGE,WALLONIE
4670,Blégny,Non,BLÉGNY,LIEGE,WALLONIE
4670,Mortier,Oui,BLÉGNY,LIEGE,WALLONIE
4670,Trembleur,Oui,BLÉGNY,LIEGE,WALLONIE
4671,Barchon,Oui,BLÉGNY,LIEGE,WALLONIE
4671,Housse,Oui,BLÉGNY,LIEGE,WALLONIE
4671,Saive,Oui,BLÉGNY,LIEGE,WALLONIE
4672,Saint-Remy,Oui,BLÉGNY,LIEGE,WALLONIE
4680,Hermée,Oui,OUPEYE,LIEGE,WALLONIE
4680,Oupeye,Non,OUPEYE,LIEGE,WALLONIE
4681,Hermalle-Sous-Argenteau,Oui,OUPEYE,LIEGE,WALLONIE
4682,Heure-Le-Romain,Oui,OUPEYE,LIEGE,WALLONIE
4682,Houtain-Saint-Siméon,Oui,OUPEYE,LIEGE,WALLONIE
4683,Vivegnis,Oui,OUPEYE,LIEGE,WALLONIE
4684,Haccourt,Oui,OUPEYE,LIEGE,WALLONIE
4690,Bassenge,Non,BASSENGE,LIEGE,WALLONIE
4690,Boirs,Oui,BASSENGE,LIEGE,WALLONIE
4690,Eben-Emael,Oui,BASSENGE,LIEGE,WALLONIE
4690,Glons,Oui,BASSENGE,LIEGE,WALLONIE
4690,Roclenge-Sur-Geer,Oui,BASSENGE,LIEGE,WALLONIE
4690,Wonck,Oui,BASSENGE,LIEGE,WALLONIE
4700,Eupen,Non,EUPEN,LIEGE,WALLONIE
4701,Kettenis,Oui,EUPEN,LIEGE,WALLONIE
4710,Lontzen,Non,LONTZEN,LIEGE,WALLONIE
4711,Walhorn,Oui,LONTZEN,LIEGE,WALLONIE
4720,La Calamine,Non,LA CALAMINE,LIEGE,WALLONIE
4721,Neu-Moresnet,Oui,LA CALAMINE,LIEGE,WALLONIE
4728,Hergenrath,Oui,LA CALAMINE,LIEGE,WALLONIE
4730,Hauset,Oui,RAEREN,LIEGE,WALLONIE
4730,Raeren,Non,RAEREN,LIEGE,WALLONIE
4731,Eynatten,Oui,RAEREN,LIEGE,WALLONIE
4750,Butgenbach,Non,BUTGENBACH,LIEGE,WALLONIE
4750,Elsenborn,Oui,BUTGENBACH,LIEGE,WALLONIE
4760,Bullange,Non,BULLANGE,LIEGE,WALLONIE
4760,Manderfeld,Oui,BULLANGE,LIEGE,WALLONIE
4761,Rocherath,Oui,BULLANGE,LIEGE,WALLONIE
4770,Amblève,Non,AMBLÈVE,LIEGE,WALLONIE
4770,Meyerode,Oui,AMBLÈVE,LIEGE,WALLONIE
4771,Heppenbach,Oui,AMBLÈVE,LIEGE,WALLONIE
4780,Recht,Oui,SAINT-VITH,LIEGE,WALLONIE
4780,Saint-Vith,Non,SAINT-VITH,LIEGE,WALLONIE
4782,Schoenberg,Oui,SAINT-VITH,LIEGE,WALLONIE
4783,Lommersweiler,Oui,SAINT-VITH,LIEGE,WALLONIE
4784,Crombach,Oui,SAINT-VITH,LIEGE,WALLONIE
4790,Reuland,Oui,BURG-REULAND,LIEGE,WALLONIE
4791,Thommen,Oui,BURG-REULAND,LIEGE,WALLONIE
4800,Ensival,Oui,VERVIERS,LIEGE,WALLONIE
4800,Lambermont,Oui,VERVIERS,LIEGE,WALLONIE
4800,Petit-Rechain,Oui,VERVIERS,LIEGE,WALLONIE
4800,Polleur,Oui,VERVIERS,LIEGE,WALLONIE
4800,Verviers,Non,VERVIERS,LIEGE,WALLONIE
4801,Stembert,Oui,VERVIERS,LIEGE,WALLONIE
4802,Heusy,Oui,VERVIERS,LIEGE,WALLONIE
4820,Dison,Non,DISON,LIEGE,WALLONIE
4821,Andrimont,Oui,DISON,LIEGE,WALLONIE
4830,Limbourg,Non,LIMBOURG,LIEGE,WALLONIE
4831,Bilstain,Oui,LIMBOURG,LIEGE,WALLONIE
4834,Goé,Oui,LIMBOURG,LIEGE,WALLONIE
4837,Baelen,Non,BAELEN,LIEGE,WALLONIE
4837,Membach,Oui,BAELEN,LIEGE,WALLONIE
4840,Welkenraedt,Non,WELKENRAEDT,LIEGE,WALLONIE
4841,Henri-Chapelle,Oui,WELKENRAEDT,LIEGE,WALLONIE
4845,Jalhay,Non,JALHAY,LIEGE,WALLONIE
4845,Sart-Lez-Spa,Oui,JALHAY,LIEGE,WALLONIE
4850,Montzen,Oui,PLOMBIÈRES,LIEGE,WALLONIE
4850,Moresnet,Oui,PLOMBIÈRES,LIEGE,WALLONIE
4851,Gemmenich,Oui,PLOMBIÈRES,LIEGE,WALLONIE
4851,Sippenaeken,Oui,PLOMBIÈRES,LIEGE,WALLONIE
4852,Hombourg,Oui,PLOMBIÈRES,LIEGE,WALLONIE
4860,Cornesse,Oui,PEPINSTER,LIEGE,WALLONIE
4860,Pepinster,Non,PEPINSTER,LIEGE,WALLONIE
4860,Wegnez,Oui,PEPINSTER,LIEGE,WALLONIE
4861,Soiron,Oui,PEPINSTER,LIEGE,WALLONIE
4870,Forêt,Oui,TROOZ,LIEGE,WALLONIE
4870,Fraipont,Oui,TROOZ,LIEGE,WALLONIE
4870,Nessonvaux,Oui,TROOZ,LIEGE,WALLONIE
4877,Olne,Non,OLNE,LIEGE,WALLONIE
4880,Aubel,Non,AUBEL,LIEGE,WALLONIE
4890,Clermont,Oui,THIMISTER-CLERMONT,LIEGE,WALLONIE
4890,Thimister,Oui,THIMISTER-CLERMONT,LIEGE,WALLONIE
4900,Spa,Non,SPA,LIEGE,WALLONIE
4910,La Reid,Oui,THEUX,LIEGE,WALLONIE
4910,Polleur,Oui,THEUX,LIEGE,WALLONIE
4910,Theux,Non,THEUX,LIEGE,WALLONIE
4920,Aywaille,Non,AYWAILLE,LIEGE,WALLONIE
4920,Ernonheid,Oui,AYWAILLE,LIEGE,WALLONIE
4920,Harzé,Oui,AYWAILLE,LIEGE,WALLONIE
4920,Louveigné,Oui,AYWAILLE,LIEGE,WALLONIE
4920,Sougné-Remouchamps,Oui,AYWAILLE,LIEGE,WALLONIE
4950,Faymonville,Oui,WAIMES,LIEGE,WALLONIE
4950,Robertville,Oui,WAIMES,LIEGE,WALLONIE
4950,Sourbrodt,Oui,WAIMES,LIEGE,WALLONIE
4950,Waimes,Non,WAIMES,LIEGE,WALLONIE
4960,Bellevaux-Ligneuville,Oui,MALMEDY,LIEGE,WALLONIE
4960,Bevercé,Oui,MALMEDY,LIEGE,WALLONIE
4960,Malmedy,Non,MALMEDY,LIEGE,WALLONIE
4970,Francorchamps,Oui,STAVELOT,LIEGE,WALLONIE
4970,Stavelot,Non,STAVELOT,LIEGE,WALLONIE
4980,Fosse,Oui,TROIS-PONTS,LIEGE,WALLONIE
4980,Trois-Ponts,Non,TROIS-PONTS,LIEGE,WALLONIE
4980,Wanne,Oui,TROIS-PONTS,LIEGE,WALLONIE
4983,Basse-Bodeux,Oui,TROIS-PONTS,LIEGE,WALLONIE
4987,Chevron,Oui,STOUMONT,LIEGE,WALLONIE
4987,La Gleize,Oui,STOUMONT,LIEGE,WALLONIE
4987,Lorcé,Oui,STOUMONT,LIEGE,WALLONIE
4987,Rahier,Oui,STOUMONT,LIEGE,WALLONIE
4987,Stoumont,Non,STOUMONT,LIEGE,WALLONIE
4990,Arbrefontaine,Oui,LIERNEUX,LIEGE,WALLONIE
4990,Bra,Oui,LIERNEUX,LIEGE,WALLONIE
4990,Lierneux,Non,LIERNEUX,LIEGE,WALLONIE
5000,Beez,Oui,NAMUR,NAMUR,WALLONIE
5000,Namur,Non,NAMUR,NAMUR,WALLONIE
5001,Belgrade,Oui,NAMUR,NAMUR,WALLONIE
5002,Saint-Servais,Oui,NAMUR,NAMUR,WALLONIE
5003,Saint-Marc,Oui,NAMUR,NAMUR,WALLONIE
5004,Bouge,Oui,NAMUR,NAMUR,WALLONIE
5010,SA SudPresse,,SA SudPresse,,
5012,Parlement Wallon,,Parlement Wallon,,
5020,Champion,Oui,NAMUR,NAMUR,WALLONIE
5020,Daussoulx,Oui,NAMUR,NAMUR,WALLONIE
5020,Flawinne,Oui,NAMUR,NAMUR,WALLONIE
5020,Malonne,Oui,NAMUR,NAMUR,WALLONIE
5020,Suarlée,Oui,NAMUR,NAMUR,WALLONIE
5020,Temploux,Oui,NAMUR,NAMUR,WALLONIE
5020,Vedrin,Oui,NAMUR,NAMUR,WALLONIE
5021,Boninne,Oui,NAMUR,NAMUR,WALLONIE
5022,Cognelée,Oui,NAMUR,NAMUR,WALLONIE
5024,Gelbressée,Oui,NAMUR,NAMUR,WALLONIE
5024,Marche-Les-Dames,Oui,NAMUR,NAMUR,WALLONIE
5030,Beuzet,Oui,GEMBLOUX,NAMUR,WALLONIE
5030,Ernage,Oui,GEMBLOUX,NAMUR,WALLONIE
5030,Gembloux,Non,GEMBLOUX,NAMUR,WALLONIE
5030,Grand-Manil,Oui,GEMBLOUX,NAMUR,WALLONIE
5030,Lonzée,Oui,GEMBLOUX,NAMUR,WALLONIE
5030,Sauvenière,Oui,GEMBLOUX,NAMUR,WALLONIE
5031,Grand-Leez,Oui,GEMBLOUX,NAMUR,WALLONIE
5032,Bossière,Oui,GEMBLOUX,NAMUR,WALLONIE
5032,Bothey,Oui,GEMBLOUX,NAMUR,WALLONIE
5032,Corroy-Le-Château,Oui,GEMBLOUX,NAMUR,WALLONIE
5032,Isnes,Oui,GEMBLOUX,NAMUR,WALLONIE
5032,Mazy,Oui,GEMBLOUX,NAMUR,WALLONIE
5060,Arsimont,Oui,SAMBREVILLE,NAMUR,WALLONIE
5060,Auvelais,Oui,SAMBREVILLE,NAMUR,WALLONIE
5060,Falisolle,Oui,SAMBREVILLE,NAMUR,WALLONIE
5060,Keumiée,Oui,SAMBREVILLE,NAMUR,WALLONIE
5060,Moignelée,Oui,SAMBREVILLE,NAMUR,WALLONIE
5060,Tamines,Oui,SAMBREVILLE,NAMUR,WALLONIE
5060,Velaine-Sur-Sambre,Oui,SAMBREVILLE,NAMUR,WALLONIE
5070,Aisemont,Oui,FOSSES-LA-VILLE,NAMUR,WALLONIE
5070,Fosses-La-Ville,Non,FOSSES-LA-VILLE,NAMUR,WALLONIE
5070,Le Roux,Oui,FOSSES-LA-VILLE,NAMUR,WALLONIE
5070,Sart-Eustache,Oui,FOSSES-LA-VILLE,NAMUR,WALLONIE
5070,Sart-Saint-Laurent,Oui,FOSSES-LA-VILLE,NAMUR,WALLONIE
5070,Vitrival,Oui,FOSSES-LA-VILLE,NAMUR,WALLONIE
5080,Emines,Oui,LA BRUYÈRE,NAMUR,WALLONIE
5080,Rhisnes,Oui,LA BRUYÈRE,NAMUR,WALLONIE
5080,Villers-Lez-Heest,Oui,LA BRUYÈRE,NAMUR,WALLONIE
5080,Warisoulx,Oui,LA BRUYÈRE,NAMUR,WALLONIE
5081,Bovesse,Oui,LA BRUYÈRE,NAMUR,WALLONIE
5081,Meux,Oui,LA BRUYÈRE,NAMUR,WALLONIE
5081,Saint-Denis-Bovesse,Oui,LA BRUYÈRE,NAMUR,WALLONIE
5100,Dave,Oui,NAMUR,NAMUR,WALLONIE
5100,Jambes,Oui,NAMUR,NAMUR,WALLONIE
5100,Naninne,Oui,NAMUR,NAMUR,WALLONIE
5100,Wépion,Oui,NAMUR,NAMUR,WALLONIE
5100,Wierde,Oui,NAMUR,NAMUR,WALLONIE
5101,Erpent,Oui,NAMUR,NAMUR,WALLONIE
5101,Lives-Sur-Meuse,Oui,NAMUR,NAMUR,WALLONIE
5101,Loyers,Oui,NAMUR,NAMUR,WALLONIE
5140,Boignée,Oui,SOMBREFFE,NAMUR,WALLONIE
5140,Ligny,Oui,SOMBREFFE,NAMUR,WALLONIE
5140,Sombreffe,Non,SOMBREFFE,NAMUR,WALLONIE
5140,Tongrinne,Oui,SOMBREFFE,NAMUR,WALLONIE
5150,Floreffe,Non,FLOREFFE,NAMUR,WALLONIE
5150,Floriffoux,Oui,FLOREFFE,NAMUR,WALLONIE
5150,Franière,Oui,FLOREFFE,NAMUR,WALLONIE
5150,Soye,Oui,FLOREFFE,NAMUR,WALLONIE
5170,Arbre,Oui,PROFONDEVILLE,NAMUR,WALLONIE
5170,Bois-De-Villers,Oui,PROFONDEVILLE,NAMUR,WALLONIE
5170,Lesve,Oui,PROFONDEVILLE,NAMUR,WALLONIE
5170,Lustin,Oui,PROFONDEVILLE,NAMUR,WALLONIE
5170,Profondeville,Non,PROFONDEVILLE,NAMUR,WALLONIE
5170,Rivière,Oui,PROFONDEVILLE,NAMUR,WALLONIE
5190,Balâtre,Oui,JEMEPPE-SUR-SAMBRE,NAMUR,WALLONIE
5190,Ham-Sur-Sambre,Oui,JEMEPPE-SUR-SAMBRE,NAMUR,WALLONIE
5190,Jemeppe-Sur-Sambre,Non,JEMEPPE-SUR-SAMBRE,NAMUR,WALLONIE
5190,Mornimont,Oui,JEMEPPE-SUR-SAMBRE,NAMUR,WALLONIE
5190,Moustier-Sur-Sambre,Oui,JEMEPPE-SUR-SAMBRE,NAMUR,WALLONIE
5190,Onoz,Oui,JEMEPPE-SUR-SAMBRE,NAMUR,WALLONIE
5190,Saint-Martin,Oui,JEMEPPE-SUR-SAMBRE,NAMUR,WALLONIE
5190,Spy,Oui,JEMEPPE-SUR-SAMBRE,NAMUR,WALLONIE
5300,Andenne,Non,ANDENNE,NAMUR,WALLONIE
5300,Bonneville,Oui,ANDENNE,NAMUR,WALLONIE
5300,Coutisse,Oui,ANDENNE,NAMUR,WALLONIE
5300,Landenne,Oui,ANDENNE,NAMUR,WALLONIE
5300,Maizeret,Oui,ANDENNE,NAMUR,WALLONIE
5300,Namêche,Oui,ANDENNE,NAMUR,WALLONIE
5300,Sclayn,Oui,ANDENNE,NAMUR,WALLONIE
5300,Seilles,Oui,ANDENNE,NAMUR,WALLONIE
5300,Thon,Oui,ANDENNE,NAMUR,WALLONIE
5300,Vezin,Oui,ANDENNE,NAMUR,WALLONIE
5310,Aische-En-Refail,Oui,EGHEZÉE,NAMUR,WALLONIE
5310,Bolinne,Oui,EGHEZÉE,NAMUR,WALLONIE
5310,Boneffe,Oui,EGHEZÉE,NAMUR,WALLONIE
5310,Branchon,Oui,EGHEZÉE,NAMUR,WALLONIE
5310,Dhuy,Oui,EGHEZÉE,NAMUR,WALLONIE
5310,Eghezée,Non,EGHEZÉE,NAMUR,WALLONIE
5310,Hanret,Oui,EGHEZÉE,NAMUR,WALLONIE
5310,Leuze,Oui,EGHEZÉE,NAMUR,WALLONIE
5310,Liernu,Oui,EGHEZÉE,NAMUR,WALLONIE
5310,Longchamps,Oui,EGHEZÉE,NAMUR,WALLONIE
5310,Mehaigne,Oui,EGHEZÉE,NAMUR,WALLONIE
5310,Noville-Sur-Mehaigne,Oui,EGHEZÉE,NAMUR,WALLONIE
5310,Saint-Germain,Oui,EGHEZÉE,NAMUR,WALLONIE
5310,Taviers,Oui,EGHEZÉE,NAMUR,WALLONIE
5310,Upigny,Oui,EGHEZÉE,NAMUR,WALLONIE
5310,Waret-La-Chaussée,Oui,EGHEZÉE,NAMUR,WALLONIE
5330,Assesse,Non,ASSESSE,NAMUR,WALLONIE
5330,Maillen,Oui,ASSESSE,NAMUR,WALLONIE
5330,Sart-Bernard,Oui,ASSESSE,NAMUR,WALLONIE
5332,Crupet,Oui,ASSESSE,NAMUR,WALLONIE
5333,Sorinne-La-Longue,Oui,ASSESSE,NAMUR,WALLONIE
5334,Florée,Oui,ASSESSE,NAMUR,WALLONIE
5336,Courrière,Oui,ASSESSE,NAMUR,WALLONIE
5340,Faulx-Les-Tombes,Oui,GESVES,NAMUR,WALLONIE
5340,Gesves,Non,GESVES,NAMUR,WALLONIE
5340,Haltinne,Oui,GESVES,NAMUR,WALLONIE
5340,Mozet,Oui,GESVES,NAMUR,WALLONIE
5340,Sorée,Oui,GESVES,NAMUR,WALLONIE
5350,Evelette,Oui,OHEY,NAMUR,WALLONIE
5350,Ohey,Non,OHEY,NAMUR,WALLONIE
5351,Haillot,Oui,OHEY,NAMUR,WALLONIE
5352,Perwez-Haillot,Oui,OHEY,NAMUR,WALLONIE
5353,Goesnes,Oui,OHEY,NAMUR,WALLONIE
5354,Jallet,Oui,OHEY,NAMUR,WALLONIE
5360,Hamois,Non,HAMOIS,NAMUR,WALLONIE
5360,Natoye,Oui,HAMOIS,NAMUR,WALLONIE
5361,Mohiville,Oui,HAMOIS,NAMUR,WALLONIE
5361,Scy,Oui,HAMOIS,NAMUR,WALLONIE
5362,Achet,Oui,HAMOIS,NAMUR,WALLONIE
5363,Emptinne,Oui,HAMOIS,NAMUR,WALLONIE
5364,Schaltin,Oui,HAMOIS,NAMUR,WALLONIE
5370,Barvaux-Condroz,Oui,HAVELANGE,NAMUR,WALLONIE
5370,Flostoy,Oui,HAVELANGE,NAMUR,WALLONIE
5370,Havelange,Non,HAVELANGE,NAMUR,WALLONIE
5370,Jeneffe,Oui,HAVELANGE,NAMUR,WALLONIE
5370,Porcheresse,Oui,HAVELANGE,NAMUR,WALLONIE
5370,Verlée,Oui,HAVELANGE,NAMUR,WALLONIE
5372,Méan,Oui,HAVELANGE,NAMUR,WALLONIE
5374,Maffe,Oui,HAVELANGE,NAMUR,WALLONIE
5376,Miécret,Oui,HAVELANGE,NAMUR,WALLONIE
5377,Baillonville,Oui,SOMME-LEUZE,NAMUR,WALLONIE
5377,Bonsin,Oui,SOMME-LEUZE,NAMUR,WALLONIE
5377,Heure,Oui,SOMME-LEUZE,NAMUR,WALLONIE
5377,Hogne,Oui,SOMME-LEUZE,NAMUR,WALLONIE
5377,Nettinne,Oui,SOMME-LEUZE,NAMUR,WALLONIE
5377,Noiseux,Oui,SOMME-LEUZE,NAMUR,WALLONIE
5377,Sinsin,Oui,SOMME-LEUZE,NAMUR,WALLONIE
5377,Somme-Leuze,Non,SOMME-LEUZE,NAMUR,WALLONIE
5377,Waillet,Oui,SOMME-LEUZE,NAMUR,WALLONIE
5380,Bierwart,Oui,FERNELMONT,NAMUR,WALLONIE
5380,Cortil-Wodon,Oui,FERNELMONT,NAMUR,WALLONIE
5380,Forville,Oui,FERNELMONT,NAMUR,WALLONIE
5380,Franc-Waret,Oui,FERNELMONT,NAMUR,WALLONIE
5380,Hemptinne,Oui,FERNELMONT,NAMUR,WALLONIE
5380,Hingeon,Oui,FERNELMONT,NAMUR,WALLONIE
5380,Marchovelette,Oui,FERNELMONT,NAMUR,WALLONIE
5380,Noville-Les-Bois,Oui,FERNELMONT,NAMUR,WALLONIE
5380,Pontillas,Oui,FERNELMONT,NAMUR,WALLONIE
5380,Tillier,Oui,FERNELMONT,NAMUR,WALLONIE
5500,Anseremme,Oui,DINANT,NAMUR,WALLONIE
5500,Bouvignes-Sur-Meuse,Oui,DINANT,NAMUR,WALLONIE
5500,Dinant,Non,DINANT,NAMUR,WALLONIE
5500,Dréhance,Oui,DINANT,NAMUR,WALLONIE
5500,Falmagne,Oui,DINANT,NAMUR,WALLONIE
5500,Falmignoul,Oui,DINANT,NAMUR,WALLONIE
5500,Furfooz,Oui,DINANT,NAMUR,WALLONIE
5501,Lisogne,Oui,DINANT,NAMUR,WALLONIE
5502,Thynes,Oui,DINANT,NAMUR,WALLONIE
5503,Sorinnes,Oui,DINANT,NAMUR,WALLONIE
5504,Foy-Notre-Dame,Oui,DINANT,NAMUR,WALLONIE
5520,Anthée,Oui,ONHAYE,NAMUR,WALLONIE
5520,Onhaye,Non,ONHAYE,NAMUR,WALLONIE
5521,Serville,Oui,ONHAYE,NAMUR,WALLONIE
5522,Falaën,Oui,ONHAYE,NAMUR,WALLONIE
5523,Sommière,Oui,ONHAYE,NAMUR,WALLONIE
5523,Weillen,Oui,ONHAYE,NAMUR,WALLONIE
5524,Gérin,Oui,ONHAYE,NAMUR,WALLONIE
5530,Dorinne,Oui,YVOIR,NAMUR,WALLONIE
5530,Durnal,Oui,YVOIR,NAMUR,WALLONIE
5530,Evrehailles,Oui,YVOIR,NAMUR,WALLONIE
5530,Godinne,Oui,YVOIR,NAMUR,WALLONIE
5530,Houx,Oui,YVOIR,NAMUR,WALLONIE
5530,Mont,Oui,YVOIR,NAMUR,WALLONIE
5530,Purnode,Oui,YVOIR,NAMUR,WALLONIE
5530,Spontin,Oui,YVOIR,NAMUR,WALLONIE
5530,Yvoir,Non,YVOIR,NAMUR,WALLONIE
5537,Anhée,Non,ANHÉE,NAMUR,WALLONIE
5537,Annevoie-Rouillon,Oui,ANHÉE,NAMUR,WALLONIE
5537,Bioul,Oui,ANHÉE,NAMUR,WALLONIE
5537,Denée,Oui,ANHÉE,NAMUR,WALLONIE
5537,Haut-Le-Wastia,Oui,ANHÉE,NAMUR,WALLONIE
5537,Sosoye,Oui,ANHÉE,NAMUR,WALLONIE
5537,Warnant,Oui,ANHÉE,NAMUR,WALLONIE
5540,Hastière-Lavaux,Oui,HASTIÈRE,NAMUR,WALLONIE
5540,Hermeton-Sur-Meuse,Oui,HASTIÈRE,NAMUR,WALLONIE
5540,Waulsort,Oui,HASTIÈRE,NAMUR,WALLONIE
5541,Hastière-Par-Delà,Oui,HASTIÈRE,NAMUR,WALLONIE
5542,Blaimont,Oui,HASTIÈRE,NAMUR,WALLONIE
5543,Heer,Oui,HASTIÈRE,NAMUR,WALLONIE
5544,Agimont,Oui,HASTIÈRE,NAMUR,WALLONIE
5550,Alle,Oui,VRESSE-SUR-SEMOIS,NAMUR,WALLONIE
5550,Bagimont,Oui,VRESSE-SUR-SEMOIS,NAMUR,WALLONIE
5550,Bohan,Oui,VRESSE-SUR-SEMOIS,NAMUR,WALLONIE
5550,Chairière,Oui,VRESSE-SUR-SEMOIS,NAMUR,WALLONIE
5550,Laforêt,Oui,VRESSE-SUR-SEMOIS,NAMUR,WALLONIE
5550,Membre,Oui,VRESSE-SUR-SEMOIS,NAMUR,WALLONIE
5550,Mouzaive,Oui,VRESSE-SUR-SEMOIS,NAMUR,WALLONIE
5550,Nafraiture,Oui,VRESSE-SUR-SEMOIS,NAMUR,WALLONIE
5550,Orchimont,Oui,VRESSE-SUR-SEMOIS,NAMUR,WALLONIE
5550,Pussemange,Oui,VRESSE-SUR-SEMOIS,NAMUR,WALLONIE
5550,Sugny,Oui,VRESSE-SUR-SEMOIS,NAMUR,WALLONIE
5550,Vresse-Sur-Semois,Non,VRESSE-SUR-SEMOIS,NAMUR,WALLONIE
5555,Baillamont,Oui,BIÈVRE,NAMUR,WALLONIE
5555,Bellefontaine,Oui,BIÈVRE,NAMUR,WALLONIE
5555,Bièvre,Non,BIÈVRE,NAMUR,WALLONIE
5555,Cornimont,Oui,BIÈVRE,NAMUR,WALLONIE
5555,Graide,Oui,BIÈVRE,NAMUR,WALLONIE
5555,Gros-Fays,Oui,BIÈVRE,NAMUR,WALLONIE
5555,Monceau-En-Ardenne,Oui,BIÈVRE,NAMUR,WALLONIE
5555,Naomé,Oui,BIÈVRE,NAMUR,WALLONIE
5555,Oizy,Oui,BIÈVRE,NAMUR,WALLONIE
5555,Petit-Fays,Oui,BIÈVRE,NAMUR,WALLONIE
5560,Ciergnon,Oui,HOUYET,NAMUR,WALLONIE
5560,Finnevaux,Oui,HOUYET,NAMUR,WALLONIE
5560,Houyet,Non,HOUYET,NAMUR,WALLONIE
5560,Hulsonniaux,Oui,HOUYET,NAMUR,WALLONIE
5560,Mesnil-Eglise,Oui,HOUYET,NAMUR,WALLONIE
5560,Mesnil-Saint-Blaise,Oui,HOUYET,NAMUR,WALLONIE
5561,Celles,Oui,HOUYET,NAMUR,WALLONIE
5562,Custinne,Oui,HOUYET,NAMUR,WALLONIE
5563,Hour,Oui,HOUYET,NAMUR,WALLONIE
5564,Wanlin,Oui,HOUYET,NAMUR,WALLONIE
5570,Baronville,Oui,BEAURAING,NAMUR,WALLONIE
5570,Beauraing,Non,BEAURAING,NAMUR,WALLONIE
5570,Dion,Oui,BEAURAING,NAMUR,WALLONIE
5570,Felenne,Oui,BEAURAING,NAMUR,WALLONIE
5570,Feschaux,Oui,BEAURAING,NAMUR,WALLONIE
5570,Honnay,Oui,BEAURAING,NAMUR,WALLONIE
5570,Javingue,Oui,BEAURAING,NAMUR,WALLONIE
5570,Vonêche,Oui,BEAURAING,NAMUR,WALLONIE
5570,Wancennes,Oui,BEAURAING,NAMUR,WALLONIE
5570,Winenne,Oui,BEAURAING,NAMUR,WALLONIE
5571,Wiesme,Oui,BEAURAING,NAMUR,WALLONIE
5572,Focant,Oui,BEAURAING,NAMUR,WALLONIE
5573,Martouzin-Neuville,Oui,BEAURAING,NAMUR,WALLONIE
5574,Pondrôme,Oui,BEAURAING,NAMUR,WALLONIE
5575,Bourseigne-Neuve,Oui,GEDINNE,NAMUR,WALLONIE
5575,Bourseigne-Vieille,Oui,GEDINNE,NAMUR,WALLONIE
5575,Gedinne,Non,GEDINNE,NAMUR,WALLONIE
5575,Houdremont,Oui,GEDINNE,NAMUR,WALLONIE
5575,Louette-Saint-Denis,Oui,GEDINNE,NAMUR,WALLONIE
5575,Louette-Saint-Pierre,Oui,GEDINNE,NAMUR,WALLONIE
5575,Malvoisin,Oui,GEDINNE,NAMUR,WALLONIE
5575,Patignies,Oui,GEDINNE,NAMUR,WALLONIE
5575,Rienne,Oui,GEDINNE,NAMUR,WALLONIE
5575,Sart-Custinne,Oui,GEDINNE,NAMUR,WALLONIE
5575,Vencimont,Oui,GEDINNE,NAMUR,WALLONIE
5575,Willerzie,Oui,GEDINNE,NAMUR,WALLONIE
5576,Froidfontaine,Oui,BEAURAING,NAMUR,WALLONIE
5580,Ave-Et-Auffe,Oui,ROCHEFORT,NAMUR,WALLONIE
5580,Buissonville,Oui,ROCHEFORT,NAMUR,WALLONIE
5580,Eprave,Oui,ROCHEFORT,NAMUR,WALLONIE
5580,Han-Sur-Lesse,Oui,ROCHEFORT,NAMUR,WALLONIE
5580,Jemelle,Oui,ROCHEFORT,NAMUR,WALLONIE
5580,Lavaux-Sainte-Anne,Oui,ROCHEFORT,NAMUR,WALLONIE
5580,Lessive,Oui,ROCHEFORT,NAMUR,WALLONIE
5580,Mont-Gauthier,Oui,ROCHEFORT,NAMUR,WALLONIE
5580,Rochefort,Non,ROCHEFORT,NAMUR,WALLONIE
5580,Villers-Sur-Lesse,Oui,ROCHEFORT,NAMUR,WALLONIE
5580,Wavreille,Oui,ROCHEFORT,NAMUR,WALLONIE
5589,Jemelle,,Jemelle,,
5590,Achêne,Oui,CINEY,NAMUR,WALLONIE
5590,Braibant,Oui,CINEY,NAMUR,WALLONIE
5590,Chevetogne,Oui,CINEY,NAMUR,WALLONIE
5590,Ciney,Non,CINEY,NAMUR,WALLONIE
5590,Conneux,Oui,CINEY,NAMUR,WALLONIE
5590,Haversin,Oui,CINEY,NAMUR,WALLONIE
5590,Leignon,Oui,CINEY,NAMUR,WALLONIE
5590,Pessoux,Oui,CINEY,NAMUR,WALLONIE
5590,Serinchamps,Oui,CINEY,NAMUR,WALLONIE
5590,Sovet,Oui,CINEY,NAMUR,WALLONIE
5600,Fagnolle,Oui,PHILIPPEVILLE,NAMUR,WALLONIE
5600,Franchimont,Oui,PHILIPPEVILLE,NAMUR,WALLONIE
5600,Jamagne,Oui,PHILIPPEVILLE,NAMUR,WALLONIE
5600,Jamiolle,Oui,PHILIPPEVILLE,NAMUR,WALLONIE
5600,Merlemont,Oui,PHILIPPEVILLE,NAMUR,WALLONIE
5600,Neuville,Oui,PHILIPPEVILLE,NAMUR,WALLONIE
5600,Omezée,Oui,PHILIPPEVILLE,NAMUR,WALLONIE
5600,Philippeville,Non,PHILIPPEVILLE,NAMUR,WALLONIE
5600,Roly,Oui,PHILIPPEVILLE,NAMUR,WALLONIE
5600,Romedenne,Oui,PHILIPPEVILLE,NAMUR,WALLONIE
5600,Samart,Oui,PHILIPPEVILLE,NAMUR,WALLONIE
5600,Sart-En-Fagne,Oui,PHILIPPEVILLE,NAMUR,WALLONIE
5600,Sautour,Oui,PHILIPPEVILLE,NAMUR,WALLONIE
5600,Surice,Oui,PHILIPPEVILLE,NAMUR,WALLONIE
5600,Villers-En-Fagne,Oui,PHILIPPEVILLE,NAMUR,WALLONIE
5600,Villers-Le-Gambon,Oui,PHILIPPEVILLE,NAMUR,WALLONIE
5600,Vodecée,Oui,PHILIPPEVILLE,NAMUR,WALLONIE
5620,Corenne,Oui,FLORENNES,NAMUR,WALLONIE
5620,Flavion,Oui,FLORENNES,NAMUR,WALLONIE
5620,Florennes,Non,FLORENNES,NAMUR,WALLONIE
5620,Hemptinne-Lez-Florennes,Oui,FLORENNES,NAMUR,WALLONIE
5620,Morville,Oui,FLORENNES,NAMUR,WALLONIE
5620,Rosée,Oui,FLORENNES,NAMUR,WALLONIE
5620,Saint-Aubin,Oui,FLORENNES,NAMUR,WALLONIE
5621,Hanzinelle,Oui,FLORENNES,NAMUR,WALLONIE
5621,Hanzinne,Oui,FLORENNES,NAMUR,WALLONIE
5621,Morialmé,Oui,FLORENNES,NAMUR,WALLONIE
5621,Thy-Le-Baudouin,Oui,FLORENNES,NAMUR,WALLONIE
5630,Cerfontaine,Non,CERFONTAINE,NAMUR,WALLONIE
5630,Daussois,Oui,CERFONTAINE,NAMUR,WALLONIE
5630,Senzeilles,Oui,CERFONTAINE,NAMUR,WALLONIE
5630,Silenrieux,Oui,CERFONTAINE,NAMUR,WALLONIE
5630,Soumoy,Oui,CERFONTAINE,NAMUR,WALLONIE
5630,Villers-Deux-Eglises,Oui,CERFONTAINE,NAMUR,WALLONIE
5640,Biesme,Oui,METTET,NAMUR,WALLONIE
5640,Biesmerée,Oui,METTET,NAMUR,WALLONIE
5640,Graux,Oui,METTET,NAMUR,WALLONIE
5640,Mettet,Non,METTET,NAMUR,WALLONIE
5640,Oret,Oui,METTET,NAMUR,WALLONIE
5640,Saint-Gérard,Oui,METTET,NAMUR,WALLONIE
5641,Furnaux,Oui,METTET,NAMUR,WALLONIE
5644,Ermeton-Sur-Biert,Oui,METTET,NAMUR,WALLONIE
5646,Stave,Oui,METTET,NAMUR,WALLONIE
5650,Castillon,Oui,WALCOURT,NAMUR,WALLONIE
5650,Chastrès,Oui,WALCOURT,NAMUR,WALLONIE
5650,Clermont,Oui,WALCOURT,NAMUR,WALLONIE
5650,Fontenelle,Oui,WALCOURT,NAMUR,WALLONIE
5650,Fraire,Oui,WALCOURT,NAMUR,WALLONIE
5650,Pry,Oui,WALCOURT,NAMUR,WALLONIE
5650,Vogenée,Oui,WALCOURT,NAMUR,WALLONIE
5650,Walcourt,Non,WALCOURT,NAMUR,WALLONIE
5650,Yves-Gomezée,Oui,WALCOURT,NAMUR,WALLONIE
5651,Berzée,Oui,WALCOURT,NAMUR,WALLONIE
5651,Gourdinne,Oui,WALCOURT,NAMUR,WALLONIE
5651,Laneffe,Oui,WALCOURT,NAMUR,WALLONIE
5651,Rognée,Oui,WALCOURT,NAMUR,WALLONIE
5651,Somzée,Oui,WALCOURT,NAMUR,WALLONIE
5651,Tarcienne,Oui,WALCOURT,NAMUR,WALLONIE
5651,Thy-Le-Château,Oui,WALCOURT,NAMUR,WALLONIE
5660,Aublain,Oui,COUVIN,NAMUR,WALLONIE
5660,Boussu-En-Fagne,Oui,COUVIN,NAMUR,WALLONIE
5660,Brûly,Oui,COUVIN,NAMUR,WALLONIE
5660,Brûly-De-Pesche,Oui,COUVIN,NAMUR,WALLONIE
5660,Couvin,Non,COUVIN,NAMUR,WALLONIE
5660,Cul-Des-Sarts,Oui,COUVIN,NAMUR,WALLONIE
5660,Dailly,Oui,COUVIN,NAMUR,WALLONIE
5660,Frasnes,Oui,COUVIN,NAMUR,WALLONIE
5660,Gonrieux,Oui,COUVIN,NAMUR,WALLONIE
5660,Mariembourg,Oui,COUVIN,NAMUR,WALLONIE
5660,Pesche,Oui,COUVIN,NAMUR,WALLONIE
5660,Pétigny,Oui,COUVIN,NAMUR,WALLONIE
5660,Petite-Chapelle,Oui,COUVIN,NAMUR,WALLONIE
5660,Presgaux,Oui,COUVIN,NAMUR,WALLONIE
5670,Dourbes,Oui,VIROINVAL,NAMUR,WALLONIE
5670,Le Mesnil,Oui,VIROINVAL,NAMUR,WALLONIE
5670,Mazée,Oui,VIROINVAL,NAMUR,WALLONIE
5670,Nismes,Oui,VIROINVAL,NAMUR,WALLONIE
5670,Oignies-En-Thiérache,Oui,VIROINVAL,NAMUR,WALLONIE
5670,Olloy-Sur-Viroin,Oui,VIROINVAL,NAMUR,WALLONIE
5670,Treignes,Oui,VIROINVAL,NAMUR,WALLONIE
5670,Vierves-Sur-Viroin,Oui,VIROINVAL,NAMUR,WALLONIE
5680,Doische,Non,DOISCHE,NAMUR,WALLONIE
5680,Gimnée,Oui,DOISCHE,NAMUR,WALLONIE
5680,Gochenée,Oui,DOISCHE,NAMUR,WALLONIE
5680,Matagne-La-Grande,Oui,DOISCHE,NAMUR,WALLONIE
5680,Matagne-La-Petite,Oui,DOISCHE,NAMUR,WALLONIE
5680,Niverlée,Oui,DOISCHE,NAMUR,WALLONIE
5680,Romerée,Oui,DOISCHE,NAMUR,WALLONIE
5680,Soulme,Oui,DOISCHE,NAMUR,WALLONIE
5680,Vaucelles,Oui,DOISCHE,NAMUR,WALLONIE
5680,Vodelée,Oui,DOISCHE,NAMUR,WALLONIE
6000,Charleroi,Non,CHARLEROI,HAINAUT,WALLONIE
6001,Marcinelle,Oui,CHARLEROI,HAINAUT,WALLONIE
6010,Couillet,Oui,CHARLEROI,HAINAUT,WALLONIE
6020,Dampremy,Oui,CHARLEROI,HAINAUT,WALLONIE
6030,Goutroux,Oui,CHARLEROI,HAINAUT,WALLONIE
6030,Marchienne-Au-Pont,Oui,CHARLEROI,HAINAUT,WALLONIE
6031,Monceau-Sur-Sambre,Oui,CHARLEROI,HAINAUT,WALLONIE
6032,Mont-Sur-Marchienne,Oui,CHARLEROI,HAINAUT,WALLONIE
6040,Jumet,Oui,CHARLEROI,HAINAUT,WALLONIE
6041,Gosselies,Oui,CHARLEROI,HAINAUT,WALLONIE
6042,Lodelinsart,Oui,CHARLEROI,HAINAUT,WALLONIE
6043,Ransart,Oui,CHARLEROI,HAINAUT,WALLONIE
6044,Roux,Oui,CHARLEROI,HAINAUT,WALLONIE
6060,Gilly,Oui,CHARLEROI,HAINAUT,WALLONIE
6061,Montignies-Sur-Sambre,Oui,CHARLEROI,HAINAUT,WALLONIE
6075,CSM Charleroi X,,CSM Charleroi X,,
6099,Charleroi X,,Charleroi X,,
6110,Montigny-Le-Tilleul,Non,MONTIGNY-LE-TILLEUL,HAINAUT,WALLONIE
6111,Landelies,Oui,MONTIGNY-LE-TILLEUL,HAINAUT,WALLONIE
6120,Cour-Sur-Heure,Oui,HAM-SUR-HEURE,HAINAUT,WALLONIE
6120,Ham-Sur-Heure,Non,HAM-SUR-HEURE,HAINAUT,WALLONIE
6120,Jamioulx,Oui,HAM-SUR-HEURE,HAINAUT,WALLONIE
6120,Marbaix,Oui,HAM-SUR-HEURE,HAINAUT,WALLONIE
6120,Nalinnes,Oui,HAM-SUR-HEURE,HAINAUT,WALLONIE
6140,Fontaine-L'Evêque,Non,FONTAINE-L'EVÊQUE,HAINAUT,WALLONIE
6141,Forchies-La-Marche,Oui,FONTAINE-L'EVÊQUE,HAINAUT,WALLONIE
6142,Leernes,Oui,FONTAINE-L'EVÊQUE,HAINAUT,WALLONIE
6150,Anderlues,Non,ANDERLUES,HAINAUT,WALLONIE
6180,Courcelles,Non,COURCELLES,HAINAUT,WALLONIE
6181,Gouy-Lez-Piéton,Oui,COURCELLES,HAINAUT,WALLONIE
6182,Souvret,Oui,COURCELLES,HAINAUT,WALLONIE
6183,Trazegnies,Oui,COURCELLES,HAINAUT,WALLONIE
6200,Bouffioulx,Oui,CHÂTELET,HAINAUT,WALLONIE
6200,Châtelet,Non,CHÂTELET,HAINAUT,WALLONIE
6200,Châtelineau,Oui,CHÂTELET,HAINAUT,WALLONIE
6210,Frasnes-Lez-Gosselies,Oui,LES BONS VILLERS,HAINAUT,WALLONIE
6210,Rèves,Oui,LES BONS VILLERS,HAINAUT,WALLONIE
6210,Villers-Perwin,Oui,LES BONS VILLERS,HAINAUT,WALLONIE
6210,Wayaux,Oui,LES BONS VILLERS,HAINAUT,WALLONIE
6211,Mellet,Oui,LES BONS VILLERS,HAINAUT,WALLONIE
6220,Fleurus,Non,FLEURUS,HAINAUT,WALLONIE
6220,Heppignies,Oui,FLEURUS,HAINAUT,WALLONIE
6220,Lambusart,Oui,FLEURUS,HAINAUT,WALLONIE
6220,Wangenies,Oui,FLEURUS,HAINAUT,WALLONIE
6221,Saint-Amand,Oui,FLEURUS,HAINAUT,WALLONIE
6222,Brye,Oui,FLEURUS,HAINAUT,WALLONIE
6223,Wagnelée,Oui,FLEURUS,HAINAUT,WALLONIE
6224,Wanfercée-Baulet,Oui,FLEURUS,HAINAUT,WALLONIE
6230,Buzet,Oui,PONT-À-CELLES,HAINAUT,WALLONIE
6230,Obaix,Oui,PONT-À-CELLES,HAINAUT,WALLONIE
6230,Pont-À-Celles,Non,PONT-À-CELLES,HAINAUT,WALLONIE
6230,Thiméon,Oui,PONT-À-CELLES,HAINAUT,WALLONIE
6230,Viesville,Oui,PONT-À-CELLES,HAINAUT,WALLONIE
6238,Liberchies,Oui,PONT-À-CELLES,HAINAUT,WALLONIE
6238,Luttre,Oui,PONT-À-CELLES,HAINAUT,WALLONIE
6240,Farciennes,Non,FARCIENNES,HAINAUT,WALLONIE
6240,Pironchamps,Oui,FARCIENNES,HAINAUT,WALLONIE
6250,Aiseau,Oui,AISEAU-PRESLES,HAINAUT,WALLONIE
6250,Pont-De-Loup,Oui,AISEAU-PRESLES,HAINAUT,WALLONIE
6250,Presles,Oui,AISEAU-PRESLES,HAINAUT,WALLONIE
6250,Roselies,Oui,AISEAU-PRESLES,HAINAUT,WALLONIE
6280,Acoz,Oui,GERPINNES,HAINAUT,WALLONIE
6280,Gerpinnes,Non,GERPINNES,HAINAUT,WALLONIE
6280,Gougnies,Oui,GERPINNES,HAINAUT,WALLONIE
6280,Joncret,Oui,GERPINNES,HAINAUT,WALLONIE
6280,Loverval,Oui,GERPINNES,HAINAUT,WALLONIE
6280,Villers-Poterie,Oui,GERPINNES,HAINAUT,WALLONIE
6440,Boussu-Lez-Walcourt,Oui,FROIDCHAPELLE,HAINAUT,WALLONIE
6440,Fourbechies,Oui,FROIDCHAPELLE,HAINAUT,WALLONIE
6440,Froidchapelle,Non,FROIDCHAPELLE,HAINAUT,WALLONIE
6440,Vergnies,Oui,FROIDCHAPELLE,HAINAUT,WALLONIE
6441,Erpion,Oui,FROIDCHAPELLE,HAINAUT,WALLONIE
6460,Bailièvre,Oui,CHIMAY,HAINAUT,WALLONIE
6460,Chimay,Non,CHIMAY,HAINAUT,WALLONIE
6460,Robechies,Oui,CHIMAY,HAINAUT,WALLONIE
6460,Saint-Remy,Oui,CHIMAY,HAINAUT,WALLONIE
6460,Salles,Oui,CHIMAY,HAINAUT,WALLONIE
6460,Villers-La-Tour,Oui,CHIMAY,HAINAUT,WALLONIE
6461,Virelles,Oui,CHIMAY,HAINAUT,WALLONIE
6462,Vaulx-Lez-Chimay,Oui,CHIMAY,HAINAUT,WALLONIE
6463,Lompret,Oui,CHIMAY,HAINAUT,WALLONIE
6464,Baileux,Oui,CHIMAY,HAINAUT,WALLONIE
6464,Bourlers,Oui,CHIMAY,HAINAUT,WALLONIE
6464,Forges,Oui,CHIMAY,HAINAUT,WALLONIE
6464,L'Escaillère,Oui,CHIMAY,HAINAUT,WALLONIE
6464,Rièzes,Oui,CHIMAY,HAINAUT,WALLONIE
6470,Grandrieu,Oui,SIVRY-RANCE,HAINAUT,WALLONIE
6470,Montbliart,Oui,SIVRY-RANCE,HAINAUT,WALLONIE
6470,Rance,Oui,SIVRY-RANCE,HAINAUT,WALLONIE
6470,Sautin,Oui,SIVRY-RANCE,HAINAUT,WALLONIE
6470,Sivry,Oui,SIVRY-RANCE,HAINAUT,WALLONIE
6500,Barbençon,Oui,BEAUMONT,HAINAUT,WALLONIE
6500,Beaumont,Non,BEAUMONT,HAINAUT,WALLONIE
6500,Leugnies,Oui,BEAUMONT,HAINAUT,WALLONIE
6500,Leval-Chaudeville,Oui,BEAUMONT,HAINAUT,WALLONIE
6500,Renlies,Oui,BEAUMONT,HAINAUT,WALLONIE
6500,Solre-Saint-Géry,Oui,BEAUMONT,HAINAUT,WALLONIE
6500,Thirimont,Oui,BEAUMONT,HAINAUT,WALLONIE
6511,Strée,Oui,BEAUMONT,HAINAUT,WALLONIE
6530,Leers-Et-Fosteau,Oui,THUIN,HAINAUT,WALLONIE
6530,Thuin,Non,THUIN,HAINAUT,WALLONIE
6531,Biesme-Sous-Thuin,Oui,THUIN,HAINAUT,WALLONIE
6532,Ragnies,Oui,THUIN,HAINAUT,WALLONIE
6533,Biercée,Oui,THUIN,HAINAUT,WALLONIE
6534,Gozée,Oui,THUIN,HAINAUT,WALLONIE
6536,Donstiennes,Oui,THUIN,HAINAUT,WALLONIE
6536,Thuillies,Oui,THUIN,HAINAUT,WALLONIE
6540,Lobbes,Non,LOBBES,HAINAUT,WALLONIE
6540,Mont-Sainte-Geneviève,Oui,LOBBES,HAINAUT,WALLONIE
6542,Sars-La-Buissière,Oui,LOBBES,HAINAUT,WALLONIE
6543,Bienne-Lez-Happart,Oui,LOBBES,HAINAUT,WALLONIE
6560,Bersillies-L'Abbaye,Oui,ERQUELINNES,HAINAUT,WALLONIE
6560,Erquelinnes,Non,ERQUELINNES,HAINAUT,WALLONIE
6560,Grand-Reng,Oui,ERQUELINNES,HAINAUT,WALLONIE
6560,Hantes-Wihéries,Oui,ERQUELINNES,HAINAUT,WALLONIE
6560,Montignies-Saint-Christophe,Oui,ERQUELINNES,HAINAUT,WALLONIE
6560,Solre-Sur-Sambre,Oui,ERQUELINNES,HAINAUT,WALLONIE
6567,Fontaine-Valmont,Oui,MERBES-LE-CHÂTEAU,HAINAUT,WALLONIE
6567,Labuissière,Oui,MERBES-LE-CHÂTEAU,HAINAUT,WALLONIE
6567,Merbes-Le-Château,Non,MERBES-LE-CHÂTEAU,HAINAUT,WALLONIE
6567,Merbes-Sainte-Marie,Oui,MERBES-LE-CHÂTEAU,HAINAUT,WALLONIE
6590,Momignies,Non,MOMIGNIES,HAINAUT,WALLONIE
6591,Macon,Oui,MOMIGNIES,HAINAUT,WALLONIE
6592,Monceau-Imbrechies,Oui,MOMIGNIES,HAINAUT,WALLONIE
6593,Macquenoise,Oui,MOMIGNIES,HAINAUT,WALLONIE
6594,Beauwelz,Oui,MOMIGNIES,HAINAUT,WALLONIE
6596,Forge-Philippe,Oui,MOMIGNIES,HAINAUT,WALLONIE
6596,Seloignes,Oui,MOMIGNIES,HAINAUT,WALLONIE
6600,Bastogne,Non,BASTOGNE,LUXEMBOURG,WALLONIE
6600,Longvilly,Oui,BASTOGNE,LUXEMBOURG,WALLONIE
6600,Noville,Oui,BASTOGNE,LUXEMBOURG,WALLONIE
6600,Villers-La-Bonne-Eau,Oui,BASTOGNE,LUXEMBOURG,WALLONIE
6600,Wardin,Oui,BASTOGNE,LUXEMBOURG,WALLONIE
6630,Martelange,Non,MARTELANGE,LUXEMBOURG,WALLONIE
6637,Fauvillers,Non,FAUVILLERS,LUXEMBOURG,WALLONIE
6637,Hollange,Oui,FAUVILLERS,LUXEMBOURG,WALLONIE
6637,Tintange,Oui,FAUVILLERS,LUXEMBOURG,WALLONIE
6640,Hompré,Oui,VAUX-SUR-SÛRE,LUXEMBOURG,WALLONIE
6640,Morhet,Oui,VAUX-SUR-SÛRE,LUXEMBOURG,WALLONIE
6640,Nives,Oui,VAUX-SUR-SÛRE,LUXEMBOURG,WALLONIE
6640,Sibret,Oui,VAUX-SUR-SÛRE,LUXEMBOURG,WALLONIE
6640,Vaux-Lez-Rosières,Oui,VAUX-SUR-SÛRE,LUXEMBOURG,WALLONIE
6640,Vaux-Sur-Sûre,Non,VAUX-SUR-SÛRE,LUXEMBOURG,WALLONIE
6642,Juseret,Oui,VAUX-SUR-SÛRE,LUXEMBOURG,WALLONIE
6660,Houffalize,Non,HOUFFALIZE,LUXEMBOURG,WALLONIE
6660,Nadrin,Oui,HOUFFALIZE,LUXEMBOURG,WALLONIE
6661,Mont,Oui,HOUFFALIZE,LUXEMBOURG,WALLONIE
6661,Tailles,Oui,HOUFFALIZE,LUXEMBOURG,WALLONIE
6662,Tavigny,Oui,HOUFFALIZE,LUXEMBOURG,WALLONIE
6663,Mabompré,Oui,HOUFFALIZE,LUXEMBOURG,WALLONIE
6666,Wibrin,Oui,HOUFFALIZE,LUXEMBOURG,WALLONIE
6670,Gouvy,Non,GOUVY,LUXEMBOURG,WALLONIE
6670,Limerlé,Oui,GOUVY,LUXEMBOURG,WALLONIE
6671,Bovigny,Oui,GOUVY,LUXEMBOURG,WALLONIE
6672,Beho,Oui,GOUVY,LUXEMBOURG,WALLONIE
6673,Cherain,Oui,GOUVY,LUXEMBOURG,WALLONIE
6674,Montleban,Oui,GOUVY,LUXEMBOURG,WALLONIE
6680,Amberloup,Oui,SAINTE-ODE,LUXEMBOURG,WALLONIE
6680,Tillet,Oui,SAINTE-ODE,LUXEMBOURG,WALLONIE
6681,Lavacherie,Oui,SAINTE-ODE,LUXEMBOURG,WALLONIE
6686,Flamierge,Oui,BERTOGNE,LUXEMBOURG,WALLONIE
6687,Bertogne,Non,BERTOGNE,LUXEMBOURG,WALLONIE
6688,Longchamps,Oui,BERTOGNE,LUXEMBOURG,WALLONIE
6690,Bihain,Oui,VIELSALM,LUXEMBOURG,WALLONIE
6690,Vielsalm,Non,VIELSALM,LUXEMBOURG,WALLONIE
6692,Petit-Thier,Oui,VIELSALM,LUXEMBOURG,WALLONIE
6698,Grand-Halleux,Oui,VIELSALM,LUXEMBOURG,WALLONIE
6700,Arlon,Non,ARLON,LUXEMBOURG,WALLONIE
6700,Bonnert,Oui,ARLON,LUXEMBOURG,WALLONIE
6700,Heinsch,Oui,ARLON,LUXEMBOURG,WALLONIE
6700,Toernich,Oui,ARLON,LUXEMBOURG,WALLONIE
6704,Guirsch,Oui,ARLON,LUXEMBOURG,WALLONIE
6706,Autelbas,Oui,ARLON,LUXEMBOURG,WALLONIE
6717,Attert,Non,ATTERT,LUXEMBOURG,WALLONIE
6717,Nobressart,Oui,ATTERT,LUXEMBOURG,WALLONIE
6717,Nothomb,Oui,ATTERT,LUXEMBOURG,WALLONIE
6717,Thiaumont,Oui,ATTERT,LUXEMBOURG,WALLONIE
6717,Tontelange,Oui,ATTERT,LUXEMBOURG,WALLONIE
6720,Habay-La-Neuve,Oui,HABAY,LUXEMBOURG,WALLONIE
6720,Hachy,Oui,HABAY,LUXEMBOURG,WALLONIE
6721,Anlier,Oui,HABAY,LUXEMBOURG,WALLONIE
6723,Habay-La-Vieille,Oui,HABAY,LUXEMBOURG,WALLONIE
6724,Houdemont,Oui,HABAY,LUXEMBOURG,WALLONIE
6724,Rulles,Oui,HABAY,LUXEMBOURG,WALLONIE
6730,Bellefontaine,Oui,TINTIGNY,LUXEMBOURG,WALLONIE
6730,Rossignol,Oui,TINTIGNY,LUXEMBOURG,WALLONIE
6730,Saint-Vincent,Oui,TINTIGNY,LUXEMBOURG,WALLONIE
6730,Tintigny,Non,TINTIGNY,LUXEMBOURG,WALLONIE
6740,Etalle,Non,ETALLE,LUXEMBOURG,WALLONIE
6740,Sainte-Marie-Sur-Semois,Oui,ETALLE,LUXEMBOURG,WALLONIE
6740,Villers-Sur-Semois,Oui,ETALLE,LUXEMBOURG,WALLONIE
6741,Vance,Oui,ETALLE,LUXEMBOURG,WALLONIE
6742,Chantemelle,Oui,ETALLE,LUXEMBOURG,WALLONIE
6743,Buzenol,Oui,ETALLE,LUXEMBOURG,WALLONIE
6747,Châtillon,Oui,SAINT-LÉGER,LUXEMBOURG,WALLONIE
6747,Meix-Le-Tige,Oui,SAINT-LÉGER,LUXEMBOURG,WALLONIE
6747,Saint-Léger,Non,SAINT-LÉGER,LUXEMBOURG,WALLONIE
6750,Musson,Non,MUSSON,LUXEMBOURG,WALLONIE
6750,Mussy-La-Ville,Oui,MUSSON,LUXEMBOURG,WALLONIE
6750,Signeulx,Oui,MUSSON,LUXEMBOURG,WALLONIE
6760,Bleid,Oui,VIRTON,LUXEMBOURG,WALLONIE
6760,Ethe,Oui,VIRTON,LUXEMBOURG,WALLONIE
6760,Ruette,Oui,VIRTON,LUXEMBOURG,WALLONIE
6760,Virton,Non,VIRTON,LUXEMBOURG,WALLONIE
6761,Latour,Oui,VIRTON,LUXEMBOURG,WALLONIE
6762,Saint-Mard,Oui,VIRTON,LUXEMBOURG,WALLONIE
6767,Dampicourt,Oui,ROUVROY,LUXEMBOURG,WALLONIE
6767,Harnoncourt,Oui,ROUVROY,LUXEMBOURG,WALLONIE
6767,Lamorteau,Oui,ROUVROY,LUXEMBOURG,WALLONIE
6767,Torgny,Oui,ROUVROY,LUXEMBOURG,WALLONIE
6769,Gérouville,Oui,MEIX-DEVANT-VIRTON,LUXEMBOURG,WALLONIE
6769,Meix-Devant-Virton,Non,MEIX-DEVANT-VIRTON,LUXEMBOURG,WALLONIE
6769,Robelmont,Oui,MEIX-DEVANT-VIRTON,LUXEMBOURG,WALLONIE
6769,Sommethonne,Oui,MEIX-DEVANT-VIRTON,LUXEMBOURG,WALLONIE
6769,Villers-La-Loue,Oui,MEIX-DEVANT-VIRTON,LUXEMBOURG,WALLONIE
6780,Hondelange,Oui,MESSANCY,LUXEMBOURG,WALLONIE
6780,Messancy,Non,MESSANCY,LUXEMBOURG,WALLONIE
6780,Wolkrange,Oui,MESSANCY,LUXEMBOURG,WALLONIE
6781,Sélange,Oui,MESSANCY,LUXEMBOURG,WALLONIE
6782,Habergy,Oui,MESSANCY,LUXEMBOURG,WALLONIE
6790,Aubange,Non,AUBANGE,LUXEMBOURG,WALLONIE
6791,Athus,Oui,AUBANGE,LUXEMBOURG,WALLONIE
6792,Halanzy,Oui,AUBANGE,LUXEMBOURG,WALLONIE
6792,Rachecourt,Oui,AUBANGE,LUXEMBOURG,WALLONIE
6800,Bras,Oui,LIBRAMONT-CHEVIGNY,LUXEMBOURG,WALLONIE
6800,Freux,Oui,LIBRAMONT-CHEVIGNY,LUXEMBOURG,WALLONIE
6800,Libramont-Chevigny,Non,LIBRAMONT-CHEVIGNY,LUXEMBOURG,WALLONIE
6800,Moircy,Oui,LIBRAMONT-CHEVIGNY,LUXEMBOURG,WALLONIE
6800,Recogne,Oui,LIBRAMONT-CHEVIGNY,LUXEMBOURG,WALLONIE
6800,Remagne,Oui,LIBRAMONT-CHEVIGNY,LUXEMBOURG,WALLONIE
6800,Saint-Pierre,Oui,LIBRAMONT-CHEVIGNY,LUXEMBOURG,WALLONIE
6800,Sainte-Marie-Chevigny,Oui,LIBRAMONT-CHEVIGNY,LUXEMBOURG,WALLONIE
6810,Chiny,Non,CHINY,LUXEMBOURG,WALLONIE
6810,Izel,Oui,CHINY,LUXEMBOURG,WALLONIE
6810,Jamoigne,Oui,CHINY,LUXEMBOURG,WALLONIE
6811,Les Bulles,Oui,CHINY,LUXEMBOURG,WALLONIE
6812,Suxy,Oui,CHINY,LUXEMBOURG,WALLONIE
6813,Termes,Oui,CHINY,LUXEMBOURG,WALLONIE
6820,Florenville,Non,FLORENVILLE,LUXEMBOURG,WALLONIE
6820,Fontenoille,Oui,FLORENVILLE,LUXEMBOURG,WALLONIE
6820,Muno,Oui,FLORENVILLE,LUXEMBOURG,WALLONIE
6820,Sainte-Cécile,Oui,FLORENVILLE,LUXEMBOURG,WALLONIE
6821,Lacuisine,Oui,FLORENVILLE,LUXEMBOURG,WALLONIE
6823,Villers-Devant-Orval,Oui,FLORENVILLE,LUXEMBOURG,WALLONIE
6824,Chassepierre,Oui,FLORENVILLE,LUXEMBOURG,WALLONIE
6830,Bouillon,Non,BOUILLON,LUXEMBOURG,WALLONIE
6830,Les Hayons,Oui,BOUILLON,LUXEMBOURG,WALLONIE
6830,Poupehan,Oui,BOUILLON,LUXEMBOURG,WALLONIE
6830,Rochehaut,Oui,BOUILLON,LUXEMBOURG,WALLONIE
6831,Noirfontaine,Oui,BOUILLON,LUXEMBOURG,WALLONIE
6832,Sensenruth,Oui,BOUILLON,LUXEMBOURG,WALLONIE
6833,Ucimont,Oui,BOUILLON,LUXEMBOURG,WALLONIE
6833,Vivy,Oui,BOUILLON,LUXEMBOURG,WALLONIE
6834,Bellevaux,Oui,BOUILLON,LUXEMBOURG,WALLONIE
6836,Dohan,Oui,BOUILLON,LUXEMBOURG,WALLONIE
6838,Corbion,Oui,BOUILLON,LUXEMBOURG,WALLONIE
6840,Grandvoir,Oui,NEUFCHÂTEAU,LUXEMBOURG,WALLONIE
6840,Grapfontaine,Oui,NEUFCHÂTEAU,LUXEMBOURG,WALLONIE
6840,Hamipré,Oui,NEUFCHÂTEAU,LUXEMBOURG,WALLONIE
6840,Longlier,Oui,NEUFCHÂTEAU,LUXEMBOURG,WALLONIE
6840,Neufchâteau,Non,NEUFCHÂTEAU,LUXEMBOURG,WALLONIE
6840,Tournay,Oui,NEUFCHÂTEAU,LUXEMBOURG,WALLONIE
6850,Carlsbourg,Oui,PALISEUL,LUXEMBOURG,WALLONIE
6850,Offagne,Oui,PALISEUL,LUXEMBOURG,WALLONIE
6850,Paliseul,Non,PALISEUL,LUXEMBOURG,WALLONIE
6851,Nollevaux,Oui,PALISEUL,LUXEMBOURG,WALLONIE
6852,Maissin,Oui,PALISEUL,LUXEMBOURG,WALLONIE
6852,Opont,Oui,PALISEUL,LUXEMBOURG,WALLONIE
6853,Framont,Oui,PALISEUL,LUXEMBOURG,WALLONIE
6856,Fays-Les-Veneurs,Oui,PALISEUL,LUXEMBOURG,WALLONIE
6860,Assenois,Oui,LÉGLISE,LUXEMBOURG,WALLONIE
6860,Ebly,Oui,LÉGLISE,LUXEMBOURG,WALLONIE
6860,Léglise,Non,LÉGLISE,LUXEMBOURG,WALLONIE
6860,Mellier,Oui,LÉGLISE,LUXEMBOURG,WALLONIE
6860,Witry,Oui,LÉGLISE,LUXEMBOURG,WALLONIE
6870,Arville,Oui,SAINT-HUBERT,LUXEMBOURG,WALLONIE
6870,Awenne,Oui,SAINT-HUBERT,LUXEMBOURG,WALLONIE
6870,Hatrival,Oui,SAINT-HUBERT,LUXEMBOURG,WALLONIE
6870,Mirwart,Oui,SAINT-HUBERT,LUXEMBOURG,WALLONIE
6870,Saint-Hubert,Non,SAINT-HUBERT,LUXEMBOURG,WALLONIE
6870,Vesqueville,Oui,SAINT-HUBERT,LUXEMBOURG,WALLONIE
6880,Auby-Sur-Semois,Oui,BERTRIX,LUXEMBOURG,WALLONIE
6880,Bertrix,Non,BERTRIX,LUXEMBOURG,WALLONIE
6880,Cugnon,Oui,BERTRIX,LUXEMBOURG,WALLONIE
6880,Jehonville,Oui,BERTRIX,LUXEMBOURG,WALLONIE
6880,Orgeo,Oui,BERTRIX,LUXEMBOURG,WALLONIE
6887,Herbeumont,Non,HERBEUMONT,LUXEMBOURG,WALLONIE
6887,Saint-Médard,Oui,HERBEUMONT,LUXEMBOURG,WALLONIE
6887,Straimont,Oui,HERBEUMONT,LUXEMBOURG,WALLONIE
6890,Anloy,Oui,LIBIN,LUXEMBOURG,WALLONIE
6890,Libin,Non,LIBIN,LUXEMBOURG,WALLONIE
6890,Ochamps,Oui,LIBIN,LUXEMBOURG,WALLONIE
6890,Redu,Oui,LIBIN,LUXEMBOURG,WALLONIE
6890,Smuid,Oui,LIBIN,LUXEMBOURG,WALLONIE
6890,Transinne,Oui,LIBIN,LUXEMBOURG,WALLONIE
6890,Villance,Oui,LIBIN,LUXEMBOURG,WALLONIE
6900,Aye,Oui,MARCHE-EN-FAMENNE,LUXEMBOURG,WALLONIE
6900,Hargimont,Oui,MARCHE-EN-FAMENNE,LUXEMBOURG,WALLONIE
6900,Humain,Oui,MARCHE-EN-FAMENNE,LUXEMBOURG,WALLONIE
6900,Marche-En-Famenne,Non,MARCHE-EN-FAMENNE,LUXEMBOURG,WALLONIE
6900,On,Oui,MARCHE-EN-FAMENNE,LUXEMBOURG,WALLONIE
6900,Roy,Oui,MARCHE-EN-FAMENNE,LUXEMBOURG,WALLONIE
6900,Waha,Oui,MARCHE-EN-FAMENNE,LUXEMBOURG,WALLONIE
6920,Sohier,Oui,WELLIN,LUXEMBOURG,WALLONIE
6920,Wellin,Non,WELLIN,LUXEMBOURG,WALLONIE
6921,Chanly,Oui,WELLIN,LUXEMBOURG,WALLONIE
6922,Halma,Oui,WELLIN,LUXEMBOURG,WALLONIE
6924,Lomprez,Oui,WELLIN,LUXEMBOURG,WALLONIE
6927,Bure,Oui,TELLIN,LUXEMBOURG,WALLONIE
6927,Grupont,Oui,TELLIN,LUXEMBOURG,WALLONIE
6927,Resteigne,Oui,TELLIN,LUXEMBOURG,WALLONIE
6927,Tellin,Non,TELLIN,LUXEMBOURG,WALLONIE
6929,Daverdisse,Non,DAVERDISSE,LUXEMBOURG,WALLONIE
6929,Gembes,Oui,DAVERDISSE,LUXEMBOURG,WALLONIE
6929,Haut-Fays,Oui,DAVERDISSE,LUXEMBOURG,WALLONIE
6929,Porcheresse,Oui,DAVERDISSE,LUXEMBOURG,WALLONIE
6940,Barvaux-Sur-Ourthe,Oui,DURBUY,LUXEMBOURG,WALLONIE
6940,Durbuy,Non,DURBUY,LUXEMBOURG,WALLONIE
6940,Grandhan,Oui,DURBUY,LUXEMBOURG,WALLONIE
6940,Septon,Oui,DURBUY,LUXEMBOURG,WALLONIE
6940,Wéris,Oui,DURBUY,LUXEMBOURG,WALLONIE
6941,Bende,Oui,DURBUY,LUXEMBOURG,WALLONIE
6941,Bomal-Sur-Ourthe,Oui,DURBUY,LUXEMBOURG,WALLONIE
6941,Borlon,Oui,DURBUY,LUXEMBOURG,WALLONIE
6941,Heyd,Oui,DURBUY,LUXEMBOURG,WALLONIE
6941,Izier,Oui,DURBUY,LUXEMBOURG,WALLONIE
6941,Tohogne,Oui,DURBUY,LUXEMBOURG,WALLONIE
6941,Villers-Sainte-Gertrude,Oui,DURBUY,LUXEMBOURG,WALLONIE
6950,Harsin,Oui,NASSOGNE,LUXEMBOURG,WALLONIE
6950,Nassogne,Non,NASSOGNE,LUXEMBOURG,WALLONIE
6951,Bande,Oui,NASSOGNE,LUXEMBOURG,WALLONIE
6952,Grune,Oui,NASSOGNE,LUXEMBOURG,WALLONIE
6953,Ambly,Oui,NASSOGNE,LUXEMBOURG,WALLONIE
6953,Forrières,Oui,NASSOGNE,LUXEMBOURG,WALLONIE
6953,Lesterny,Oui,NASSOGNE,LUXEMBOURG,WALLONIE
6953,Masbourg,Oui,NASSOGNE,LUXEMBOURG,WALLONIE
6960,Dochamps,Oui,MANHAY,LUXEMBOURG,WALLONIE
6960,Grandménil,Oui,MANHAY,LUXEMBOURG,WALLONIE
6960,Harre,Oui,MANHAY,LUXEMBOURG,WALLONIE
6960,Malempré,Oui,MANHAY,LUXEMBOURG,WALLONIE
6960,Odeigne,Oui,MANHAY,LUXEMBOURG,WALLONIE
6960,Vaux-Chavanne,Oui,MANHAY,LUXEMBOURG,WALLONIE
6970,Tenneville,Non,TENNEVILLE,LUXEMBOURG,WALLONIE
6971,Champlon,Oui,TENNEVILLE,LUXEMBOURG,WALLONIE
6972,Erneuville,Oui,TENNEVILLE,LUXEMBOURG,WALLONIE
6980,Beausaint,Oui,LA ROCHE-EN-ARDENNE,LUXEMBOURG,WALLONIE
6980,La Roche-En-Ardenne,Non,LA ROCHE-EN-ARDENNE,LUXEMBOURG,WALLONIE
6982,Samrée,Oui,LA ROCHE-EN-ARDENNE,LUXEMBOURG,WALLONIE
6983,Ortho,Oui,LA ROCHE-EN-ARDENNE,LUXEMBOURG,WALLONIE
6984,Hives,Oui,LA ROCHE-EN-ARDENNE,LUXEMBOURG,WALLONIE
6986,Halleux,Oui,LA ROCHE-EN-ARDENNE,LUXEMBOURG,WALLONIE
6987,Beffe,Oui,RENDEUX,LUXEMBOURG,WALLONIE
6987,Hodister,Oui,RENDEUX,LUXEMBOURG,WALLONIE
6987,Marcourt,Oui,RENDEUX,LUXEMBOURG,WALLONIE
6987,Rendeux,Non,RENDEUX,LUXEMBOURG,WALLONIE
6990,Fronville,Oui,HOTTON,LUXEMBOURG,WALLONIE
6990,Hampteau,Oui,HOTTON,LUXEMBOURG,WALLONIE
6990,Hotton,Non,HOTTON,LUXEMBOURG,WALLONIE
6990,Marenne,Oui,HOTTON,LUXEMBOURG,WALLONIE
6997,Amonines,Oui,EREZÉE,LUXEMBOURG,WALLONIE
6997,Erezée,Non,EREZÉE,LUXEMBOURG,WALLONIE
6997,Mormont,Oui,EREZÉE,LUXEMBOURG,WALLONIE
6997,Soy,Oui,EREZÉE,LUXEMBOURG,WALLONIE
7000,Mons,Non,MONS,HAINAUT,WALLONIE
7010,SHAPE,,SHAPE,,
7011,Ghlin,Oui,MONS,HAINAUT,WALLONIE
7012,Flénu,Oui,MONS,HAINAUT,WALLONIE
7012,Jemappes,Oui,MONS,HAINAUT,WALLONIE
7020,Maisières,Oui,MONS,HAINAUT,WALLONIE
7020,Nimy,Oui,MONS,HAINAUT,WALLONIE
7021,Havré,Oui,MONS,HAINAUT,WALLONIE
7022,Harmignies,Oui,MONS,HAINAUT,WALLONIE
7022,Harveng,Oui,MONS,HAINAUT,WALLONIE
7022,Hyon,Oui,MONS,HAINAUT,WALLONIE
7022,Mesvin,Oui,MONS,HAINAUT,WALLONIE
7022,Nouvelles,Oui,MONS,HAINAUT,WALLONIE
7024,Ciply,Oui,MONS,HAINAUT,WALLONIE
7030,Saint-Symphorien,Oui,MONS,HAINAUT,WALLONIE
7031,Villers-Saint-Ghislain,Oui,MONS,HAINAUT,WALLONIE
7032,Spiennes,Oui,MONS,HAINAUT,WALLONIE
7033,Cuesmes,Oui,MONS,HAINAUT,WALLONIE
7034,Obourg,Oui,MONS,HAINAUT,WALLONIE
7034,Saint-Denis,Oui,MONS,HAINAUT,WALLONIE
7040,Asquillies,Oui,QUÉVY,HAINAUT,WALLONIE
7040,Aulnois,Oui,QUÉVY,HAINAUT,WALLONIE
7040,Blaregnies,Oui,QUÉVY,HAINAUT,WALLONIE
7040,Bougnies,Oui,QUÉVY,HAINAUT,WALLONIE
7040,Genly,Oui,QUÉVY,HAINAUT,WALLONIE
7040,Goegnies-Chaussée,Oui,QUÉVY,HAINAUT,WALLONIE
7040,Quévy-Le-Grand,Oui,QUÉVY,HAINAUT,WALLONIE
7040,Quévy-Le-Petit,Oui,QUÉVY,HAINAUT,WALLONIE
7041,Givry,Oui,QUÉVY,HAINAUT,WALLONIE
7041,Havay,Oui,QUÉVY,HAINAUT,WALLONIE
7050,Erbaut,Oui,JURBISE,HAINAUT,WALLONIE
7050,Erbisoeul,Oui,JURBISE,HAINAUT,WALLONIE
7050,Herchies,Oui,JURBISE,HAINAUT,WALLONIE
7050,Jurbise,Non,JURBISE,HAINAUT,WALLONIE
7050,Masnuy-Saint-Jean,Oui,JURBISE,HAINAUT,WALLONIE
7050,Masnuy-Saint-Pierre,Oui,JURBISE,HAINAUT,WALLONIE
7060,Horrues,Oui,SOIGNIES,HAINAUT,WALLONIE
7060,Soignies,Non,SOIGNIES,HAINAUT,WALLONIE
7061,Casteau,Oui,SOIGNIES,HAINAUT,WALLONIE
7061,Thieusies,Oui,SOIGNIES,HAINAUT,WALLONIE
7062,Naast,Oui,SOIGNIES,HAINAUT,WALLONIE
7063,Chaussée-Notre-Dame-Louvignies,Oui,SOIGNIES,HAINAUT,WALLONIE
7063,Neufvilles,Oui,SOIGNIES,HAINAUT,WALLONIE
7070,Gottignies,Oui,LE ROEULX,HAINAUT,WALLONIE
7070,Le Roeulx,Non,LE ROEULX,HAINAUT,WALLONIE
7070,Mignault,Oui,LE ROEULX,HAINAUT,WALLONIE
7070,Thieu,Oui,LE ROEULX,HAINAUT,WALLONIE
7070,Ville-Sur-Haine,Oui,LE ROEULX,HAINAUT,WALLONIE
7080,Eugies,Oui,FRAMERIES,HAINAUT,WALLONIE
7080,Frameries,Non,FRAMERIES,HAINAUT,WALLONIE
7080,La Bouverie,Oui,FRAMERIES,HAINAUT,WALLONIE
7080,Noirchain,Oui,FRAMERIES,HAINAUT,WALLONIE
7080,Sars-La-Bruyère,Oui,FRAMERIES,HAINAUT,WALLONIE
7090,Braine-Le-Comte,Non,BRAINE-LE-COMTE,HAINAUT,WALLONIE
7090,Hennuyères,Oui,BRAINE-LE-COMTE,HAINAUT,WALLONIE
7090,Henripont,Oui,BRAINE-LE-COMTE,HAINAUT,WALLONIE
7090,Petit-Roeulx-Lez-Braine,Oui,BRAINE-LE-COMTE,HAINAUT,WALLONIE
7090,Ronquières,Oui,BRAINE-LE-COMTE,HAINAUT,WALLONIE
7090,Steenkerque,Oui,BRAINE-LE-COMTE,HAINAUT,WALLONIE
7100,Haine-Saint-Paul,Oui,LA LOUVIÈRE,HAINAUT,WALLONIE
7100,Haine-Saint-Pierre,Oui,LA LOUVIÈRE,HAINAUT,WALLONIE
7100,La Louvière,Non,LA LOUVIÈRE,HAINAUT,WALLONIE
7100,Saint-Vaast,Oui,LA LOUVIÈRE,HAINAUT,WALLONIE
7100,Trivières,Oui,LA LOUVIÈRE,HAINAUT,WALLONIE
7110,Boussoit,Oui,LA LOUVIÈRE,HAINAUT,WALLONIE
7110,Houdeng-Aimeries,Oui,LA LOUVIÈRE,HAINAUT,WALLONIE
7110,Houdeng-Goegnies,Oui,LA LOUVIÈRE,HAINAUT,WALLONIE
7110,Maurage,Oui,LA LOUVIÈRE,HAINAUT,WALLONIE
7110,Strépy-Bracquegnies,Oui,LA LOUVIÈRE,HAINAUT,WALLONIE
7120,Croix-Lez-Rouveroy,Oui,ESTINNES,HAINAUT,WALLONIE
7120,Estinnes-Au-Mont,Oui,ESTINNES,HAINAUT,WALLONIE
7120,Estinnes-Au-Val,Oui,ESTINNES,HAINAUT,WALLONIE
7120,Fauroeulx,Oui,ESTINNES,HAINAUT,WALLONIE
7120,Haulchin,Oui,ESTINNES,HAINAUT,WALLONIE
7120,Peissant,Oui,ESTINNES,HAINAUT,WALLONIE
7120,Rouveroy,Oui,ESTINNES,HAINAUT,WALLONIE
7120,Vellereille-Le-Sec,Oui,ESTINNES,HAINAUT,WALLONIE
7120,Vellereille-Les-Brayeux,Oui,ESTINNES,HAINAUT,WALLONIE
7130,Battignies,Oui,BINCHE,HAINAUT,WALLONIE
7130,Binche,Non,BINCHE,HAINAUT,WALLONIE
7130,Bray,Oui,BINCHE,HAINAUT,WALLONIE
7131,Waudrez,Oui,BINCHE,HAINAUT,WALLONIE
7133,Buvrinnes,Oui,BINCHE,HAINAUT,WALLONIE
7134,Epinois,Oui,BINCHE,HAINAUT,WALLONIE
7134,Leval-Trahegnies,Oui,BINCHE,HAINAUT,WALLONIE
7134,Péronnes-Lez-Binche,Oui,BINCHE,HAINAUT,WALLONIE
7134,Ressaix,Oui,BINCHE,HAINAUT,WALLONIE
7140,Morlanwelz-Mariemont,Oui,MORLANWELZ,HAINAUT,WALLONIE
7141,Carnières,Oui,MORLANWELZ,HAINAUT,WALLONIE
7141,Mont-Sainte-Aldegonde,Oui,MORLANWELZ,HAINAUT,WALLONIE
7160,Chapelle-Lez-Herlaimont,Non,CHAPELLE-LEZ-HERLAIMONT,HAINAUT,WALLONIE
7160,Godarville,Oui,CHAPELLE-LEZ-HERLAIMONT,HAINAUT,WALLONIE
7160,Piéton,Oui,CHAPELLE-LEZ-HERLAIMONT,HAINAUT,WALLONIE
7170,Bellecourt,Oui,MANAGE,HAINAUT,WALLONIE
7170,Bois-D'Haine,Oui,MANAGE,HAINAUT,WALLONIE
7170,Fayt-Lez-Manage,Oui,MANAGE,HAINAUT,WALLONIE
7170,La Hestre,Oui,MANAGE,HAINAUT,WALLONIE
7170,Manage,Non,MANAGE,HAINAUT,WALLONIE
7180,Seneffe,Non,SENEFFE,HAINAUT,WALLONIE
7181,Arquennes,Oui,SENEFFE,HAINAUT,WALLONIE
7181,Familleureux,Oui,SENEFFE,HAINAUT,WALLONIE
7181,Feluy,Oui,SENEFFE,HAINAUT,WALLONIE
7181,Petit-Roeulx-Lez-Nivelles,Oui,SENEFFE,HAINAUT,WALLONIE
7190,Ecaussinnes-D'Enghien,Oui,ECAUSSINNES,HAINAUT,WALLONIE
7190,Marche-Lez-Ecaussinnes,Oui,ECAUSSINNES,HAINAUT,WALLONIE
7191,Ecaussinnes-Lalaing,Oui,ECAUSSINNES,HAINAUT,WALLONIE
7300,Boussu,Non,BOUSSU,HAINAUT,WALLONIE
7301,Hornu,Oui,BOUSSU,HAINAUT,WALLONIE
7320,Bernissart,Non,BERNISSART,HAINAUT,WALLONIE
7321,Blaton,Oui,BERNISSART,HAINAUT,WALLONIE
7321,Harchies,Oui,BERNISSART,HAINAUT,WALLONIE
7322,Pommeroeul,Oui,BERNISSART,HAINAUT,WALLONIE
7322,Ville-Pommeroeul,Oui,BERNISSART,HAINAUT,WALLONIE
7330,Saint-Ghislain,Non,SAINT-GHISLAIN,HAINAUT,WALLONIE
7331,Baudour,Oui,SAINT-GHISLAIN,HAINAUT,WALLONIE
7332,Neufmaison,Oui,SAINT-GHISLAIN,HAINAUT,WALLONIE
7332,Sirault,Oui,SAINT-GHISLAIN,HAINAUT,WALLONIE
7333,Tertre,Oui,SAINT-GHISLAIN,HAINAUT,WALLONIE
7334,Hautrage,Oui,SAINT-GHISLAIN,HAINAUT,WALLONIE
7334,Villerot,Oui,SAINT-GHISLAIN,HAINAUT,WALLONIE
7340,Colfontaine,Non,COLFONTAINE,HAINAUT,WALLONIE
7340,Pâturages,Oui,COLFONTAINE,HAINAUT,WALLONIE
7340,Warquignies,Oui,COLFONTAINE,HAINAUT,WALLONIE
7340,Wasmes,Oui,COLFONTAINE,HAINAUT,WALLONIE
7350,Hainin,Oui,HENSIES,HAINAUT,WALLONIE
7350,Hensies,Non,HENSIES,HAINAUT,WALLONIE
7350,Montroeul-Sur-Haine,Oui,HENSIES,HAINAUT,WALLONIE
7350,Thulin,Oui,HENSIES,HAINAUT,WALLONIE
7370,Blaugies,Oui,DOUR,HAINAUT,WALLONIE
7370,Dour,Non,DOUR,HAINAUT,WALLONIE
7370,Elouges,Oui,DOUR,HAINAUT,WALLONIE
7370,Wihéries,Oui,DOUR,HAINAUT,WALLONIE
7380,Baisieux,Oui,QUIÉVRAIN,HAINAUT,WALLONIE
7380,Quiévrain,Non,QUIÉVRAIN,HAINAUT,WALLONIE
7382,Audregnies,Oui,QUIÉVRAIN,HAINAUT,WALLONIE
7387,Angre,Oui,HONNELLES,HAINAUT,WALLONIE
7387,Angreau,Oui,HONNELLES,HAINAUT,WALLONIE
7387,Athis,Oui,HONNELLES,HAINAUT,WALLONIE
7387,Autreppe,Oui,HONNELLES,HAINAUT,WALLONIE
7387,Erquennes,Oui,HONNELLES,HAINAUT,WALLONIE
7387,Fayt-Le-Franc,Oui,HONNELLES,HAINAUT,WALLONIE
7387,Marchipont,Oui,HONNELLES,HAINAUT,WALLONIE
7387,Montignies-Sur-Roc,Oui,HONNELLES,HAINAUT,WALLONIE
7387,Onnezies,Oui,HONNELLES,HAINAUT,WALLONIE
7387,Roisin,Oui,HONNELLES,HAINAUT,WALLONIE
7390,Quaregnon,Non,QUAREGNON,HAINAUT,WALLONIE
7390,Wasmuel,Oui,QUAREGNON,HAINAUT,WALLONIE
7500,Ere,Oui,TOURNAI,HAINAUT,WALLONIE
7500,Saint-Maur,Oui,TOURNAI,HAINAUT,WALLONIE
7500,Tournai,Non,TOURNAI,HAINAUT,WALLONIE
7501,Orcq,Oui,TOURNAI,HAINAUT,WALLONIE
7502,Esplechin,Oui,TOURNAI,HAINAUT,WALLONIE
7503,Froyennes,Oui,TOURNAI,HAINAUT,WALLONIE
7504,Froidmont,Oui,TOURNAI,HAINAUT,WALLONIE
7506,Willemeau,Oui,TOURNAI,HAINAUT,WALLONIE
7510,3 Suisses,,3 Suisses,,
7511,Vitrine Magique,,Vitrine Magique,,
7512,DANIEL JOUVANCE,,DANIEL JOUVANCE,,
7513,Yves Rocher,,Yves Rocher,,
7520,Ramegnies-Chin,Oui,TOURNAI,HAINAUT,WALLONIE
7520,Templeuve,Oui,TOURNAI,HAINAUT,WALLONIE
7521,Chercq,Oui,TOURNAI,HAINAUT,WALLONIE
7522,Blandain,Oui,TOURNAI,HAINAUT,WALLONIE
7522,Hertain,Oui,TOURNAI,HAINAUT,WALLONIE
7522,Lamain,Oui,TOURNAI,HAINAUT,WALLONIE
7522,Marquain,Oui,TOURNAI,HAINAUT,WALLONIE
7530,Gaurain-Ramecroix,Oui,TOURNAI,HAINAUT,WALLONIE
7531,Havinnes,Oui,TOURNAI,HAINAUT,WALLONIE
7532,Béclers,Oui,TOURNAI,HAINAUT,WALLONIE
7533,Thimougies,Oui,TOURNAI,HAINAUT,WALLONIE
7534,Barry,Oui,TOURNAI,HAINAUT,WALLONIE
7534,Maulde,Oui,TOURNAI,HAINAUT,WALLONIE
7536,Vaulx,Oui,TOURNAI,HAINAUT,WALLONIE
7538,Vezon,Oui,TOURNAI,HAINAUT,WALLONIE
7540,Kain,Oui,TOURNAI,HAINAUT,WALLONIE
7540,Melles,Oui,TOURNAI,HAINAUT,WALLONIE
7540,Quartes,Oui,TOURNAI,HAINAUT,WALLONIE
7540,Rumillies,Oui,TOURNAI,HAINAUT,WALLONIE
7542,Mont-Saint-Aubert,Oui,TOURNAI,HAINAUT,WALLONIE
7543,Mourcourt,Oui,TOURNAI,HAINAUT,WALLONIE
7548,Warchin,Oui,TOURNAI,HAINAUT,WALLONIE
7600,Péruwelz,Non,PÉRUWELZ,HAINAUT,WALLONIE
7601,Roucourt,Oui,PÉRUWELZ,HAINAUT,WALLONIE
7602,Bury,Oui,PÉRUWELZ,HAINAUT,WALLONIE
7603,Bon-Secours,Oui,PÉRUWELZ,HAINAUT,WALLONIE
7604,Baugnies,Oui,PÉRUWELZ,HAINAUT,WALLONIE
7604,Braffe,Oui,PÉRUWELZ,HAINAUT,WALLONIE
7604,Brasménil,Oui,PÉRUWELZ,HAINAUT,WALLONIE
7604,Callenelle,Oui,PÉRUWELZ,HAINAUT,WALLONIE
7604,Wasmes-Audemez-Briffoeil,Oui,PÉRUWELZ,HAINAUT,WALLONIE
7608,Wiers,Oui,PÉRUWELZ,HAINAUT,WALLONIE
7610,Rumes,Non,RUMES,HAINAUT,WALLONIE
7611,La Glanerie,Oui,RUMES,HAINAUT,WALLONIE
7618,Taintignies,Oui,RUMES,HAINAUT,WALLONIE
7620,Bléharies,Oui,BRUNEHAUT,HAINAUT,WALLONIE
7620,Guignies,Oui,BRUNEHAUT,HAINAUT,WALLONIE
7620,Hollain,Oui,BRUNEHAUT,HAINAUT,WALLONIE
7620,Jollain-Merlin,Oui,BRUNEHAUT,HAINAUT,WALLONIE
7620,Wez-Velvain,Oui,BRUNEHAUT,HAINAUT,WALLONIE
7621,Lesdain,Oui,BRUNEHAUT,HAINAUT,WALLONIE
7622,Laplaigne,Oui,BRUNEHAUT,HAINAUT,WALLONIE
7623,Rongy,Oui,BRUNEHAUT,HAINAUT,WALLONIE
7624,Howardries,Oui,BRUNEHAUT,HAINAUT,WALLONIE
7640,Antoing,Non,ANTOING,HAINAUT,WALLONIE
7640,Maubray,Oui,ANTOING,HAINAUT,WALLONIE
7640,Péronnes-Lez-Antoing,Oui,ANTOING,HAINAUT,WALLONIE
7641,Bruyelle,Oui,ANTOING,HAINAUT,WALLONIE
7642,Calonne,Oui,ANTOING,HAINAUT,WALLONIE
7643,Fontenoy,Oui,ANTOING,HAINAUT,WALLONIE
7700,Luingne,Oui,MOUSCRON,HAINAUT,WALLONIE
7700,Mouscron,Non,MOUSCRON,HAINAUT,WALLONIE
7711,Dottignies,Oui,MOUSCRON,HAINAUT,WALLONIE
7712,Herseaux,Oui,MOUSCRON,HAINAUT,WALLONIE
7730,Bailleul,Oui,ESTAIMPUIS,HAINAUT,WALLONIE
7730,Estaimbourg,Oui,ESTAIMPUIS,HAINAUT,WALLONIE
7730,Estaimpuis,Non,ESTAIMPUIS,HAINAUT,WALLONIE
7730,Evregnies,Oui,ESTAIMPUIS,HAINAUT,WALLONIE
7730,Leers-Nord,Oui,ESTAIMPUIS,HAINAUT,WALLONIE
7730,Néchin,Oui,ESTAIMPUIS,HAINAUT,WALLONIE
7730,Saint-Léger,Oui,ESTAIMPUIS,HAINAUT,WALLONIE
7740,Pecq,Non,PECQ,HAINAUT,WALLONIE
7740,Warcoing,Oui,PECQ,HAINAUT,WALLONIE
7742,Hérinnes-Lez-Pecq,Oui,PECQ,HAINAUT,WALLONIE
7743,Esquelmes,Oui,PECQ,HAINAUT,WALLONIE
7743,Obigies,Oui,PECQ,HAINAUT,WALLONIE
7750,Amougies,Oui,MONT-DE-L'ENCLUS,HAINAUT,WALLONIE
7750,Anseroeul,Oui,MONT-DE-L'ENCLUS,HAINAUT,WALLONIE
7750,Orroir,Oui,MONT-DE-L'ENCLUS,HAINAUT,WALLONIE
7750,Russeignies,Oui,MONT-DE-L'ENCLUS,HAINAUT,WALLONIE
7760,Celles,Non,CELLES,HAINAUT,WALLONIE
7760,Escanaffles,Oui,CELLES,HAINAUT,WALLONIE
7760,Molenbaix,Oui,CELLES,HAINAUT,WALLONIE
7760,Popuelles,Oui,CELLES,HAINAUT,WALLONIE
7760,Pottes,Oui,CELLES,HAINAUT,WALLONIE
7760,Velaines,Oui,CELLES,HAINAUT,WALLONIE
7780,Comines,Oui,COMINES-WARNETON,HAINAUT,WALLONIE
7780,Comines-Warneton,Non,COMINES-WARNETON,HAINAUT,WALLONIE
7781,Houthem,Oui,COMINES-WARNETON,HAINAUT,WALLONIE
7782,Ploegsteert,Oui,COMINES-WARNETON,HAINAUT,WALLONIE
7783,Bizet,Oui,COMINES-WARNETON,HAINAUT,WALLONIE
7784,Bas-Warneton,Oui,COMINES-WARNETON,HAINAUT,WALLONIE
7784,Warneton,Oui,COMINES-WARNETON,HAINAUT,WALLONIE
7800,Ath,Non,ATH,HAINAUT,WALLONIE
7800,Lanquesaint,Oui,ATH,HAINAUT,WALLONIE
7801,Irchonwelz,Oui,ATH,HAINAUT,WALLONIE
7802,Ormeignies,Oui,ATH,HAINAUT,WALLONIE
7803,Bouvignies,Oui,ATH,HAINAUT,WALLONIE
7804,Ostiches,Oui,ATH,HAINAUT,WALLONIE
7804,Rebaix,Oui,ATH,HAINAUT,WALLONIE
7810,Maffle,Oui,ATH,HAINAUT,WALLONIE
7811,Arbre,Oui,ATH,HAINAUT,WALLONIE
7812,Houtaing,Oui,ATH,HAINAUT,WALLONIE
7812,Ligne,Oui,ATH,HAINAUT,WALLONIE
7812,Mainvault,Oui,ATH,HAINAUT,WALLONIE
7812,Moulbaix,Oui,ATH,HAINAUT,WALLONIE
7812,Villers-Notre-Dame,Oui,ATH,HAINAUT,WALLONIE
7812,Villers-Saint-Amand,Oui,ATH,HAINAUT,WALLONIE
7822,Ghislenghien,Oui,ATH,HAINAUT,WALLONIE
7822,Isières,Oui,ATH,HAINAUT,WALLONIE
7822,Meslin-L'Evêque,Oui,ATH,HAINAUT,WALLONIE
7823,Gibecq,Oui,ATH,HAINAUT,WALLONIE
7830,Bassilly,Oui,SILLY,HAINAUT,WALLONIE
7830,Fouleng,Oui,SILLY,HAINAUT,WALLONIE
7830,Gondregnies,Oui,SILLY,HAINAUT,WALLONIE
7830,Graty,Oui,SILLY,HAINAUT,WALLONIE
7830,Hellebecq,Oui,SILLY,HAINAUT,WALLONIE
7830,Hoves,Oui,SILLY,HAINAUT,WALLONIE
7830,Silly,Non,SILLY,HAINAUT,WALLONIE
7830,Thoricourt,Oui,SILLY,HAINAUT,WALLONIE
7850,Enghien,Non,ENGHIEN,HAINAUT,WALLONIE
7850,Marcq,Oui,ENGHIEN,HAINAUT,WALLONIE
7850,Petit-Enghien,Oui,ENGHIEN,HAINAUT,WALLONIE
7860,Lessines,Non,LESSINES,HAINAUT,WALLONIE
7861,Papignies,Oui,LESSINES,HAINAUT,WALLONIE
7861,Wannebecq,Oui,LESSINES,HAINAUT,WALLONIE
7862,Ogy,Oui,LESSINES,HAINAUT,WALLONIE
7863,Ghoy,Oui,LESSINES,HAINAUT,WALLONIE
7864,Deux-Acren,Oui,LESSINES,HAINAUT,WALLONIE
7866,Bois-De-Lessines,Oui,LESSINES,HAINAUT,WALLONIE
7866,Ollignies,Oui,LESSINES,HAINAUT,WALLONIE
7870,Bauffe,Oui,LENS,HAINAUT,WALLONIE
7870,Cambron-Saint-Vincent,Oui,LENS,HAINAUT,WALLONIE
7870,Lens,Non,LENS,HAINAUT,WALLONIE
7870,Lombise,Oui,LENS,HAINAUT,WALLONIE
7870,Montignies-Lez-Lens,Oui,LENS,HAINAUT,WALLONIE
7880,Flobecq,Non,FLOBECQ,HAINAUT,WALLONIE
7890,Ellezelles,Non,ELLEZELLES,HAINAUT,WALLONIE
7890,Lahamaide,Oui,ELLEZELLES,HAINAUT,WALLONIE
7890,Wodecq,Oui,ELLEZELLES,HAINAUT,WALLONIE
7900,Grandmetz,Oui,LEUZE-EN-HAINAUT,HAINAUT,WALLONIE
7900,Leuze-En-Hainaut,Non,LEUZE-EN-HAINAUT,HAINAUT,WALLONIE
7901,Thieulain,Oui,LEUZE-EN-HAINAUT,HAINAUT,WALLONIE
7903,Blicquy,Oui,LEUZE-EN-HAINAUT,HAINAUT,WALLONIE
7903,Chapelle-À-Oie,Oui,LEUZE-EN-HAINAUT,HAINAUT,WALLONIE
7903,Chapelle-À-Wattines,Oui,LEUZE-EN-HAINAUT,HAINAUT,WALLONIE
7904,Pipaix,Oui,LEUZE-EN-HAINAUT,HAINAUT,WALLONIE
7904,Tourpes,Oui,LEUZE-EN-HAINAUT,HAINAUT,WALLONIE
7904,Willaupuis,Oui,LEUZE-EN-HAINAUT,HAINAUT,WALLONIE
7906,Gallaix,Oui,LEUZE-EN-HAINAUT,HAINAUT,WALLONIE
7910,Anvaing,Oui,FRASNES-LEZ-ANVAING,HAINAUT,WALLONIE
7910,Arc-Ainières,Oui,FRASNES-LEZ-ANVAING,HAINAUT,WALLONIE
7910,Arc-Wattripont,Oui,FRASNES-LEZ-ANVAING,HAINAUT,WALLONIE
7910,Cordes,Oui,FRASNES-LEZ-ANVAING,HAINAUT,WALLONIE
7910,Ellignies-Lez-Frasnes,Oui,FRASNES-LEZ-ANVAING,HAINAUT,WALLONIE
7910,Forest,Oui,FRASNES-LEZ-ANVAING,HAINAUT,WALLONIE
7910,Wattripont,Oui,FRASNES-LEZ-ANVAING,HAINAUT,WALLONIE
7911,Buissenal,Oui,FRASNES-LEZ-ANVAING,HAINAUT,WALLONIE
7911,Frasnes-Lez-Buissenal,Oui,FRASNES-LEZ-ANVAING,HAINAUT,WALLONIE
7911,Hacquegnies,Oui,FRASNES-LEZ-ANVAING,HAINAUT,WALLONIE
7911,Herquegies,Oui,FRASNES-LEZ-ANVAING,HAINAUT,WALLONIE
7911,Montroeul-Au-Bois,Oui,FRASNES-LEZ-ANVAING,HAINAUT,WALLONIE
7911,Moustier,Oui,FRASNES-LEZ-ANVAING,HAINAUT,WALLONIE
7911,Oeudeghien,Oui,FRASNES-LEZ-ANVAING,HAINAUT,WALLONIE
7912,Dergneau,Oui,FRASNES-LEZ-ANVAING,HAINAUT,WALLONIE
7912,Saint-Sauveur,Oui,FRASNES-LEZ-ANVAING,HAINAUT,WALLONIE
7940,Brugelette,Non,BRUGELETTE,HAINAUT,WALLONIE
7940,Cambron-Casteau,Oui,BRUGELETTE,HAINAUT,WALLONIE
7941,Attre,Oui,BRUGELETTE,HAINAUT,WALLONIE
7942,Mévergnies-Lez-Lens,Oui,BRUGELETTE,HAINAUT,WALLONIE
7943,Gages,Oui,BRUGELETTE,HAINAUT,WALLONIE
7950,Chièvres,Non,CHIÈVRES,HAINAUT,WALLONIE
7950,Grosage,Oui,CHIÈVRES,HAINAUT,WALLONIE
7950,Huissignies,Oui,CHIÈVRES,HAINAUT,WALLONIE
7950,Ladeuze,Oui,CHIÈVRES,HAINAUT,WALLONIE
7950,Tongre-Saint-Martin,Oui,CHIÈVRES,HAINAUT,WALLONIE
7951,Tongre-Notre-Dame,Oui,CHIÈVRES,HAINAUT,WALLONIE
7970,Beloeil,Non,BELOEIL,HAINAUT,WALLONIE
7971,Basècles,Oui,BELOEIL,HAINAUT,WALLONIE
7971,Ramegnies,Oui,BELOEIL,HAINAUT,WALLONIE
7971,Thumaide,Oui,BELOEIL,HAINAUT,WALLONIE
7971,Wadelincourt,Oui,BELOEIL,HAINAUT,WALLONIE
7972,Aubechies,Oui,BELOEIL,HAINAUT,WALLONIE
7972,Ellignies-Sainte-Anne,Oui,BELOEIL,HAINAUT,WALLONIE
7972,Quevaucamps,Oui,BELOEIL,HAINAUT,WALLONIE
7973,Grandglise,Oui,BELOEIL,HAINAUT,WALLONIE
7973,Stambruges,Oui,BELOEIL,HAINAUT,WALLONIE
8000,Brugge,Non,BRUGGE,FLANDRE-OCCIDENTALE,VLAANDEREN
8000,Koolkerke,Oui,BRUGGE,FLANDRE-OCCIDENTALE,VLAANDEREN
8020,Hertsberge,Oui,OOSTKAMP,FLANDRE-OCCIDENTALE,VLAANDEREN
8020,Oostkamp,Non,OOSTKAMP,FLANDRE-OCCIDENTALE,VLAANDEREN
8020,Ruddervoorde,Oui,OOSTKAMP,FLANDRE-OCCIDENTALE,VLAANDEREN
8020,Waardamme,Oui,OOSTKAMP,FLANDRE-OCCIDENTALE,VLAANDEREN
8200,Sint-Andries,Oui,BRUGGE,FLANDRE-OCCIDENTALE,VLAANDEREN
8200,Sint-Michiels,Oui,BRUGGE,FLANDRE-OCCIDENTALE,VLAANDEREN
8210,Loppem,Oui,ZEDELGEM,FLANDRE-OCCIDENTALE,VLAANDEREN
8210,Veldegem,Oui,ZEDELGEM,FLANDRE-OCCIDENTALE,VLAANDEREN
8210,Zedelgem,Non,ZEDELGEM,FLANDRE-OCCIDENTALE,VLAANDEREN
8211,Aartrijke,Oui,ZEDELGEM,FLANDRE-OCCIDENTALE,VLAANDEREN
8300,Knokke,Oui,KNOKKE-HEIST,FLANDRE-OCCIDENTALE,VLAANDEREN
8300,Westkapelle,Oui,KNOKKE-HEIST,FLANDRE-OCCIDENTALE,VLAANDEREN
8301,Heist-Aan-Zee,Oui,KNOKKE-HEIST,FLANDRE-OCCIDENTALE,VLAANDEREN
8301,Ramskapelle,Oui,KNOKKE-HEIST,FLANDRE-OCCIDENTALE,VLAANDEREN
8310,Assebroek,Oui,BRUGGE,FLANDRE-OCCIDENTALE,VLAANDEREN
8310,Sint-Kruis,Oui,BRUGGE,FLANDRE-OCCIDENTALE,VLAANDEREN
8340,Damme,Non,DAMME,FLANDRE-OCCIDENTALE,VLAANDEREN
8340,Hoeke,Oui,DAMME,FLANDRE-OCCIDENTALE,VLAANDEREN
8340,Lapscheure,Oui,DAMME,FLANDRE-OCCIDENTALE,VLAANDEREN
8340,Moerkerke,Oui,DAMME,FLANDRE-OCCIDENTALE,VLAANDEREN
8340,Oostkerke,Oui,DAMME,FLANDRE-OCCIDENTALE,VLAANDEREN
8340,Sijsele,Oui,DAMME,FLANDRE-OCCIDENTALE,VLAANDEREN
8370,Blankenberge,Non,BLANKENBERGE,FLANDRE-OCCIDENTALE,VLAANDEREN
8370,Uitkerke,Oui,BLANKENBERGE,FLANDRE-OCCIDENTALE,VLAANDEREN
8377,Houtave,Oui,ZUIENKERKE,FLANDRE-OCCIDENTALE,VLAANDEREN
8377,Meetkerke,Oui,ZUIENKERKE,FLANDRE-OCCIDENTALE,VLAANDEREN
8377,Nieuwmunster,Oui,ZUIENKERKE,FLANDRE-OCCIDENTALE,VLAANDEREN
8377,Zuienkerke,Non,ZUIENKERKE,FLANDRE-OCCIDENTALE,VLAANDEREN
8380,Dudzele,Oui,BRUGGE,FLANDRE-OCCIDENTALE,VLAANDEREN
8380,Lissewege,Oui,BRUGGE,FLANDRE-OCCIDENTALE,VLAANDEREN
8380,Zeebrugge,Oui,BRUGGE,FLANDRE-OCCIDENTALE,VLAANDEREN
8400,Oostende,Non,OOSTENDE,FLANDRE-OCCIDENTALE,VLAANDEREN
8400,Stene,Oui,OOSTENDE,FLANDRE-OCCIDENTALE,VLAANDEREN
8400,Zandvoorde,Oui,OOSTENDE,FLANDRE-OCCIDENTALE,VLAANDEREN
8420,De Haan,Non,DE HAAN,FLANDRE-OCCIDENTALE,VLAANDEREN
8420,Klemskerke,Oui,DE HAAN,FLANDRE-OCCIDENTALE,VLAANDEREN
8420,Wenduine,Oui,DE HAAN,FLANDRE-OCCIDENTALE,VLAANDEREN
8421,Vlissegem,Oui,DE HAAN,FLANDRE-OCCIDENTALE,VLAANDEREN
8430,Middelkerke,Non,MIDDELKERKE,FLANDRE-OCCIDENTALE,VLAANDEREN
8431,Wilskerke,Oui,MIDDELKERKE,FLANDRE-OCCIDENTALE,VLAANDEREN
8432,Leffinge,Oui,MIDDELKERKE,FLANDRE-OCCIDENTALE,VLAANDEREN
8433,Mannekensvere,Oui,MIDDELKERKE,FLANDRE-OCCIDENTALE,VLAANDEREN
8433,Schore,Oui,MIDDELKERKE,FLANDRE-OCCIDENTALE,VLAANDEREN
8433,Sint-Pieters-Kapelle,Oui,MIDDELKERKE,FLANDRE-OCCIDENTALE,VLAANDEREN
8433,Slijpe,Oui,MIDDELKERKE,FLANDRE-OCCIDENTALE,VLAANDEREN
8434,Lombardsijde,Oui,MIDDELKERKE,FLANDRE-OCCIDENTALE,VLAANDEREN
8434,Westende,Oui,MIDDELKERKE,FLANDRE-OCCIDENTALE,VLAANDEREN
8450,Bredene,Non,BREDENE,FLANDRE-OCCIDENTALE,VLAANDEREN
8460,Ettelgem,Oui,OUDENBURG,FLANDRE-OCCIDENTALE,VLAANDEREN
8460,Oudenburg,Non,OUDENBURG,FLANDRE-OCCIDENTALE,VLAANDEREN
8460,Roksem,Oui,OUDENBURG,FLANDRE-OCCIDENTALE,VLAANDEREN
8460,Westkerke,Oui,OUDENBURG,FLANDRE-OCCIDENTALE,VLAANDEREN
8470,Gistel,Non,GISTEL,FLANDRE-OCCIDENTALE,VLAANDEREN
8470,Moere,Oui,GISTEL,FLANDRE-OCCIDENTALE,VLAANDEREN
8470,Snaaskerke,Oui,GISTEL,FLANDRE-OCCIDENTALE,VLAANDEREN
8470,Zevekote,Oui,GISTEL,FLANDRE-OCCIDENTALE,VLAANDEREN
8480,Bekegem,Oui,ICHTEGEM,FLANDRE-OCCIDENTALE,VLAANDEREN
8480,Eernegem,Oui,ICHTEGEM,FLANDRE-OCCIDENTALE,VLAANDEREN
8480,Ichtegem,Non,ICHTEGEM,FLANDRE-OCCIDENTALE,VLAANDEREN
8490,Jabbeke,Non,JABBEKE,FLANDRE-OCCIDENTALE,VLAANDEREN
8490,Snellegem,Oui,JABBEKE,FLANDRE-OCCIDENTALE,VLAANDEREN
8490,Stalhille,Oui,JABBEKE,FLANDRE-OCCIDENTALE,VLAANDEREN
8490,Varsenare,Oui,JABBEKE,FLANDRE-OCCIDENTALE,VLAANDEREN
8490,Zerkegem,Oui,JABBEKE,FLANDRE-OCCIDENTALE,VLAANDEREN
8500,Kortrijk,Non,KORTRIJK,FLANDRE-OCCIDENTALE,VLAANDEREN
8501,Bissegem,Oui,KORTRIJK,FLANDRE-OCCIDENTALE,VLAANDEREN
8501,Heule,Oui,KORTRIJK,FLANDRE-OCCIDENTALE,VLAANDEREN
8510,Bellegem,Oui,KORTRIJK,FLANDRE-OCCIDENTALE,VLAANDEREN
8510,Kooigem,Oui,KORTRIJK,FLANDRE-OCCIDENTALE,VLAANDEREN
8510,Marke,Oui,KORTRIJK,FLANDRE-OCCIDENTALE,VLAANDEREN
8510,Rollegem,Oui,KORTRIJK,FLANDRE-OCCIDENTALE,VLAANDEREN
8511,Aalbeke,Oui,KORTRIJK,FLANDRE-OCCIDENTALE,VLAANDEREN
8520,Kuurne,Non,KUURNE,FLANDRE-OCCIDENTALE,VLAANDEREN
8530,Harelbeke,Non,HARELBEKE,FLANDRE-OCCIDENTALE,VLAANDEREN
8531,Bavikhove,Oui,HARELBEKE,FLANDRE-OCCIDENTALE,VLAANDEREN
8531,Hulste,Oui,HARELBEKE,FLANDRE-OCCIDENTALE,VLAANDEREN
8540,Deerlijk,Non,DEERLIJK,FLANDRE-OCCIDENTALE,VLAANDEREN
8550,Zwevegem,Non,ZWEVEGEM,FLANDRE-OCCIDENTALE,VLAANDEREN
8551,Heestert,Oui,ZWEVEGEM,FLANDRE-OCCIDENTALE,VLAANDEREN
8552,Moen,Oui,ZWEVEGEM,FLANDRE-OCCIDENTALE,VLAANDEREN
8553,Otegem,Oui,ZWEVEGEM,FLANDRE-OCCIDENTALE,VLAANDEREN
8554,Sint-Denijs,Oui,ZWEVEGEM,FLANDRE-OCCIDENTALE,VLAANDEREN
8560,Gullegem,Oui,WEVELGEM,FLANDRE-OCCIDENTALE,VLAANDEREN
8560,Moorsele,Oui,WEVELGEM,FLANDRE-OCCIDENTALE,VLAANDEREN
8560,Wevelgem,Non,WEVELGEM,FLANDRE-OCCIDENTALE,VLAANDEREN
8570,Anzegem,Non,ANZEGEM,FLANDRE-OCCIDENTALE,VLAANDEREN
8570,Gijzelbrechtegem,Oui,ANZEGEM,FLANDRE-OCCIDENTALE,VLAANDEREN
8570,Ingooigem,Oui,ANZEGEM,FLANDRE-OCCIDENTALE,VLAANDEREN
8570,Vichte,Oui,ANZEGEM,FLANDRE-OCCIDENTALE,VLAANDEREN
8572,Kaster,Oui,ANZEGEM,FLANDRE-OCCIDENTALE,VLAANDEREN
8573,Tiegem,Oui,ANZEGEM,FLANDRE-OCCIDENTALE,VLAANDEREN
8580,Avelgem,Non,AVELGEM,FLANDRE-OCCIDENTALE,VLAANDEREN
8581,Kerkhove,Oui,AVELGEM,FLANDRE-OCCIDENTALE,VLAANDEREN
8581,Waarmaarde,Oui,AVELGEM,FLANDRE-OCCIDENTALE,VLAANDEREN
8582,Outrijve,Oui,AVELGEM,FLANDRE-OCCIDENTALE,VLAANDEREN
8583,Bossuit,Oui,AVELGEM,FLANDRE-OCCIDENTALE,VLAANDEREN
8587,Espierres,Oui,ESPIERRES-HELCHIN,FLANDRE-OCCIDENTALE,VLAANDEREN
8587,Helchin,Oui,ESPIERRES-HELCHIN,FLANDRE-OCCIDENTALE,VLAANDEREN
8600,Beerst,Oui,DIKSMUIDE,FLANDRE-OCCIDENTALE,VLAANDEREN
8600,Diksmuide,Non,DIKSMUIDE,FLANDRE-OCCIDENTALE,VLAANDEREN
8600,Driekapellen,Oui,DIKSMUIDE,FLANDRE-OCCIDENTALE,VLAANDEREN
8600,Esen,Oui,DIKSMUIDE,FLANDRE-OCCIDENTALE,VLAANDEREN
8600,Kaaskerke,Oui,DIKSMUIDE,FLANDRE-OCCIDENTALE,VLAANDEREN
8600,Keiem,Oui,DIKSMUIDE,FLANDRE-OCCIDENTALE,VLAANDEREN
8600,Lampernisse,Oui,DIKSMUIDE,FLANDRE-OCCIDENTALE,VLAANDEREN
8600,Leke,Oui,DIKSMUIDE,FLANDRE-OCCIDENTALE,VLAANDEREN
8600,Nieuwkapelle,Oui,DIKSMUIDE,FLANDRE-OCCIDENTALE,VLAANDEREN
8600,Oostkerke,Oui,DIKSMUIDE,FLANDRE-OCCIDENTALE,VLAANDEREN
8600,Oudekapelle,Oui,DIKSMUIDE,FLANDRE-OCCIDENTALE,VLAANDEREN
8600,Pervijze,Oui,DIKSMUIDE,FLANDRE-OCCIDENTALE,VLAANDEREN
8600,Sint-Jacobs-Kapelle,Oui,DIKSMUIDE,FLANDRE-OCCIDENTALE,VLAANDEREN
8600,Stuivekenskerke,Oui,DIKSMUIDE,FLANDRE-OCCIDENTALE,VLAANDEREN
8600,Vladslo,Oui,DIKSMUIDE,FLANDRE-OCCIDENTALE,VLAANDEREN
8600,Woumen,Oui,DIKSMUIDE,FLANDRE-OCCIDENTALE,VLAANDEREN
8610,Handzame,Oui,KORTEMARK,FLANDRE-OCCIDENTALE,VLAANDEREN
8610,Kortemark,Non,KORTEMARK,FLANDRE-OCCIDENTALE,VLAANDEREN
8610,Werken,Oui,KORTEMARK,FLANDRE-OCCIDENTALE,VLAANDEREN
8610,Zarren,Oui,KORTEMARK,FLANDRE-OCCIDENTALE,VLAANDEREN
8620,Nieuwpoort,Non,NIEUWPOORT,FLANDRE-OCCIDENTALE,VLAANDEREN
8620,Ramskapelle,Oui,NIEUWPOORT,FLANDRE-OCCIDENTALE,VLAANDEREN
8620,Sint-Joris,Oui,NIEUWPOORT,FLANDRE-OCCIDENTALE,VLAANDEREN
8630,Avekapelle,Oui,VEURNE,FLANDRE-OCCIDENTALE,VLAANDEREN
8630,Booitshoeke,Oui,VEURNE,FLANDRE-OCCIDENTALE,VLAANDEREN
8630,Bulskamp,Oui,VEURNE,FLANDRE-OCCIDENTALE,VLAANDEREN
8630,De Moeren,Oui,VEURNE,FLANDRE-OCCIDENTALE,VLAANDEREN
8630,Eggewaartskapelle,Oui,VEURNE,FLANDRE-OCCIDENTALE,VLAANDEREN
8630,Houtem,Oui,VEURNE,FLANDRE-OCCIDENTALE,VLAANDEREN
8630,Steenkerke,Oui,VEURNE,FLANDRE-OCCIDENTALE,VLAANDEREN
8630,Veurne,Non,VEURNE,FLANDRE-OCCIDENTALE,VLAANDEREN
8630,Vinkem,Oui,VEURNE,FLANDRE-OCCIDENTALE,VLAANDEREN
8630,Wulveringem,Oui,VEURNE,FLANDRE-OCCIDENTALE,VLAANDEREN
8630,Zoutenaaie,Oui,VEURNE,FLANDRE-OCCIDENTALE,VLAANDEREN
8640,Oostvleteren,Oui,VLETEREN,FLANDRE-OCCIDENTALE,VLAANDEREN
8640,Westvleteren,Oui,VLETEREN,FLANDRE-OCCIDENTALE,VLAANDEREN
8640,Woesten,Oui,VLETEREN,FLANDRE-OCCIDENTALE,VLAANDEREN
8647,Lo,Oui,LO-RENINGE,FLANDRE-OCCIDENTALE,VLAANDEREN
8647,Noordschote,Oui,LO-RENINGE,FLANDRE-OCCIDENTALE,VLAANDEREN
8647,Pollinkhove,Oui,LO-RENINGE,FLANDRE-OCCIDENTALE,VLAANDEREN
8647,Reninge,Oui,LO-RENINGE,FLANDRE-OCCIDENTALE,VLAANDEREN
8650,Houthulst,Non,HOUTHULST,FLANDRE-OCCIDENTALE,VLAANDEREN
8650,Klerken,Oui,HOUTHULST,FLANDRE-OCCIDENTALE,VLAANDEREN
8650,Merkem,Oui,HOUTHULST,FLANDRE-OCCIDENTALE,VLAANDEREN
8660,Adinkerke,Oui,DE PANNE,FLANDRE-OCCIDENTALE,VLAANDEREN
8660,De Panne,Non,DE PANNE,FLANDRE-OCCIDENTALE,VLAANDEREN
8670,Koksijde,Non,KOKSIJDE,FLANDRE-OCCIDENTALE,VLAANDEREN
8670,Oostduinkerke,Oui,KOKSIJDE,FLANDRE-OCCIDENTALE,VLAANDEREN
8670,Wulpen,Oui,KOKSIJDE,FLANDRE-OCCIDENTALE,VLAANDEREN
8680,Bovekerke,Oui,KOEKELARE,FLANDRE-OCCIDENTALE,VLAANDEREN
8680,Koekelare,Non,KOEKELARE,FLANDRE-OCCIDENTALE,VLAANDEREN
8680,Zande,Oui,KOEKELARE,FLANDRE-OCCIDENTALE,VLAANDEREN
8690,Alveringem,Non,ALVERINGEM,FLANDRE-OCCIDENTALE,VLAANDEREN
8690,Hoogstade,Oui,ALVERINGEM,FLANDRE-OCCIDENTALE,VLAANDEREN
8690,Oeren,Oui,ALVERINGEM,FLANDRE-OCCIDENTALE,VLAANDEREN
8690,Sint-Rijkers,Oui,ALVERINGEM,FLANDRE-OCCIDENTALE,VLAANDEREN
8691,Beveren-Aan-De-Ijzer,Oui,ALVERINGEM,FLANDRE-OCCIDENTALE,VLAANDEREN
8691,Gijverinkhove,Oui,ALVERINGEM,FLANDRE-OCCIDENTALE,VLAANDEREN
8691,Izenberge,Oui,ALVERINGEM,FLANDRE-OCCIDENTALE,VLAANDEREN
8691,Leisele,Oui,ALVERINGEM,FLANDRE-OCCIDENTALE,VLAANDEREN
8691,Stavele,Oui,ALVERINGEM,FLANDRE-OCCIDENTALE,VLAANDEREN
8700,Aarsele,Oui,TIELT,FLANDRE-OCCIDENTALE,VLAANDEREN
8700,Kanegem,Oui,TIELT,FLANDRE-OCCIDENTALE,VLAANDEREN
8700,Schuiferskapelle,Oui,TIELT,FLANDRE-OCCIDENTALE,VLAANDEREN
8700,Tielt,Non,TIELT,FLANDRE-OCCIDENTALE,VLAANDEREN
8710,Ooigem,Oui,WIELSBEKE,FLANDRE-OCCIDENTALE,VLAANDEREN
8710,Sint-Baafs-Vijve,Oui,WIELSBEKE,FLANDRE-OCCIDENTALE,VLAANDEREN
8710,Wielsbeke,Non,WIELSBEKE,FLANDRE-OCCIDENTALE,VLAANDEREN
8720,Dentergem,Non,DENTERGEM,FLANDRE-OCCIDENTALE,VLAANDEREN
8720,Markegem,Oui,DENTERGEM,FLANDRE-OCCIDENTALE,VLAANDEREN
8720,Oeselgem,Oui,DENTERGEM,FLANDRE-OCCIDENTALE,VLAANDEREN
8720,Wakken,Oui,DENTERGEM,FLANDRE-OCCIDENTALE,VLAANDEREN
8730,Beernem,Non,BEERNEM,FLANDRE-OCCIDENTALE,VLAANDEREN
8730,Oedelem,Oui,BEERNEM,FLANDRE-OCCIDENTALE,VLAANDEREN
8730,Sint-Joris,Oui,BEERNEM,FLANDRE-OCCIDENTALE,VLAANDEREN
8740,Egem,Oui,PITTEM,FLANDRE-OCCIDENTALE,VLAANDEREN
8740,Pittem,Non,PITTEM,FLANDRE-OCCIDENTALE,VLAANDEREN
8750,Wingene,Non,WINGENE,FLANDRE-OCCIDENTALE,VLAANDEREN
8750,Zwevezele,Oui,WINGENE,FLANDRE-OCCIDENTALE,VLAANDEREN
8755,Ruiselede,Non,RUISELEDE,FLANDRE-OCCIDENTALE,VLAANDEREN
8760,Meulebeke,Non,MEULEBEKE,FLANDRE-OCCIDENTALE,VLAANDEREN
8770,Ingelmunster,Non,INGELMUNSTER,FLANDRE-OCCIDENTALE,VLAANDEREN
8780,Oostrozebeke,Non,OOSTROZEBEKE,FLANDRE-OCCIDENTALE,VLAANDEREN
8790,Waregem,Non,WAREGEM,FLANDRE-OCCIDENTALE,VLAANDEREN
8791,Beveren,Oui,WAREGEM,FLANDRE-OCCIDENTALE,VLAANDEREN
8792,Desselgem,Oui,WAREGEM,FLANDRE-OCCIDENTALE,VLAANDEREN
8793,Sint-Eloois-Vijve,Oui,WAREGEM,FLANDRE-OCCIDENTALE,VLAANDEREN
8800,Beveren,Oui,ROESELARE,FLANDRE-OCCIDENTALE,VLAANDEREN
8800,Oekene,Oui,ROESELARE,FLANDRE-OCCIDENTALE,VLAANDEREN
8800,Roeselare,Non,ROESELARE,FLANDRE-OCCIDENTALE,VLAANDEREN
8800,Rumbeke,Oui,ROESELARE,FLANDRE-OCCIDENTALE,VLAANDEREN
8810,Lichtervelde,Non,LICHTERVELDE,FLANDRE-OCCIDENTALE,VLAANDEREN
8820,Torhout,Non,TORHOUT,FLANDRE-OCCIDENTALE,VLAANDEREN
8830,Gits,Oui,HOOGLEDE,FLANDRE-OCCIDENTALE,VLAANDEREN
8830,Hooglede,Non,HOOGLEDE,FLANDRE-OCCIDENTALE,VLAANDEREN
8840,Oostnieuwkerke,Oui,STADEN,FLANDRE-OCCIDENTALE,VLAANDEREN
8840,Staden,Non,STADEN,FLANDRE-OCCIDENTALE,VLAANDEREN
8840,Westrozebeke,Oui,STADEN,FLANDRE-OCCIDENTALE,VLAANDEREN
8850,Ardooie,Non,ARDOOIE,FLANDRE-OCCIDENTALE,VLAANDEREN
8851,Koolskamp,Oui,ARDOOIE,FLANDRE-OCCIDENTALE,VLAANDEREN
8860,Lendelede,Non,LENDELEDE,FLANDRE-OCCIDENTALE,VLAANDEREN
8870,Emelgem,Oui,IZEGEM,FLANDRE-OCCIDENTALE,VLAANDEREN
8870,Izegem,Non,IZEGEM,FLANDRE-OCCIDENTALE,VLAANDEREN
8870,Kachtem,Oui,IZEGEM,FLANDRE-OCCIDENTALE,VLAANDEREN
8880,Ledegem,Non,LEDEGEM,FLANDRE-OCCIDENTALE,VLAANDEREN
8880,Rollegem-Kapelle,Oui,LEDEGEM,FLANDRE-OCCIDENTALE,VLAANDEREN
8880,Sint-Eloois-Winkel,Oui,LEDEGEM,FLANDRE-OCCIDENTALE,VLAANDEREN
8890,Dadizele,Oui,MOORSLEDE,FLANDRE-OCCIDENTALE,VLAANDEREN
8890,Moorslede,Non,MOORSLEDE,FLANDRE-OCCIDENTALE,VLAANDEREN
8900,Brielen,Oui,IEPER,FLANDRE-OCCIDENTALE,VLAANDEREN
8900,Dikkebus,Oui,IEPER,FLANDRE-OCCIDENTALE,VLAANDEREN
8900,Ieper,Non,IEPER,FLANDRE-OCCIDENTALE,VLAANDEREN
8900,Sint-Jan,Oui,IEPER,FLANDRE-OCCIDENTALE,VLAANDEREN
8902,Hollebeke,Oui,IEPER,FLANDRE-OCCIDENTALE,VLAANDEREN
8902,Voormezele,Oui,IEPER,FLANDRE-OCCIDENTALE,VLAANDEREN
8902,Zillebeke,Oui,IEPER,FLANDRE-OCCIDENTALE,VLAANDEREN
8904,Boezinge,Oui,IEPER,FLANDRE-OCCIDENTALE,VLAANDEREN
8904,Zuidschote,Oui,IEPER,FLANDRE-OCCIDENTALE,VLAANDEREN
8906,Elverdinge,Oui,IEPER,FLANDRE-OCCIDENTALE,VLAANDEREN
8908,Vlamertinge,Oui,IEPER,FLANDRE-OCCIDENTALE,VLAANDEREN
8920,Bikschote,Oui,LANGEMARK-POELKAPELLE,FLANDRE-OCCIDENTALE,VLAANDEREN
8920,Langemark,Oui,LANGEMARK-POELKAPELLE,FLANDRE-OCCIDENTALE,VLAANDEREN
8920,Poelkapelle,Oui,LANGEMARK-POELKAPELLE,FLANDRE-OCCIDENTALE,VLAANDEREN
8930,Lauwe,Oui,MENEN,FLANDRE-OCCIDENTALE,VLAANDEREN
8930,Menen,Non,MENEN,FLANDRE-OCCIDENTALE,VLAANDEREN
8930,Rekkem,Oui,MENEN,FLANDRE-OCCIDENTALE,VLAANDEREN
8940,Geluwe,Oui,WERVIK,FLANDRE-OCCIDENTALE,VLAANDEREN
8940,Wervik,Non,WERVIK,FLANDRE-OCCIDENTALE,VLAANDEREN
8950,Nieuwkerke,Oui,HEUVELLAND,FLANDRE-OCCIDENTALE,VLAANDEREN
8951,Dranouter,Oui,HEUVELLAND,FLANDRE-OCCIDENTALE,VLAANDEREN
8952,Wulvergem,Oui,HEUVELLAND,FLANDRE-OCCIDENTALE,VLAANDEREN
8953,Wijtschate,Oui,HEUVELLAND,FLANDRE-OCCIDENTALE,VLAANDEREN
8954,Westouter,Oui,HEUVELLAND,FLANDRE-OCCIDENTALE,VLAANDEREN
8956,Kemmel,Oui,HEUVELLAND,FLANDRE-OCCIDENTALE,VLAANDEREN
8957,Messines,Non,MESSINES,FLANDRE-OCCIDENTALE,VLAANDEREN
8958,Loker,Oui,HEUVELLAND,FLANDRE-OCCIDENTALE,VLAANDEREN
8970,Poperinge,Non,POPERINGE,FLANDRE-OCCIDENTALE,VLAANDEREN
8970,Reningelst,Oui,POPERINGE,FLANDRE-OCCIDENTALE,VLAANDEREN
8972,Krombeke,Oui,POPERINGE,FLANDRE-OCCIDENTALE,VLAANDEREN
8972,Proven,Oui,POPERINGE,FLANDRE-OCCIDENTALE,VLAANDEREN
8972,Roesbrugge-Haringe,Oui,POPERINGE,FLANDRE-OCCIDENTALE,VLAANDEREN
8978,Watou,Oui,POPERINGE,FLANDRE-OCCIDENTALE,VLAANDEREN
8980,Beselare,Oui,ZONNEBEKE,FLANDRE-OCCIDENTALE,VLAANDEREN
8980,Geluveld,Oui,ZONNEBEKE,FLANDRE-OCCIDENTALE,VLAANDEREN
8980,Passendale,Oui,ZONNEBEKE,FLANDRE-OCCIDENTALE,VLAANDEREN
8980,Zandvoorde,Oui,ZONNEBEKE,FLANDRE-OCCIDENTALE,VLAANDEREN
8980,Zonnebeke,Non,ZONNEBEKE,FLANDRE-OCCIDENTALE,VLAANDEREN
9000,Gent,Non,GENT,FLANDRE-ORIENTALE,VLAANDEREN
9030,Mariakerke,Oui,GENT,FLANDRE-ORIENTALE,VLAANDEREN
9031,Drongen,Oui,GENT,FLANDRE-ORIENTALE,VLAANDEREN
9032,Wondelgem,Oui,GENT,FLANDRE-ORIENTALE,VLAANDEREN
9040,Sint-Amandsberg,Oui,GENT,FLANDRE-ORIENTALE,VLAANDEREN
9041,Oostakker,Oui,GENT,FLANDRE-ORIENTALE,VLAANDEREN
9042,Desteldonk,Oui,GENT,FLANDRE-ORIENTALE,VLAANDEREN
9042,Mendonk,Oui,GENT,FLANDRE-ORIENTALE,VLAANDEREN
9042,Sint-Kruis-Winkel,Oui,GENT,FLANDRE-ORIENTALE,VLAANDEREN
9050,Gentbrugge,Oui,GENT,FLANDRE-ORIENTALE,VLAANDEREN
9050,Ledeberg,Oui,GENT,FLANDRE-ORIENTALE,VLAANDEREN
9051,Afsnee,Oui,GENT,FLANDRE-ORIENTALE,VLAANDEREN
9051,Sint-Denijs-Westrem,Oui,GENT,FLANDRE-ORIENTALE,VLAANDEREN
9052,Zwijnaarde,Oui,GENT,FLANDRE-ORIENTALE,VLAANDEREN
9060,Zelzate,Non,ZELZATE,FLANDRE-ORIENTALE,VLAANDEREN
9070,Destelbergen,Non,DESTELBERGEN,FLANDRE-ORIENTALE,VLAANDEREN
9070,Heusden,Oui,DESTELBERGEN,FLANDRE-ORIENTALE,VLAANDEREN
9075,CSM Gent X,,CSM Gent X,,
9080,Beervelde,Oui,LOCHRISTI,FLANDRE-ORIENTALE,VLAANDEREN
9080,Lochristi,Non,LOCHRISTI,FLANDRE-ORIENTALE,VLAANDEREN
9080,Zaffelare,Oui,LOCHRISTI,FLANDRE-ORIENTALE,VLAANDEREN
9080,Zeveneken,Oui,LOCHRISTI,FLANDRE-ORIENTALE,VLAANDEREN
9090,Gontrode,Oui,MELLE,FLANDRE-ORIENTALE,VLAANDEREN
9090,Melle,Non,MELLE,FLANDRE-ORIENTALE,VLAANDEREN
9099,Gent X,,Gent X,,
9100,Nieuwkerken-Waas,Oui,SINT-NIKLAAS,FLANDRE-ORIENTALE,VLAANDEREN
9100,Sint-Niklaas,Non,SINT-NIKLAAS,FLANDRE-ORIENTALE,VLAANDEREN
9111,Belsele,Oui,SINT-NIKLAAS,FLANDRE-ORIENTALE,VLAANDEREN
9112,Sinaai-Waas,Oui,SINT-NIKLAAS,FLANDRE-ORIENTALE,VLAANDEREN
9120,Beveren-Waas,Non,BEVEREN-WAAS,FLANDRE-ORIENTALE,VLAANDEREN
9120,Haasdonk,Oui,BEVEREN-WAAS,FLANDRE-ORIENTALE,VLAANDEREN
9120,Kallo,Oui,BEVEREN-WAAS,FLANDRE-ORIENTALE,VLAANDEREN
9120,Melsele,Oui,BEVEREN-WAAS,FLANDRE-ORIENTALE,VLAANDEREN
9120,Vrasene,Oui,BEVEREN-WAAS,FLANDRE-ORIENTALE,VLAANDEREN
9130,Doel,Oui,BEVEREN-WAAS,FLANDRE-ORIENTALE,VLAANDEREN
9130,Kallo,Oui,BEVEREN-WAAS,FLANDRE-ORIENTALE,VLAANDEREN
9130,Kieldrecht,Oui,BEVEREN-WAAS,FLANDRE-ORIENTALE,VLAANDEREN
9130,Verrebroek,Oui,BEVEREN-WAAS,FLANDRE-ORIENTALE,VLAANDEREN
9140,Elversele,Oui,TEMSE,FLANDRE-ORIENTALE,VLAANDEREN
9140,Steendorp,Oui,TEMSE,FLANDRE-ORIENTALE,VLAANDEREN
9140,Temse,Non,TEMSE,FLANDRE-ORIENTALE,VLAANDEREN
9140,Tielrode,Oui,TEMSE,FLANDRE-ORIENTALE,VLAANDEREN
9150,Bazel,Oui,KRUIBEKE,FLANDRE-ORIENTALE,VLAANDEREN
9150,Kruibeke,Non,KRUIBEKE,FLANDRE-ORIENTALE,VLAANDEREN
9150,Rupelmonde,Oui,KRUIBEKE,FLANDRE-ORIENTALE,VLAANDEREN
9160,Daknam,Oui,LOKEREN,FLANDRE-ORIENTALE,VLAANDEREN
9160,Eksaarde,Oui,LOKEREN,FLANDRE-ORIENTALE,VLAANDEREN
9160,Lokeren,Non,LOKEREN,FLANDRE-ORIENTALE,VLAANDEREN
9170,De Klinge,Oui,SINT-GILLIS-WAAS,FLANDRE-ORIENTALE,VLAANDEREN
9170,Meerdonk,Oui,SINT-GILLIS-WAAS,FLANDRE-ORIENTALE,VLAANDEREN
9170,Sint-Gillis-Waas,Non,SINT-GILLIS-WAAS,FLANDRE-ORIENTALE,VLAANDEREN
9170,Sint-Pauwels,Oui,SINT-GILLIS-WAAS,FLANDRE-ORIENTALE,VLAANDEREN
9180,Moerbeke-Waas,Non,MOERBEKE-WAAS,FLANDRE-ORIENTALE,VLAANDEREN
9185,Wachtebeke,Non,WACHTEBEKE,FLANDRE-ORIENTALE,VLAANDEREN
9190,Kemzeke,Oui,STEKENE,FLANDRE-ORIENTALE,VLAANDEREN
9190,Stekene,Non,STEKENE,FLANDRE-ORIENTALE,VLAANDEREN
9200,Appels,Oui,DENDERMONDE,FLANDRE-ORIENTALE,VLAANDEREN
9200,Baasrode,Oui,DENDERMONDE,FLANDRE-ORIENTALE,VLAANDEREN
9200,Dendermonde,Non,DENDERMONDE,FLANDRE-ORIENTALE,VLAANDEREN
9200,Grembergen,Oui,DENDERMONDE,FLANDRE-ORIENTALE,VLAANDEREN
9200,Mespelare,Oui,DENDERMONDE,FLANDRE-ORIENTALE,VLAANDEREN
9200,Oudegem,Oui,DENDERMONDE,FLANDRE-ORIENTALE,VLAANDEREN
9200,Schoonaarde,Oui,DENDERMONDE,FLANDRE-ORIENTALE,VLAANDEREN
9200,Sint-Gillis-Dendermonde,Oui,DENDERMONDE,FLANDRE-ORIENTALE,VLAANDEREN
9220,Hamme,Non,HAMME,FLANDRE-ORIENTALE,VLAANDEREN
9220,Moerzeke,Oui,HAMME,FLANDRE-ORIENTALE,VLAANDEREN
9230,Massemen,Oui,WETTEREN,FLANDRE-ORIENTALE,VLAANDEREN
9230,Westrem,Oui,WETTEREN,FLANDRE-ORIENTALE,VLAANDEREN
9230,Wetteren,Non,WETTEREN,FLANDRE-ORIENTALE,VLAANDEREN
9240,Zele,Non,ZELE,FLANDRE-ORIENTALE,VLAANDEREN
9250,Waasmunster,Non,WAASMUNSTER,FLANDRE-ORIENTALE,VLAANDEREN
9255,Buggenhout,Non,BUGGENHOUT,FLANDRE-ORIENTALE,VLAANDEREN
9255,Opdorp,Oui,BUGGENHOUT,FLANDRE-ORIENTALE,VLAANDEREN
9260,Schellebelle,Oui,WICHELEN,FLANDRE-ORIENTALE,VLAANDEREN
9260,Serskamp,Oui,WICHELEN,FLANDRE-ORIENTALE,VLAANDEREN
9260,Wichelen,Non,WICHELEN,FLANDRE-ORIENTALE,VLAANDEREN
9270,Kalken,Oui,LAARNE,FLANDRE-ORIENTALE,VLAANDEREN
9270,Laarne,Non,LAARNE,FLANDRE-ORIENTALE,VLAANDEREN
9280,Denderbelle,Oui,LEBBEKE,FLANDRE-ORIENTALE,VLAANDEREN
9280,Lebbeke,Non,LEBBEKE,FLANDRE-ORIENTALE,VLAANDEREN
9280,Wieze,Oui,LEBBEKE,FLANDRE-ORIENTALE,VLAANDEREN
9290,Berlare,Non,BERLARE,FLANDRE-ORIENTALE,VLAANDEREN
9290,Overmere,Oui,BERLARE,FLANDRE-ORIENTALE,VLAANDEREN
9290,Uitbergen,Oui,BERLARE,FLANDRE-ORIENTALE,VLAANDEREN
9300,Aalst,Non,AALST,FLANDRE-ORIENTALE,VLAANDEREN
9308,Gijzegem,Oui,AALST,FLANDRE-ORIENTALE,VLAANDEREN
9308,Hofstade,Oui,AALST,FLANDRE-ORIENTALE,VLAANDEREN
9310,Baardegem,Oui,AALST,FLANDRE-ORIENTALE,VLAANDEREN
9310,Herdersem,Oui,AALST,FLANDRE-ORIENTALE,VLAANDEREN
9310,Meldert,Oui,AALST,FLANDRE-ORIENTALE,VLAANDEREN
9310,Moorsel,Oui,AALST,FLANDRE-ORIENTALE,VLAANDEREN
9320,Erembodegem,Oui,AALST,FLANDRE-ORIENTALE,VLAANDEREN
9320,Nieuwerkerken,Oui,AALST,FLANDRE-ORIENTALE,VLAANDEREN
9340,Impe,Oui,LEDE,FLANDRE-ORIENTALE,VLAANDEREN
9340,Lede,Non,LEDE,FLANDRE-ORIENTALE,VLAANDEREN
9340,Oordegem,Oui,LEDE,FLANDRE-ORIENTALE,VLAANDEREN
9340,Smetlede,Oui,LEDE,FLANDRE-ORIENTALE,VLAANDEREN
9340,Wanzele,Oui,LEDE,FLANDRE-ORIENTALE,VLAANDEREN
9400,Appelterre-Eichem,Oui,NINOVE,FLANDRE-ORIENTALE,VLAANDEREN
9400,Denderwindeke,Oui,NINOVE,FLANDRE-ORIENTALE,VLAANDEREN
9400,Lieferinge,Oui,NINOVE,FLANDRE-ORIENTALE,VLAANDEREN
9400,Nederhasselt,Oui,NINOVE,FLANDRE-ORIENTALE,VLAANDEREN
9400,Ninove,Non,NINOVE,FLANDRE-ORIENTALE,VLAANDEREN
9400,Okegem,Oui,NINOVE,FLANDRE-ORIENTALE,VLAANDEREN
9400,Voorde,Oui,NINOVE,FLANDRE-ORIENTALE,VLAANDEREN
9401,Pollare,Oui,NINOVE,FLANDRE-ORIENTALE,VLAANDEREN
9402,Meerbeke,Oui,NINOVE,FLANDRE-ORIENTALE,VLAANDEREN
9403,Neigem,Oui,NINOVE,FLANDRE-ORIENTALE,VLAANDEREN
9404,Aspelare,Oui,NINOVE,FLANDRE-ORIENTALE,VLAANDEREN
9406,Outer,Oui,NINOVE,FLANDRE-ORIENTALE,VLAANDEREN
9420,Aaigem,Oui,ERPE-MERE,FLANDRE-ORIENTALE,VLAANDEREN
9420,Bambrugge,Oui,ERPE-MERE,FLANDRE-ORIENTALE,VLAANDEREN
9420,Burst,Oui,ERPE-MERE,FLANDRE-ORIENTALE,VLAANDEREN
9420,Erondegem,Oui,ERPE-MERE,FLANDRE-ORIENTALE,VLAANDEREN
9420,Erpe,Oui,ERPE-MERE,FLANDRE-ORIENTALE,VLAANDEREN
9420,Mere,Oui,ERPE-MERE,FLANDRE-ORIENTALE,VLAANDEREN
9420,Ottergem,Oui,ERPE-MERE,FLANDRE-ORIENTALE,VLAANDEREN
9420,Vlekkem,Oui,ERPE-MERE,FLANDRE-ORIENTALE,VLAANDEREN
9450,Denderhoutem,Oui,HAALTERT,FLANDRE-ORIENTALE,VLAANDEREN
9450,Haaltert,Non,HAALTERT,FLANDRE-ORIENTALE,VLAANDEREN
9450,Heldergem,Oui,HAALTERT,FLANDRE-ORIENTALE,VLAANDEREN
9451,Kerksken,Oui,HAALTERT,FLANDRE-ORIENTALE,VLAANDEREN
9470,Denderleeuw,Non,DENDERLEEUW,FLANDRE-ORIENTALE,VLAANDEREN
9472,Iddergem,Oui,DENDERLEEUW,FLANDRE-ORIENTALE,VLAANDEREN
9473,Welle,Oui,DENDERLEEUW,FLANDRE-ORIENTALE,VLAANDEREN
9500,Geraardsbergen,Non,GERAARDSBERGEN,FLANDRE-ORIENTALE,VLAANDEREN
9500,Goeferdinge,Oui,GERAARDSBERGEN,FLANDRE-ORIENTALE,VLAANDEREN
9500,Moerbeke,Oui,GERAARDSBERGEN,FLANDRE-ORIENTALE,VLAANDEREN
9500,Nederboelare,Oui,GERAARDSBERGEN,FLANDRE-ORIENTALE,VLAANDEREN
9500,Onkerzele,Oui,GERAARDSBERGEN,FLANDRE-ORIENTALE,VLAANDEREN
9500,Ophasselt,Oui,GERAARDSBERGEN,FLANDRE-ORIENTALE,VLAANDEREN
9500,Overboelare,Oui,GERAARDSBERGEN,FLANDRE-ORIENTALE,VLAANDEREN
9500,Viane,Oui,GERAARDSBERGEN,FLANDRE-ORIENTALE,VLAANDEREN
9500,Zarlardinge,Oui,GERAARDSBERGEN,FLANDRE-ORIENTALE,VLAANDEREN
9506,Grimminge,Oui,GERAARDSBERGEN,FLANDRE-ORIENTALE,VLAANDEREN
9506,Idegem,Oui,GERAARDSBERGEN,FLANDRE-ORIENTALE,VLAANDEREN
9506,Nieuwenhove,Oui,GERAARDSBERGEN,FLANDRE-ORIENTALE,VLAANDEREN
9506,Schendelbeke,Oui,GERAARDSBERGEN,FLANDRE-ORIENTALE,VLAANDEREN
9506,Smeerebbe-Vloerzegem,Oui,GERAARDSBERGEN,FLANDRE-ORIENTALE,VLAANDEREN
9506,Waarbeke,Oui,GERAARDSBERGEN,FLANDRE-ORIENTALE,VLAANDEREN
9506,Zandbergen,Oui,GERAARDSBERGEN,FLANDRE-ORIENTALE,VLAANDEREN
9520,Bavegem,Oui,SINT-LIEVENS-HOUTEM,FLANDRE-ORIENTALE,VLAANDEREN
9520,Oombergen,Oui,SINT-LIEVENS-HOUTEM,FLANDRE-ORIENTALE,VLAANDEREN
9520,Sint-Lievens-Houtem,Non,SINT-LIEVENS-HOUTEM,FLANDRE-ORIENTALE,VLAANDEREN
9520,Vlierzele,Oui,SINT-LIEVENS-HOUTEM,FLANDRE-ORIENTALE,VLAANDEREN
9520,Zonnegem,Oui,SINT-LIEVENS-HOUTEM,FLANDRE-ORIENTALE,VLAANDEREN
9521,Letterhoutem,Oui,SINT-LIEVENS-HOUTEM,FLANDRE-ORIENTALE,VLAANDEREN
9550,Herzele,Non,HERZELE,FLANDRE-ORIENTALE,VLAANDEREN
9550,Hillegem,Oui,HERZELE,FLANDRE-ORIENTALE,VLAANDEREN
9550,Sint-Antelinks,Oui,HERZELE,FLANDRE-ORIENTALE,VLAANDEREN
9550,Sint-Lievens-Esse,Oui,HERZELE,FLANDRE-ORIENTALE,VLAANDEREN
9550,Steenhuize-Wijnhuize,Oui,HERZELE,FLANDRE-ORIENTALE,VLAANDEREN
9550,Woubrechtegem,Oui,HERZELE,FLANDRE-ORIENTALE,VLAANDEREN
9551,Ressegem,Oui,HERZELE,FLANDRE-ORIENTALE,VLAANDEREN
9552,Borsbeke,Oui,HERZELE,FLANDRE-ORIENTALE,VLAANDEREN
9570,Deftinge,Oui,LIERDE,FLANDRE-ORIENTALE,VLAANDEREN
9570,Sint-Maria-Lierde,Oui,LIERDE,FLANDRE-ORIENTALE,VLAANDEREN
9571,Hemelveerdegem,Oui,LIERDE,FLANDRE-ORIENTALE,VLAANDEREN
9572,Sint-Martens-Lierde,Oui,LIERDE,FLANDRE-ORIENTALE,VLAANDEREN
9600,Renaix,Non,RENAIX,FLANDRE-ORIENTALE,VLAANDEREN
9620,Elene,Oui,ZOTTEGEM,FLANDRE-ORIENTALE,VLAANDEREN
9620,Erwetegem,Oui,ZOTTEGEM,FLANDRE-ORIENTALE,VLAANDEREN
9620,Godveerdegem,Oui,ZOTTEGEM,FLANDRE-ORIENTALE,VLAANDEREN
9620,Grotenberge,Oui,ZOTTEGEM,FLANDRE-ORIENTALE,VLAANDEREN
9620,Leeuwergem,Oui,ZOTTEGEM,FLANDRE-ORIENTALE,VLAANDEREN
9620,Oombergen,Oui,ZOTTEGEM,FLANDRE-ORIENTALE,VLAANDEREN
9620,Sint-Goriks-Oudenhove,Oui,ZOTTEGEM,FLANDRE-ORIENTALE,VLAANDEREN
9620,Sint-Maria-Oudenhove,Oui,ZOTTEGEM,FLANDRE-ORIENTALE,VLAANDEREN
9620,Strijpen,Oui,ZOTTEGEM,FLANDRE-ORIENTALE,VLAANDEREN
9620,Velzeke-Ruddershove,Oui,ZOTTEGEM,FLANDRE-ORIENTALE,VLAANDEREN
9620,Zottegem,Non,ZOTTEGEM,FLANDRE-ORIENTALE,VLAANDEREN
9630,Beerlegem,Oui,ZWALM,FLANDRE-ORIENTALE,VLAANDEREN
9630,Dikkele,Oui,ZWALM,FLANDRE-ORIENTALE,VLAANDEREN
9630,Hundelgem,Oui,ZWALM,FLANDRE-ORIENTALE,VLAANDEREN
9630,Meilegem,Oui,ZWALM,FLANDRE-ORIENTALE,VLAANDEREN
9630,Munkzwalm,Oui,ZWALM,FLANDRE-ORIENTALE,VLAANDEREN
9630,Paulatem,Oui,ZWALM,FLANDRE-ORIENTALE,VLAANDEREN
9630,Roborst,Oui,ZWALM,FLANDRE-ORIENTALE,VLAANDEREN
9630,Rozebeke,Oui,ZWALM,FLANDRE-ORIENTALE,VLAANDEREN
9630,Sint-Blasius-Boekel,Oui,ZWALM,FLANDRE-ORIENTALE,VLAANDEREN
9630,Sint-Denijs-Boekel,Oui,ZWALM,FLANDRE-ORIENTALE,VLAANDEREN
9630,Sint-Maria-Latem,Oui,ZWALM,FLANDRE-ORIENTALE,VLAANDEREN
9636,Nederzwalm-Hermelgem,Oui,ZWALM,FLANDRE-ORIENTALE,VLAANDEREN
9660,Brakel,Non,BRAKEL,FLANDRE-ORIENTALE,VLAANDEREN
9660,Elst,Oui,BRAKEL,FLANDRE-ORIENTALE,VLAANDEREN
9660,Everbeek,Oui,BRAKEL,FLANDRE-ORIENTALE,VLAANDEREN
9660,Michelbeke,Oui,BRAKEL,FLANDRE-ORIENTALE,VLAANDEREN
9660,Nederbrakel,Oui,BRAKEL,FLANDRE-ORIENTALE,VLAANDEREN
9660,Opbrakel,Oui,BRAKEL,FLANDRE-ORIENTALE,VLAANDEREN
9660,Sint-Maria-Oudenhove,Oui,BRAKEL,FLANDRE-ORIENTALE,VLAANDEREN
9660,Zegelsem,Oui,BRAKEL,FLANDRE-ORIENTALE,VLAANDEREN
9661,Parike,Oui,BRAKEL,FLANDRE-ORIENTALE,VLAANDEREN
9667,Sint-Kornelis-Horebeke,Oui,HOREBEKE,FLANDRE-ORIENTALE,VLAANDEREN
9667,Sint-Maria-Horebeke,Oui,HOREBEKE,FLANDRE-ORIENTALE,VLAANDEREN
9680,Etikhove,Oui,MAARKEDAL,FLANDRE-ORIENTALE,VLAANDEREN
9680,Maarke-Kerkem,Oui,MAARKEDAL,FLANDRE-ORIENTALE,VLAANDEREN
9681,Nukerke,Oui,MAARKEDAL,FLANDRE-ORIENTALE,VLAANDEREN
9688,Schorisse,Oui,MAARKEDAL,FLANDRE-ORIENTALE,VLAANDEREN
9690,Berchem,Oui,KLUISBERGEN,FLANDRE-ORIENTALE,VLAANDEREN
9690,Kwaremont,Oui,KLUISBERGEN,FLANDRE-ORIENTALE,VLAANDEREN
9690,Ruien,Oui,KLUISBERGEN,FLANDRE-ORIENTALE,VLAANDEREN
9690,Zulzeke,Oui,KLUISBERGEN,FLANDRE-ORIENTALE,VLAANDEREN
9700,Bevere,Oui,OUDENAARDE,FLANDRE-ORIENTALE,VLAANDEREN
9700,Edelare,Oui,OUDENAARDE,FLANDRE-ORIENTALE,VLAANDEREN
9700,Eine,Oui,OUDENAARDE,FLANDRE-ORIENTALE,VLAANDEREN
9700,Ename,Oui,OUDENAARDE,FLANDRE-ORIENTALE,VLAANDEREN
9700,Heurne,Oui,OUDENAARDE,FLANDRE-ORIENTALE,VLAANDEREN
9700,Leupegem,Oui,OUDENAARDE,FLANDRE-ORIENTALE,VLAANDEREN
9700,Mater,Oui,OUDENAARDE,FLANDRE-ORIENTALE,VLAANDEREN
9700,Melden,Oui,OUDENAARDE,FLANDRE-ORIENTALE,VLAANDEREN
9700,Mullem,Oui,OUDENAARDE,FLANDRE-ORIENTALE,VLAANDEREN
9700,Nederename,Oui,OUDENAARDE,FLANDRE-ORIENTALE,VLAANDEREN
9700,Ooike,Oui,OUDENAARDE,FLANDRE-ORIENTALE,VLAANDEREN
9700,Oudenaarde,Non,OUDENAARDE,FLANDRE-ORIENTALE,VLAANDEREN
9700,Volkegem,Oui,OUDENAARDE,FLANDRE-ORIENTALE,VLAANDEREN
9700,Welden,Oui,OUDENAARDE,FLANDRE-ORIENTALE,VLAANDEREN
9750,Huise,Oui,KRUISEM,FLANDRE-ORIENTALE,VLAANDEREN
9750,Ouwegem,Oui,KRUISEM,FLANDRE-ORIENTALE,VLAANDEREN
9750,Zingem,Oui,KRUISEM,FLANDRE-ORIENTALE,VLAANDEREN
9770,Kruishoutem,Oui,KRUISEM,FLANDRE-ORIENTALE,VLAANDEREN
9771,Nokere,Oui,KRUISEM,FLANDRE-ORIENTALE,VLAANDEREN
9772,Wannegem-Lede,Oui,KRUISEM,FLANDRE-ORIENTALE,VLAANDEREN
9790,Elsegem,Oui,WORTEGEM-PETEGEM,FLANDRE-ORIENTALE,VLAANDEREN
9790,Moregem,Oui,WORTEGEM-PETEGEM,FLANDRE-ORIENTALE,VLAANDEREN
9790,Ooike,Oui,WORTEGEM-PETEGEM,FLANDRE-ORIENTALE,VLAANDEREN
9790,Petegem-Aan-De-Schelde,Oui,WORTEGEM-PETEGEM,FLANDRE-ORIENTALE,VLAANDEREN
9790,Wortegem,Oui,WORTEGEM-PETEGEM,FLANDRE-ORIENTALE,VLAANDEREN
9800,Astene,Oui,DEINZE,FLANDRE-ORIENTALE,VLAANDEREN
9800,Bachte-Maria-Leerne,Oui,DEINZE,FLANDRE-ORIENTALE,VLAANDEREN
9800,Deinze,Non,DEINZE,FLANDRE-ORIENTALE,VLAANDEREN
9800,Gottem,Oui,DEINZE,FLANDRE-ORIENTALE,VLAANDEREN
9800,Grammene,Oui,DEINZE,FLANDRE-ORIENTALE,VLAANDEREN
9800,Meigem,Oui,DEINZE,FLANDRE-ORIENTALE,VLAANDEREN
9800,Petegem-Aan-De-Leie,Oui,DEINZE,FLANDRE-ORIENTALE,VLAANDEREN
9800,Sint-Martens-Leerne,Oui,DEINZE,FLANDRE-ORIENTALE,VLAANDEREN
9800,Vinkt,Oui,DEINZE,FLANDRE-ORIENTALE,VLAANDEREN
9800,Wontergem,Oui,DEINZE,FLANDRE-ORIENTALE,VLAANDEREN
9800,Zeveren,Oui,DEINZE,FLANDRE-ORIENTALE,VLAANDEREN
9810,Eke,Oui,NAZARETH,FLANDRE-ORIENTALE,VLAANDEREN
9810,Nazareth,Non,NAZARETH,FLANDRE-ORIENTALE,VLAANDEREN
9820,Bottelare,Oui,MERELBEKE,FLANDRE-ORIENTALE,VLAANDEREN
9820,Lemberge,Oui,MERELBEKE,FLANDRE-ORIENTALE,VLAANDEREN
9820,Melsen,Oui,MERELBEKE,FLANDRE-ORIENTALE,VLAANDEREN
9820,Merelbeke,Non,MERELBEKE,FLANDRE-ORIENTALE,VLAANDEREN
9820,Munte,Oui,MERELBEKE,FLANDRE-ORIENTALE,VLAANDEREN
9820,Schelderode,Oui,MERELBEKE,FLANDRE-ORIENTALE,VLAANDEREN
9830,Sint-Martens-Latem,Non,SINT-MARTENS-LATEM,FLANDRE-ORIENTALE,VLAANDEREN
9831,Deurle,Oui,SINT-MARTENS-LATEM,FLANDRE-ORIENTALE,VLAANDEREN
9840,De Pinte,Non,DE PINTE,FLANDRE-ORIENTALE,VLAANDEREN
9840,Zevergem,Oui,DE PINTE,FLANDRE-ORIENTALE,VLAANDEREN
9850,Hansbeke,Oui,DEINZE,FLANDRE-ORIENTALE,VLAANDEREN
9850,Landegem,Oui,DEINZE,FLANDRE-ORIENTALE,VLAANDEREN
9850,Merendree,Oui,DEINZE,FLANDRE-ORIENTALE,VLAANDEREN
9850,Nevele,Oui,DEINZE,FLANDRE-ORIENTALE,VLAANDEREN
9850,Poesele,Oui,DEINZE,FLANDRE-ORIENTALE,VLAANDEREN
9850,Vosselare,Oui,DEINZE,FLANDRE-ORIENTALE,VLAANDEREN
9860,Balegem,Oui,OOSTERZELE,FLANDRE-ORIENTALE,VLAANDEREN
9860,Gijzenzele,Oui,OOSTERZELE,FLANDRE-ORIENTALE,VLAANDEREN
9860,Landskouter,Oui,OOSTERZELE,FLANDRE-ORIENTALE,VLAANDEREN
9860,Moortsele,Oui,OOSTERZELE,FLANDRE-ORIENTALE,VLAANDEREN
9860,Oosterzele,Non,OOSTERZELE,FLANDRE-ORIENTALE,VLAANDEREN
9860,Scheldewindeke,Oui,OOSTERZELE,FLANDRE-ORIENTALE,VLAANDEREN
9870,Machelen,Oui,ZULTE,FLANDRE-ORIENTALE,VLAANDEREN
9870,Olsene,Oui,ZULTE,FLANDRE-ORIENTALE,VLAANDEREN
9870,Zulte,Non,ZULTE,FLANDRE-ORIENTALE,VLAANDEREN
9880,Aalter,Non,AALTER,FLANDRE-ORIENTALE,VLAANDEREN
9880,Lotenhulle,Oui,AALTER,FLANDRE-ORIENTALE,VLAANDEREN
9880,Poeke,Oui,AALTER,FLANDRE-ORIENTALE,VLAANDEREN
9881,Bellem,Oui,AALTER,FLANDRE-ORIENTALE,VLAANDEREN
9890,Asper,Oui,GAVERE,FLANDRE-ORIENTALE,VLAANDEREN
9890,Baaigem,Oui,GAVERE,FLANDRE-ORIENTALE,VLAANDEREN
9890,Dikkelvenne,Oui,GAVERE,FLANDRE-ORIENTALE,VLAANDEREN
9890,Gavere,Non,GAVERE,FLANDRE-ORIENTALE,VLAANDEREN
9890,Semmerzake,Oui,GAVERE,FLANDRE-ORIENTALE,VLAANDEREN
9890,Vurste,Oui,GAVERE,FLANDRE-ORIENTALE,VLAANDEREN
9900,Eeklo,Non,EEKLO,FLANDRE-ORIENTALE,VLAANDEREN
9910,Knesselare,Oui,AALTER,FLANDRE-ORIENTALE,VLAANDEREN
9910,Ursel,Oui,AALTER,FLANDRE-ORIENTALE,VLAANDEREN
9920,Lovendegem,Oui,LIEVEGEM,FLANDRE-ORIENTALE,VLAANDEREN
9921,Vinderhoute,Oui,LIEVEGEM,FLANDRE-ORIENTALE,VLAANDEREN
9930,Zomergem,Oui,LIEVEGEM,FLANDRE-ORIENTALE,VLAANDEREN
9931,Oostwinkel,Oui,LIEVEGEM,FLANDRE-ORIENTALE,VLAANDEREN
9932,Ronsele,Oui,LIEVEGEM,FLANDRE-ORIENTALE,VLAANDEREN
9940,Ertvelde,Oui,EVERGEM,FLANDRE-ORIENTALE,VLAANDEREN
9940,Evergem,Non,EVERGEM,FLANDRE-ORIENTALE,VLAANDEREN
9940,Kluizen,Oui,EVERGEM,FLANDRE-ORIENTALE,VLAANDEREN
9940,Sleidinge,Oui,EVERGEM,FLANDRE-ORIENTALE,VLAANDEREN
9950,Waarschoot,Oui,LIEVEGEM,FLANDRE-ORIENTALE,VLAANDEREN
9960,Assenede,Non,ASSENEDE,FLANDRE-ORIENTALE,VLAANDEREN
9961,Boekhoute,Oui,ASSENEDE,FLANDRE-ORIENTALE,VLAANDEREN
9968,Bassevelde,Oui,ASSENEDE,FLANDRE-ORIENTALE,VLAANDEREN
9968,Oosteeklo,Oui,ASSENEDE,FLANDRE-ORIENTALE,VLAANDEREN
9970,Kaprijke,Non,KAPRIJKE,FLANDRE-ORIENTALE,VLAANDEREN
9971,Lembeke,Oui,KAPRIJKE,FLANDRE-ORIENTALE,VLAANDEREN
9980,Sint-Laureins,Non,SINT-LAUREINS,FLANDRE-ORIENTALE,VLAANDEREN
9981,Sint-Margriete,Oui,SINT-LAUREINS,FLANDRE-ORIENTALE,VLAANDEREN
9982,Sint-Jan-In-Eremo,Oui,SINT-LAUREINS,FLANDRE-ORIENTALE,VLAANDEREN
9988,Waterland-Oudeman,Oui,SINT-LAUREINS,FLANDRE-ORIENTALE,VLAANDEREN
9988,Watervliet,Oui,SINT-LAUREINS,FLANDRE-ORIENTALE,VLAANDEREN
9990,Maldegem,Non,MALDEGEM,FLANDRE-ORIENTALE,VLAANDEREN
9991,Adegem,Oui,MALDEGEM,FLANDRE-ORIENTALE,VLAANDEREN
9992,Middelburg,Oui,MALDEGEM,FLANDRE-ORIENTALE,VLAANDEREN
